zip_code,city,street,house_no,location_type,location_name,id,closure_periods,opening_hours,latitude,longitude
10178,Berlin,Spandauer Str.,2,RETAIL_OUTLET,City Shop,4340626,[],Mo: 08:00-18:00; Tu: 08:00-18:00; We: 08:00-18:00; Th: 08:00-18:00; Fr: 08:00-18:00; Sa: 08:00-16:00,52.5211445,13.4037667
10178,Berlin,Rathausstr.,5,POSTBANK_FINANCE_CENTER,Postbank Filiale,6730,"[{'type': 'closure', 'fromDate': '2025-10-29T00:00:00+0100', 'toDate': None}]",Mo: 09:30-18:30; Tu: 09:30-18:30; We: 09:30-18:30; Th: 09:30-18:30; Fr: 09:30-18:30; Sa: 09:00-14:00,52.5197371,13.4115168
10178,Berlin,Karl-Liebknecht-Str.,13,RETAIL_OUTLET,Lotto Post Tabak,4307374,[],Mo: 08:00-19:00; Tu: 08:00-19:00; We: 08:00-19:00; Th: 08:00-19:00; Fr: 08:00-19:00; Sa: 08:00-19:00,52.5223268,13.4080741
10179,Berlin,Grunerstr.,20,RETAIL_OUTLET,"GECO im ALEXA, Untergeschoss/Baseme",4125530,[],Mo: 09:00-19:45; Tu: 09:00-19:45; We: 09:00-19:45; Th: 09:00-19:45; Fr: 09:00-19:45; Sa: 09:00-19:45,52.5187644,13.4163841
10179,Berlin,Brückenstr.,1a,RETAIL_OUTLET,Lotto-Post-Schreibwaren,4326999,[],Mo: 09:00-19:00; Tu: 09:00-19:00; We: 09:00-19:00; Th: 09:00-19:00; Fr: 09:00-19:00; Sa: 09:00-15:00,52.5115047,13.4169142
10117,Berlin,Behrenstr.,29,RETAIL_OUTLET,Lotto Post Zeitschriften,4329065,[],Mo: 07:00-22:00; Tu: 07:00-22:00; We: 07:00-22:00; Th: 07:00-22:00; Fr: 07:00-22:00; Sa: 08:00-20:00; Su: 09:00-21:00,52.5155824,13.3902965
10119,Berlin,Torstr.,98,RETAIL_OUTLET,Postshop Torstraße,4312916,[],Mo: 09:00-18:30; Tu: 09:00-18:30; We: 09:00-18:30; Th: 09:00-18:30; Fr: 09:00-18:30; Sa: 10:00-15:00,52.5294491,13.4043244
10969,Berlin,Markgrafenstr.,19a,RETAIL_OUTLET,Lotto-Toto-Post,4335469,[],Mo: 09:00-18:00; Tu: 09:00-18:00; We: 09:00-18:00; Th: 09:00-18:00; Fr: 09:00-18:00; Sa: 09:00-13:00,52.5073043,13.3945643
10117,Berlin,Friedrichstr.,133,RETAIL_OUTLET,City-Shop am Friedrichstadtpalast,4341744,[],Mo: 08:00-19:00; Tu: 08:00-19:00; We: 08:00-19:00; Th: 08:00-19:00; Fr: 08:00-19:00; Sa: 08:00-16:00,52.5235573,13.3874275
10179,Berlin,Heinrich-Heine-Platz,9,RETAIL_OUTLET,Tabac-Center,4139026,[],Mo: 07:00-19:00; Tu: 07:00-19:00; We: 07:00-19:00; Th: 07:00-19:00; Fr: 07:00-19:00; Sa: 07:00-17:00,52.506585,13.4158765
10249,Berlin,Mollstr.,19,RETAIL_OUTLET,Post Lotto Schreibwaren,4327580,[],Mo: 08:00-18:00; Tu: 08:00-18:00; We: 08:00-18:00; Th: 08:00-18:00; Fr: 08:00-18:00; Sa: 08:00-13:00,52.5234703,13.4261535
10119,Berlin,Fehrbelliner Str.,83,RETAIL_OUTLET,etwas Spätkauf,4335800,[],Mo: 09:00-22:30; Tu: 09:00-22:30; We: 09:00-22:30; Th: 09:00-22:30; Fr: 09:00-22:30; Sa: 10:00-22:30,52.5322896,13.4057837
10969,Berlin,Oranienstr.,55,RETAIL_OUTLET,Kiezkauf,4329456,[],Mo: 07:00-20:00; Tu: 07:00-20:00; We: 07:00-20:00; Th: 07:00-20:00; Fr: 07:00-20:00; Sa: 07:00-20:00,52.5034209,13.4119274
10115,Berlin,Novalisstr.,13,RETAIL_OUTLET,Lottoladen Bieselt,4116178,[],Mo: 08:00-19:00; Tu: 08:00-19:00; We: 08:00-19:00; Th: 08:00-19:00; Fr: 08:00-19:00; Sa: 08:30-12:30,52.5284359,13.3885248
10407,Berlin,Am Friedrichshain,35,RETAIL_OUTLET,Melis Coffee 2,4088342,[],Mo: 08:00-22:00; Tu: 08:00-22:00; We: 08:00-22:00; Th: 08:00-22:00; Fr: 08:00-22:00; Sa: 08:00-22:00,52.5282837,13.4247892
10117,Berlin,Reinhardtstr.,46,RETAIL_OUTLET,LTP,4337728,[],Mo: 09:00-19:00; Tu: 09:00-19:00; We: 09:00-19:00; Th: 09:00-19:00; Fr: 09:00-19:00; Sa: 10:00-15:00,52.5225025,13.3784177
10969,Berlin,Ritterstr.,4-5,RETAIL_OUTLET,"Tabakwaren, Zeitungen, Lotto/Toto",4331236,[],Mo: 09:00-18:00; Tu: 09:00-18:00; We: 09:00-18:00; Th: 09:00-18:00; Fr: 09:00-18:00; Sa: 09:00-13:00,52.5008922,13.4126049
10115,Berlin,Chausseestr.,121-122,RETAIL_OUTLET,Postshop Chausseestraße,4328800,[],Mo: 09:00-18:00; Tu: 09:00-18:00; We: 09:00-18:00; Th: 09:00-18:00; Fr: 09:00-18:00; Sa: 09:00-13:00,52.529325,13.38428
10243,Berlin,Am Ostbahnhof,5,RETAIL_OUTLET,P & B Press & Books,4304991,[],Mo: 06:00-20:00; Tu: 06:00-20:00; We: 06:00-20:00; Th: 06:00-20:00; Fr: 06:00-20:00; Sa: 06:00-20:00,52.5103138,13.4329901
10785,Berlin,Potsdamer Platz,2,RETAIL_OUTLET,Spar Expres /Im Bhf–Eing.Sony-Cente,4337484,[],Mo: 09:00-19:00; Tu: 09:00-19:00; We: 09:00-19:00; Th: 09:00-19:00; Fr: 09:00-19:00; Sa: 10:00-15:00,52.5096925,13.3752856
10997,Berlin,Oranienstr.,10-11,RETAIL_OUTLET,Lotto Post,4306719,[],Mo: 09:00-19:00; Tu: 09:00-19:00; We: 09:00-19:00; Th: 09:00-19:00; Fr: 09:00-19:00; Sa: 10:00-17:00,52.5000886,13.4240324
10243,Berlin,Straße der Pariser Kommune,41,RETAIL_OUTLET,Lotto-Postpoint ,4093206,[],Mo: 08:00-19:00; Tu: 08:00-19:00; We: 08:00-19:00; Th: 08:00-19:00; Fr: 08:00-19:00; Sa: 08:00-13:00,52.516377,13.4401479
10435,Berlin,Sredzkistr.,29,RETAIL_OUTLET,Kiez Kiosk,4317608,[],Mo: 10:00-22:45; Tu: 10:00-22:45; We: 10:00-22:45; Th: 10:00-22:45; Fr: 10:00-22:45; Sa: 10:00-22:45; Su: 13:00-20:00,52.5385032,13.4168586
10961,Berlin,Blücherstr.,15,RETAIL_OUTLET,Kiosk,4308421,[],Mo: 08:00-19:00; Tu: 08:00-19:00; We: 08:00-19:00; Th: 08:00-19:00; Fr: 08:00-19:00; Sa: 08:00-19:00,52.4952186,13.3972017
10405,Berlin,Prenzlauer Allee,51,RETAIL_OUTLET,Melis Getränke,4292208,[],Mo: 07:30-22:30; Tu: 07:30-22:30; We: 07:30-22:30; Th: 07:30-22:30; Fr: 07:30-22:30; Sa: 07:30-22:30,52.5379209,13.4239386
13355,Berlin,Ackerstr.,118,RETAIL_OUTLET,Kiezshop am Ackerplatz,4324472,[],Mo: 09:00-18:00; Tu: 09:00-18:00; We: 09:00-18:00; Th: 09:00-18:00; Fr: 09:00-18:00; Sa: 09:00-18:00,52.5374724,13.3853992
10557,Berlin,Europaplatz,1,RETAIL_OUTLET,Relay,4316213,[],Mo: 09:00-19:00; Tu: 09:00-19:00; We: 09:00-19:00; Th: 09:00-19:00; Fr: 09:00-19:00; Sa: 10:00-16:00,52.5256753,13.3684737
10435,Berlin,Danziger Str.,41,RETAIL_OUTLET,Kiez Kiosk,4338189,[],Mo: 08:00-24:00; Tu: 08:00-24:00; We: 08:00-24:00; Th: 08:00-24:00; Fr: 08:00-24:00; Sa: 08:00-24:00,52.5402127,13.4191934
10407,Berlin,Danziger Str.,122,RETAIL_OUTLET,Central Food + Getränkemarkt,4332560,[],Mo: 08:00-20:00; Tu: 08:00-20:00; We: 08:00-20:00; Th: 08:00-20:00; Fr: 08:00-20:00; Sa: 09:00-20:00,52.5356067,13.4334958
10407,Berlin,Danziger Str.,176,RETAIL_OUTLET,Getränke Tabak Lebensmittel,4327392,[],Mo: 10:00-19:00; Tu: 10:00-19:00; We: 10:00-19:00; Th: 10:00-19:00; Fr: 10:00-19:00; Sa: 10:00-18:00,52.532245,13.4404143
10557,Berlin,Lehrter Str.,1,RETAIL_OUTLET,Lehrter Shop,4103143,[],Mo: 06:00-23:00; Tu: 06:00-23:00; We: 06:00-23:00; Th: 06:00-23:00; Fr: 06:00-23:00; Sa: 07:00-23:00; Su: 08:00-18:00,52.5261154,13.3653025
10967,Berlin,Graefestr.,73,RETAIL_OUTLET,Presse-Tabek-Post-Lotto,4329384,[],Mo: 09:00-21:00; Tu: 09:00-21:00; We: 09:00-21:00; Th: 09:00-21:00; Fr: 09:00-21:00; Sa: 09:00-21:00,52.4921511,13.4173403
10437,Berlin,Schönhauser Allee,135,RETAIL_OUTLET,Kiosk,4098107,"[{'type': 'holiday', 'fromDate': '2025-05-27T00:00:00+0200', 'toDate': '2025-10-01T23:59:59+0200'}, {'type': 'closure', 'fromDate': '2025-10-02T00:00:00+0200', 'toDate': None}]",Mo: holiday-holiday; Tu: holiday-holiday; We: holiday-holiday; Th: holiday-holiday; Fr: holiday-holiday; Sa: holiday-holiday,52.5439621,13.4120056
13355,Berlin,Brunnenstr.,78,RETAIL_OUTLET,Kiosk,4111098,[],Mo: 06:00-18:00; Tu: 06:00-18:00; We: 06:00-18:00; Th: 06:00-18:00; Fr: 06:00-18:00; Sa: 07:00-13:00,52.543149,13.3926426
10961,Berlin,Mehringdamm,38,RETAIL_OUTLET,Kiosk Lotto,4131844,[],Mo: 08:00-20:00; Tu: 08:00-20:00; We: 08:00-20:00; Th: 08:00-20:00; Fr: 08:00-20:00; Sa: 09:00-20:00; Su: 09:00-20:00,52.4933016,13.3875628
10967,Berlin,Kottbusser Damm,13,RETAIL_OUTLET,Sezgin Yildririm,4111391,[],Mo: 10:00-20:00; Tu: 10:00-20:00; We: 10:00-20:00; Th: 10:00-20:00; Fr: 10:00-20:00; Sa: 10:00-19:00,52.4927855,13.4219581
10961,Berlin,Gneisenaustr.,9,RETAIL_OUTLET,KI-BA Kiosk -Back-Shop,4093180,[],Mo: 00:00-02:00; Tu: 00:00-02:00; We: 06:00-24:00; Th: 06:00-24:00; Fr: 06:00-24:00; Sa: 06:00-24:00; Su: 00:00-03:00,52.4920055,13.3907076
10967,Berlin,Körtestr.,17,RETAIL_OUTLET,Heim Getränke 2,4335329,[],Mo: 09:00-23:00; Tu: 09:00-23:00; We: 09:00-23:00; Th: 09:00-23:00; Fr: 09:00-23:00; Sa: 09:00-23:00,52.490469,13.4104314
10557,Berlin,Otto-Weidt-Platz,14,RETAIL_OUTLET,Golden Bridge,4333802,[],Mo: 10:00-22:00; Tu: 10:00-22:00; We: 10:00-22:00; Th: 10:00-22:00; Fr: 10:00-22:00; Sa: 10:00-22:00,52.5331926,13.3681052
10961,Berlin,Gneisenaustr.,40,RETAIL_OUTLET,POSTFILIALE 547,4293476,[],Mo: 10:00-18:30; Tu: 10:00-18:30; We: 10:00-18:30; Th: 10:00-18:30; Fr: 10:00-18:30; Sa: 11:00-14:00,52.4899945,13.4006005
10997,Berlin,Wrangelstr.,86,RETAIL_OUTLET,Wrangel Shop,4342599,[],Mo: 09:00-16:00; Tu: 09:00-16:00; We: 09:00-16:00; Th: 09:00-16:00; Fr: 09:00-16:00; Sa: 09:00-16:00,52.4990714,13.4410497
10243,Berlin,Kopernikusstr.,6,RETAIL_OUTLET,Kopernikus-Shop,4126263,[],Mo: 08:00-21:00; Tu: 08:00-21:00; We: 08:00-21:00; Th: 08:00-21:00; Fr: 08:00-21:00; Sa: 08:00-18:00,52.5107303,13.4511785
10249,Berlin,Ebertystr.,5,RETAIL_OUTLET,Lotto Post,4323347,"[{'type': 'holiday', 'fromDate': '2025-10-15T00:00:00+0200', 'toDate': '2025-10-18T23:59:59+0200'}]",Mo: 10:00-18:00; Tu: 10:00-18:00; We: 10:00-18:00; Th: 10:00-18:00; Fr: 10:00-18:00; Sa: 10:00-13:00,52.5264419,13.4511022
10965,Berlin,Yorckstr.,22,RETAIL_OUTLET,York 22,4335731,[],Mo: 09:00-21:00; Tu: 09:00-21:00; We: 09:00-21:00; Th: 09:00-21:00; Fr: 09:00-21:00; Sa: 09:00-21:00,52.4929306,13.3800807
10999,Berlin,Reichenberger Str.,73a,RETAIL_OUTLET,Lotto,4118455,[],Mo: 09:00-19:00; Tu: 09:00-19:00; We: 09:00-19:00; Th: 09:00-19:00; Fr: 09:00-19:00; Sa: 09:00-16:00; Su: 09:00-14:00,52.4942796,13.4342308
10437,Berlin,Stargarder Str.,61,RETAIL_OUTLET,Star 61,4135055,[],Mo: 10:00-18:00; Tu: 10:00-18:00; We: 10:00-18:00; Th: 10:00-18:00; Fr: 10:00-18:00; Sa: 12:00-16:00,52.5454148,13.4211543
10437,Berlin,Gleimstr.,13a,RETAIL_OUTLET,"gleim shop-snacks, drinks and more",4109034,[],Mo: 07:00-22:00; Tu: 07:00-22:00; We: 07:00-22:00; Th: 07:00-22:00; Fr: 07:00-22:00; Sa: 07:00-22:00,52.5470375,13.407223
10247,Berlin,Petersburger Str.,95,RETAIL_OUTLET,Drink Shop Ja Dilo,4339706,[],Mo: 10:00-18:00; Tu: 10:00-18:00; We: 10:00-18:00; Th: 10:00-18:00; Fr: 10:00-18:00; Sa: 10:00-18:00,52.5171608,13.4539871
10961,Berlin,Bergmannstr.,10,RETAIL_OUTLET,Zigarren Lotto Post,4301048,[],Mo: 06:00-20:00; Tu: 06:00-20:00; We: 06:00-20:00; Th: 06:00-20:00; Fr: 06:00-20:00; Sa: 07:00-13:00,52.4895214,13.3898103
10437,Berlin,Gleimstr.,29,RETAIL_OUTLET,Spätkauf Oktar,4328212,[],Mo: 10:00-20:00; Tu: 10:00-20:00; We: 10:00-20:00; Th: 10:00-20:00; Fr: 10:00-20:00; Sa: 10:00-20:00,52.5474814,13.4126957
10557,Berlin,Lehrter Str.,24e,RETAIL_OUTLET,Posty,4340815,[],Mo: 10:00-23:00; Tu: 10:00-23:00; We: 10:00-23:00; Th: 10:00-23:00; Fr: 10:00-23:00; Sa: 10:00-23:00,52.5316046,13.3616137
10967,Berlin,Kottbusser Damm,72,RETAIL_OUTLET,Pen & Paper,4318164,[],Mo: 09:00-23:45; Tu: 09:00-23:45; We: 09:00-23:45; Th: 09:00-23:45; Fr: 09:00-23:45; Sa: 09:00-23:45,52.4897689,13.4243979
10245,Berlin,Rotherstr.,20,RETAIL_OUTLET,Pen & Paper,4296469,[],Mo: 08:00-20:00; Tu: 08:00-20:00; We: 08:00-20:00; Th: 08:00-20:00; Fr: 08:00-20:00; Sa: 10:00-15:00,52.5036094,13.4505738
10409,Berlin,Grellstr.,1a,RETAIL_OUTLET,Presseshop,4337154,[],Mo: 09:00-18:00; Tu: 09:00-18:00; We: 09:00-18:00; Th: 09:00-18:00; Fr: 09:00-18:00; Sa: 10:00-16:00,52.5452922,13.4281401
10785,Berlin,Kurfürstenstr.,153,RETAIL_OUTLET,Kiosk Lotto,4311123,[],Mo: 08:00-20:00; Tu: 08:00-20:00; We: 08:00-20:00; Th: 08:00-20:00; Fr: 08:00-20:00; Sa: 08:00-20:00,52.4994564,13.3635099
13355,Berlin,Brunnenstr.,105,RETAIL_OUTLET,Picobello im Kaufland,4322402,[],Mo: 09:00-19:00; Tu: 09:00-19:00; We: 09:00-19:00; Th: 09:00-19:00; Fr: 09:00-19:00; Sa: 09:00-19:00,52.5476732,13.3890231
10439,Berlin,Schönhauser Allee,79,POSTBANK_FINANCE_CENTER,Postbank Filiale,78430,[],Mo: 10:00-20:00; Tu: 10:00-20:00; We: 10:00-20:00; Th: 10:00-20:00; Fr: 10:00-20:00; Sa: 10:00-17:00,52.549578,13.4147154
10785,Berlin,Lützowstr.,48,RETAIL_OUTLET,Lottoladen Turhan,4314881,[],Mo: 06:00-18:00; Tu: 06:00-18:00; We: 06:00-18:00; Th: 06:00-18:00; Fr: 06:00-18:00; Sa: 08:00-14:00,52.5050459,13.3561429
10783,Berlin,Bülowstr.,27,RETAIL_OUTLET,Pen and Paper,4313641,[],Mo: 09:00-22:00; Tu: 09:00-22:00; We: 09:00-22:00; Th: 09:00-22:00; Fr: 09:00-22:00; Sa: 10:00-22:00,52.4973064,13.3629597
10245,Berlin,Gabriel-Max-Str.,4,RETAIL_OUTLET,Ayse Aykut,4320428,[],Mo: 09:00-17:00; Tu: 09:00-17:00; We: 09:00-17:00; Th: 09:00-17:00; Fr: 09:00-17:00; Sa: 09:00-17:00,52.5100566,13.4583556
10409,Berlin,Greifswalder Str.,90,RETAIL_OUTLET,Post-Shop Prenzlauer Berg,4332251,[],Mo: 09:00-18:00; Tu: 09:00-18:00; We: 09:00-18:00; Th: 09:00-18:00; Fr: 09:00-18:00; Sa: 09:00-13:00,52.5434739,13.4420731
10829,Berlin,Bautzener Str.,25,RETAIL_OUTLET,Minimarkt,4336351,[],Mo: 08:00-20:00; Tu: 08:00-20:00; We: 08:00-20:00; Th: 08:00-20:00; Fr: 08:00-20:00; Sa: 10:00-18:00,52.4906292,13.3709992
10249,Berlin,Hermann-Blankenstein-Str.,38,RETAIL_OUTLET,k kiosk ,4319474,[],Mo: 09:00-17:30; Tu: 09:00-17:30; We: 09:00-17:30; Th: 09:00-17:30; Fr: 09:00-17:30; Sa: 09:00-17:30,52.5240101,13.4617084
10407,Berlin,Storkower Str.,139,RETAIL_OUTLET,k kiosk,4307189,[],Mo: 09:00-17:30; Tu: 09:00-17:30; We: 09:00-17:30; Th: 09:00-17:30; Fr: 09:00-17:30; Sa: 09:00-17:30,52.533484,13.4565964
10439,Berlin,Paul-Robeson-Str.,19,RETAIL_OUTLET,MG Kiezmarkt,4293064,[],Mo: 08:00-20:00; Tu: 08:00-20:00; We: 08:00-20:00; Th: 08:00-20:00; Fr: 08:00-20:00; Sa: 08:00-16:00,52.5528419,13.4065105
10559,Berlin,Turmstr.,19,RETAIL_OUTLET,Backshop-Kiosk,4341561,[],Mo: 09:00-18:00; Tu: 09:00-18:00; We: 09:00-18:00; Th: 09:00-18:00; Fr: 09:00-18:00; Sa: 10:00-18:00,52.5264211,13.3487363
12045,Berlin,Weichselstr.,30,RETAIL_OUTLET,,4315186,[],Mo: 09:00-19:00; Tu: 09:00-19:00; We: 09:00-19:00; Th: 09:00-19:00; Fr: 09:00-19:00; Sa: 09:00-19:00,52.487509,13.4374793
10247,Berlin,Samariterstr.,3,RETAIL_OUTLET,Dein Späti,4324347,[],Mo: 14:00-24:00; Tu: 14:00-24:00; We: 10:00-13:00; Th: 14:00-24:00; Fr: 10:00-13:00; Sa: 10:00-13:00,52.5154206,13.4649036
13353,Berlin,Burgsdorfstr.,3a,RETAIL_OUTLET,Drinks House,4287503,[],Mo: 11:30-23:00; Tu: 11:30-23:00; We: 11:30-23:00; Th: 11:30-23:00; Fr: 11:30-23:00; Sa: 11:30-23:00; Su: 11:30-23:00,52.5426205,13.3621311
13357,Berlin,Badstr.,20,RETAIL_OUTLET,KLC mobile store,4298603,[],Mo: 10:00-19:00; Tu: 10:00-19:00; We: 10:00-19:00; Th: 10:00-19:00; Fr: 10:00-19:00; Sa: 10:00-16:00,52.5518485,13.3829807
10439,Berlin,Schönhauser Allee,91,RETAIL_OUTLET,Spätkauf P-Berg Kiosk,4129392,[],Mo: 10:00-19:00; Tu: 10:00-19:00; We: 10:00-19:00; Th: 10:00-19:00; Fr: 10:00-19:00; Sa: 11:00-18:00,52.5541454,13.4150373
10777,Berlin,Maaßenstr.,8,RETAIL_OUTLET,LOTTO,4329387,[],Mo: 07:30-20:00; Tu: 07:30-20:00; We: 07:30-20:00; Th: 07:30-20:00; Fr: 07:30-20:00; Sa: 07:30-20:00,52.4979406,13.3539888
12435,Berlin,Karl-Kunger-Str.,56,RETAIL_OUTLET,Lotto Tabak Post,4288412,[],Mo: 06:00-21:00; Tu: 06:00-21:00; We: 06:00-21:00; Th: 06:00-21:00; Fr: 06:00-21:00; Sa: 07:00-21:00,52.4908927,13.4481344
10369,Berlin,Franz-Jacob-Str.,2c,RETAIL_OUTLET,K kiosk,4320843,[],Mo: 09:00-18:00; Tu: 09:00-18:00; We: 09:00-18:00; Th: 09:00-18:00; Fr: 09:00-18:00; Sa: 09:00-13:00,52.5251582,13.4660296
10965,Berlin,Dudenstr.,76,RETAIL_OUTLET,Berlin 420,4337364,[],Mo: 10:00-18:00; Tu: 10:00-18:00; We: 10:00-18:00; Th: 10:00-18:00; Fr: 10:00-18:00; Sa: 09:30-14:30,52.4851853,13.3744921
10787,Berlin,Kurfürstenstr.,114,RETAIL_OUTLET,Tabak-Zeitschriften-Lotto,4322596,[],Mo: 06:00-18:00; Tu: 06:00-18:00; We: 06:00-18:00; Th: 06:00-18:00; Fr: 06:00-18:00; Sa: 07:00-13:00,52.5035436,13.3471349
10245,Berlin,Sonntagstr.,27,RETAIL_OUTLET,Käpt'n Kiez,4325967,[],Mo: 09:00-17:00; Tu: 09:00-17:00; We: 09:00-17:00; Th: 09:00-17:00; Fr: 09:00-17:00; Sa: 09:00-17:00,52.5061276,13.4655183
10247,Berlin,Frankfurter Allee,71-77,POSTBANK_FINANCE_CENTER,Postbank Filiale,19330,[],Mo: 09:00-18:30; Tu: 09:00-18:30; We: 09:00-18:30; Th: 09:00-18:30; Fr: 09:00-18:30; Sa: 09:30-13:00,52.5145466,13.4687215
13353,Berlin,Müllerstr.,156b,POSTBANK_FINANCE_CENTER,Postbank Filiale,4068447,[],Mo: 09:00-18:30; Tu: 09:00-18:30; We: 09:00-18:30; Th: 09:00-18:30; Fr: 09:00-18:30; Sa: 09:00-14:00,52.5452536,13.3606625
13086,Berlin,Streustr.,67,RETAIL_OUTLET,Kiez-Markt,4326868,[],Mo: 07:00-19:00; Tu: 07:00-19:00; We: 07:00-19:00; Th: 07:00-19:00; Fr: 07:00-19:00; Sa: 07:00-18:00,52.5527273,13.4332032
10551,Berlin,Stromstr.,11-17,RETAIL_OUTLET,GECO,4128764,[],Mo: 10:00-18:00; Tu: 10:00-18:00; We: 10:00-18:00; Th: 10:00-18:00; Fr: 10:00-18:00; Sa: 10:00-18:00,52.5274065,13.3435422
13353,Berlin,Sprengelstr.,13,RETAIL_OUTLET,Tabakwaren Akgül,4306652,[],Mo: 08:00-18:00; Tu: 08:00-18:00; We: 08:00-18:00; Th: 08:00-18:00; Fr: 08:00-18:00; Sa: 08:00-16:00,52.5420088,13.3554323
12043,Berlin,Karl-Marx-Str.,66,POSTBANK_FINANCE_CENTER,Postbank Filiale,4013333,[],Mo: 10:00-19:00; Tu: 10:00-19:00; We: 10:00-19:00; Th: 10:00-13:00; Fr: 10:00-19:00; Sa: 10:00-16:00,52.4821658,13.4329947
13347,Berlin,Reinickendorfer Str.,48a,RETAIL_OUTLET,Mo`s Spätkauf,4327669,[],Mo: 10:00-23:00; Tu: 10:00-23:00; We: 10:00-23:00; Th: 10:00-23:00; Fr: 10:00-23:00; Sa: 10:00-23:00,52.5504624,13.3682927
10559,Berlin,Stephanstr.,41-44,RETAIL_OUTLET,GECO,4102054,[],Mo: 08:30-14:00; Tu: 08:30-14:00; We: 08:30-19:30; Th: 08:30-14:00; Fr: 08:30-14:00; Sa: 08:30-19:30,52.5320797,13.3441194
12053,Berlin,Boddinstr.,48,RETAIL_OUTLET,dies & das,4335897,[],Mo: 08:00-20:00; Tu: 08:00-20:00; We: 08:00-20:00; Th: 08:00-20:00; Fr: 08:00-20:00; Sa: 08:00-16:00,52.4801574,13.4292887
12435,Berlin,Martin-Hoffmann-Str.,16,RETAIL_OUTLET,MUCA Kiosk,4337662,[],Mo: 07:00-19:00; Tu: 07:00-19:00; We: 07:00-19:00; Th: 07:00-19:00; Fr: 07:00-19:00; Sa: 09:00-14:00,52.4945075,13.459708
10827,Berlin,Hauptstr.,152,RETAIL_OUTLET,,4138988,[],Mo: 07:00-20:00; Tu: 07:00-20:00; We: 07:00-20:00; Th: 07:00-20:00; Fr: 07:00-20:00; Sa: 07:00-20:00,52.4884464,13.3588436
10777,Berlin,Motzstr.,34,RETAIL_OUTLET,Spätkauf Kiosk,4343505,[],Mo: 08:00-23:30; Tu: 08:00-23:30; We: 08:00-23:30; Th: 08:00-23:30; Fr: 08:00-23:30; Sa: 08:30-23:30,52.4974543,13.3467292
13086,Berlin,Langhansstr.,7,RETAIL_OUTLET,Der Kiosk,4326270,[],Mo: 07:00-20:00; Tu: 07:00-20:00; We: 07:00-20:00; Th: 07:00-20:00; Fr: 07:00-20:00; Sa: 10:00-20:00,52.549226,13.4489987
13353,Berlin,Torfstr.,19,RETAIL_OUTLET,Presse Shop,4297750,[],Mo: 07:00-20:00; Tu: 07:00-20:00; We: 07:00-20:00; Th: 07:00-20:00; Fr: 07:00-20:00; Sa: 08:00-20:00,52.5413666,13.350146
10369,Berlin,Landsberger Allee,171,RETAIL_OUTLET,Berliner Shop,4323154,[],Mo: 09:00-18:00; Tu: 09:00-18:00; We: 09:00-18:00; Th: 09:00-18:00; Fr: 09:00-18:00; Sa: 09:00-12:00,52.5317729,13.4693058
10551,Berlin,Jonasstr.,4,RETAIL_OUTLET,Kiosk,4312472,[],Mo: 14:45-22:00; Tu: 09:00-14:00; We: 09:00-14:00; Th: 14:45-22:00; Fr: 09:00-14:00; Sa: 14:45-18:00,52.5272181,13.3394029
12043,Berlin,Erkstr.,5,RETAIL_OUTLET,Getränke-Tabakwaren-Zeitschriften,4314016,[],Mo: 10:00-19:00; Tu: 10:00-19:00; We: 10:00-19:00; Th: 10:00-19:00; Fr: 10:00-19:00; Sa: 10:00-16:00,52.4810075,13.4370457
10247,Berlin,Frankfurter Allee,104,RETAIL_OUTLET,BERLINMAN,4341745,[],Mo: 08:00-19:00; Tu: 08:00-19:00; We: 08:00-19:00; Th: 08:00-19:00; Fr: 08:00-19:00; Sa: 08:00-16:00,52.5135552,13.473898
12059,Berlin,Harzer Str.,85,RETAIL_OUTLET,Troja Spätkauf,4324455,[],Mo: 09:00-19:00; Tu: 09:00-19:00; We: 09:00-19:00; Th: 09:00-19:00; Fr: 09:00-19:00; Sa: 09:00-15:00,52.485022,13.4492437
10823,Berlin,Akazienstr.,15,RETAIL_OUTLET,The Market,4323108,[],Mo: 10:00-20:00; Tu: 10:00-20:00; We: 10:00-20:00; Th: 10:00-20:00; Fr: 10:00-20:00; Sa: 10:00-20:00,52.4890721,13.3536202
13189,Berlin,Berliner Str.,47,RETAIL_OUTLET,Heiko Dreßler,4341492,[],Mo: 08:00-18:00; Tu: 08:00-18:00; We: 08:00-18:00; Th: 08:00-18:00; Fr: 08:00-18:00; Sa: 08:00-15:00,52.5600614,13.412762
13359,Berlin,Soldiner Str.,84,RETAIL_OUTLET,Online Telecafe,4114042,[],Mo: 11:00-18:00; Tu: 11:00-18:00; We: 11:00-18:00; Th: 11:00-18:00; Fr: 11:00-18:00; Sa: 11:00-18:00,52.5586639,13.3860123
10829,Berlin,Leberstr.,24,RETAIL_OUTLET,"LOTTO, Bild, Berliner Morgenpost",4125652,[],Mo: 06:00-18:00; Tu: 06:00-18:00; We: 06:00-18:00; Th: 06:00-18:00; Fr: 06:00-18:00; Sa: 08:00-13:00,52.4840131,13.3612823
10317,Berlin,Marktstr.,5,RETAIL_OUTLET,Tabak-Shop im Kaufland,4087852,[],Mo: 08:00-19:45; Tu: 08:00-19:45; We: 08:00-19:45; Th: 08:00-19:45; Fr: 08:00-19:45; Sa: 08:00-19:30,52.5040826,13.4729723
10789,Berlin,Tauentzienstr.,9-12,RETAIL_OUTLET,k kiosk,4337089,[],Mo: 10:00-20:00; Tu: 10:00-20:00; We: 10:00-20:00; Th: 10:00-20:00; Fr: 10:00-20:00; Sa: 10:00-20:00,52.5041258,13.3376688
10781,Berlin,Eisenacher Str.,84,RETAIL_OUTLET,Schreibwaren-Bürobedarf,4287470,[],Mo: 08:00-19:00; Tu: 08:00-19:00; We: 08:00-19:00; Th: 08:00-19:00; Fr: 08:00-19:00; Sa: 10:00-17:00,52.4897962,13.3493156
12049,Berlin,Schillerpromenade,28,RETAIL_OUTLET,Kiosk & Bäckerei / Kiosk & Internet,4092044,[],Mo: 07:00-22:00; Tu: 07:00-22:00; We: 07:00-22:00; Th: 07:00-22:00; Fr: 07:00-22:00; Sa: 07:00-22:00,52.4746935,13.4232556
13353,Berlin,Brüsseler Str.,49,RETAIL_OUTLET,Trinkstelle,4289494,[],Mo: 11:00-22:00; Tu: 11:00-22:00; We: 11:00-22:00; Th: 11:00-22:00; Fr: 11:00-22:00; Sa: 11:00-22:00,52.5480304,13.3521713
13347,Berlin,Amsterdamer Str.,2,RETAIL_OUTLET,Göker`s Kiosk,4298456,[],Mo: 08:00-18:30; Tu: 08:00-18:30; We: 08:00-18:30; Th: 08:00-18:30; Fr: 08:00-18:30; Sa: 09:00-16:30,52.54962,13.3546277
10827,Berlin,Hauptstr.,27-29,POSTBANK_FINANCE_CENTER,Postbank Filiale,5330,[],Mo: 09:00-18:30; Tu: 09:00-18:30; We: 09:00-18:30; Th: 09:00-18:30; Fr: 09:00-18:30; Sa: 09:00-13:00,52.4855537,13.3546122
10789,Berlin,Würzburger Str.,2,RETAIL_OUTLET,Kiosk/Lotto/Post,4315232,[],Mo: 08:00-23:45; Tu: 08:00-23:45; We: 08:00-23:45; Th: 08:00-23:45; Fr: 08:00-23:45; Sa: 08:00-23:45,52.5004085,13.3374754
10551,Berlin,Emdener Str.,58,RETAIL_OUTLET,Janas Branche,4310239,[],Mo: 08:30-20:00; Tu: 08:30-20:00; We: 08:30-20:00; Th: 08:30-20:00; Fr: 08:30-20:00; Sa: 08:30-20:00,52.5275426,13.3332554
12043,Berlin,Karl-Marx-Str.,137,RETAIL_OUTLET,Spätkauf44,4141072,[],Mo: 08:00-22:00; Tu: 08:00-22:00; We: 08:00-22:00; Th: 08:00-22:00; Fr: 08:00-22:00; Sa: 08:00-22:00,52.4772317,13.4390092
13088,Berlin,Berliner Allee,98,RETAIL_OUTLET,McPaper,4094980,[],Mo: 09:00-19:30; Tu: 09:00-19:30; We: 09:00-19:30; Th: 09:00-19:30; Fr: 09:00-19:30; Sa: 09:30-17:00,52.5497546,13.4583724
10623,Berlin,Hardenbergplatz,11,RETAIL_OUTLET,P & B Press & Books,4304308,[],Mo: 04:30-21:30; Tu: 04:30-21:30; We: 04:30-21:30; Th: 04:30-21:30; Fr: 04:30-21:30; Sa: 04:30-21:30; Su: 04:30-21:30,52.5069829,13.3329913
13409,Berlin,Residenzstr.,85-86,RETAIL_OUTLET,CIGO,4343700,[],Mo: 08:00-19:00; Tu: 08:00-19:00; We: 08:00-19:00; Th: 08:00-19:00; Fr: 08:00-19:00; Sa: 08:00-19:00,52.5590133,13.3729058
10827,Berlin,Hauptstr.,130,RETAIL_OUTLET,Lotto Presse Tabakwaren,4306698,[],Mo: 08:00-19:00; Tu: 08:00-19:00; We: 11:00-18:00; Th: 10:00-18:00; Fr: 08:00-18:00; Sa: 10:00-18:00,52.4842907,13.3532877
13055,Berlin,Konrad-Wolf-Str.,60,RETAIL_OUTLET,k kiosk,4341169,[],Mo: 08:00-18:00; Tu: 08:00-18:00; We: 08:00-18:00; Th: 08:00-18:00; Fr: 08:00-18:00; Sa: 08:00-13:00,52.5363067,13.4749415
13187,Berlin,Mühlenstr.,25,RETAIL_OUTLET,Späti 25,4339364,[],Mo: 10:00-22:00; Tu: 10:00-22:00; We: 10:00-22:00; Th: 10:00-22:00; Fr: 10:00-22:00; Sa: 10:00-22:00; Su: 10:00-19:00,52.5640053,13.4075172
10367,Berlin,Normannenstr.,6,RETAIL_OUTLET,Kiosk Lebensmittel Nguyen,4320633,[],Mo: 08:00-20:00; Tu: 08:00-20:00; We: 08:00-20:00; Th: 08:00-20:00; Fr: 08:00-20:00; Sa: 09:30-19:00,52.5159599,13.482548
13409,Berlin,Markstr.,20,RETAIL_OUTLET,Zeitungen-Tabak-Lotto,4126037,[],Mo: 06:00-18:00; Tu: 06:00-18:00; We: 06:00-18:00; Th: 06:00-18:00; Fr: 06:00-18:00; Sa: 07:00-16:00,52.5582782,13.3656092
13187,Berlin,Brehmestr.,1,RETAIL_OUTLET,Ali Haliscelik,4075170,[],Mo: 09:00-18:00; Tu: 09:00-18:00; We: 09:00-18:00; Th: 09:00-18:00; Fr: 09:00-18:00; Sa: 10:00-12:00,52.5646362,13.3943603
13189,Berlin,Neumannstr.,18,RETAIL_OUTLET,Kiez Post,4125137,[],Mo: 14:00-18:30; Tu: 09:30-13:00; We: 14:00-18:30; Th: 14:00-18:30; Fr: 09:30-13:00; Sa: 10:00-13:00,52.564754,13.4213987
12043,Berlin,Karl-Marx-Str.,181,RETAIL_OUTLET,Bülent Akkan,4074076,[],Mo: 06:00-19:00; Tu: 06:00-19:00; We: 06:00-19:00; Th: 06:00-19:00; Fr: 06:00-19:00; Sa: 06:00-19:00,52.4740578,13.4405552
10587,Berlin,Helmholtzstr.,29,RETAIL_OUTLET,Kiosk,4122491,[],Mo: 08:30-18:30; Tu: 08:30-18:30; We: 08:30-18:30; Th: 08:30-18:30; Fr: 08:30-18:30; Sa: 10:00-17:30,52.5217517,13.3253748
10719,Berlin,Schaperstr.,14,RETAIL_OUTLET,Kiosk Lotto,4136102,[],Mo: 10:00-19:00; Tu: 10:00-19:00; We: 10:00-19:00; Th: 10:00-19:00; Fr: 10:00-19:00; Sa: 12:00-15:00,52.4996842,13.3303101
13189,Berlin,Stubnitzstr.,32,RETAIL_OUTLET,KIOSK / Lotto,4303410,[],Mo: 09:00-18:00; Tu: 09:00-18:00; We: 09:00-18:00; Th: 09:00-18:00; Fr: 09:00-18:00; Sa: 10:00-14:00,52.5667241,13.4153625
10827,Berlin,Dominicusstr.,52,RETAIL_OUTLET,Late Shop Zwei.Null,4323109,[],Mo: 08:00-23:00; Tu: 08:00-23:00; We: 08:00-23:00; Th: 08:00-23:00; Fr: 08:00-23:00; Sa: 10:00-23:00,52.4801563,13.3515935
10779,Berlin,Prager Platz,1-3,RETAIL_OUTLET,,4136015,[],Mo: 07:00-17:30; Tu: 07:00-17:30; We: 07:00-17:30; Th: 07:00-17:30; Fr: 07:00-17:30; Sa: 07:00-14:00,52.493534,13.3327773
10623,Berlin,Uhlandstr.,20-25,RETAIL_OUTLET,The Kiosk Berlin,4294164,[],Mo: 08:00-21:00; Tu: 08:00-21:00; We: 08:00-21:00; Th: 08:00-21:00; Fr: 08:00-21:00; Sa: 10:00-18:00,52.5040255,13.3253855
13349,Berlin,Müllerstr.,123,RETAIL_OUTLET,Lotto / Presse / Tabak,4308188,[],Mo: 07:30-17:30; Tu: 07:30-17:30; We: 07:30-17:30; Th: 07:30-17:30; Fr: 07:30-17:30; Sa: 07:30-14:30,52.5534232,13.346243
13187,Berlin,Wollankstr.,2,RETAIL_OUTLET,Minimarkt Wollank,4306751,[],Mo: 08:00-22:00; Tu: 08:00-22:00; We: 08:00-22:00; Th: 08:00-22:00; Fr: 08:00-22:00; Sa: 08:00-22:00,52.568777,13.3995457
10825,Berlin,Wartburgstr.,25,RETAIL_OUTLET,Uni-Shop,4338077,[],Mo: 07:00-18:00; Tu: 07:00-18:00; We: 07:00-18:00; Th: 07:00-18:00; Fr: 07:00-18:00; Sa: 07:00-18:00,52.486111,13.339012
13055,Berlin,Landsberger Allee,217,RETAIL_OUTLET,Lotto Shop 217,4140694,[],Mo: 07:00-18:00; Tu: 07:00-18:00; We: 07:00-18:00; Th: 07:00-18:00; Fr: 07:00-18:00; Sa: 08:00-13:00,52.5341511,13.4862957
12051,Berlin,Hermannstr.,111,RETAIL_OUTLET,Telehof,4078321,[],Mo: 09:00-18:00; Tu: 09:00-18:00; We: 09:00-18:00; Th: 09:00-18:00; Fr: 09:00-18:00; Sa: 09:30-13:00,52.467861,13.4308904
12059,Berlin,Sonnenallee,208,RETAIL_OUTLET,Star-Kiosk,4343213,[],Mo: 08:00-23:00; Tu: 08:00-23:00; We: 08:00-23:00; Th: 08:00-23:00; Fr: 08:00-23:00; Sa: 08:00-23:00,52.4745898,13.453952
13187,Berlin,Breite Str.,20,POSTBANK_FINANCE_CENTER,Postbank Filiale,4125410,[],Mo: 09:30-18:30; Tu: 09:30-18:30; We: 09:30-18:30; Th: 09:30-18:30; Fr: 09:30-18:30; Sa: 09:30-14:00,52.5698551,13.4040653
10585,Berlin,Otto-Suhr-Allee,6-16,POSTBANK_FINANCE_CENTER,Postbank Filiale,4319312,[],Mo: 09:00-18:30; Tu: 09:00-18:30; We: 09:00-18:30; Th: 09:00-18:30; Fr: 09:00-18:30; Sa: 09:00-13:00,52.5140939,13.3195819
13409,Berlin,Provinzstr.,93,RETAIL_OUTLET,Lotto-Toto,4088246,[],Mo: 07:00-18:00; Tu: 07:00-18:00; We: 07:00-18:00; Th: 07:00-18:00; Fr: 07:00-18:00; Sa: 08:00-14:00,52.5677485,13.3787628
12099,Berlin,Germaniastr.,2,RETAIL_OUTLET,GERMANIA-SHOP ,4294306,[],Mo: 06:00-19:00; Tu: 06:00-19:00; We: 06:00-19:00; Th: 06:00-19:00; Fr: 06:00-19:00; Sa: 07:00-15:00,52.4655747,13.3900142
12103,Berlin,Schöneberger Str.,7,RETAIL_OUTLET,Tabak und Lotto,4330364,[],Mo: 08:00-18:45; Tu: 08:00-18:45; We: 08:00-18:45; Th: 08:00-18:45; Fr: 08:00-18:45; Sa: 08:00-18:45,52.4676051,13.3770703
10625,Berlin,Schillerstr.,10,RETAIL_OUTLET,EMRE,4080491,[],Mo: 06:30-18:00; Tu: 06:30-18:00; We: 06:30-18:00; Th: 06:30-18:00; Fr: 06:30-18:00; Sa: 08:00-13:00,52.511078,13.3186598
13086,Berlin,Rennbahnstr.,24,RETAIL_OUTLET,Rennbahn Späti 24,4318788,[],Mo: 08:00-23:00; Tu: 08:00-23:00; We: 08:00-23:00; Th: 08:00-23:00; Fr: 08:00-23:00; Sa: 09:00-23:00; Su: 12:00-20:00,52.5604853,13.4587388
10719,Berlin,Uhlandstr.,50,RETAIL_OUTLET,U-Land,4343699,[],Mo: 08:00-20:00; Tu: 08:00-20:00; We: 08:00-20:00; Th: 08:00-20:00; Fr: 08:00-20:00; Sa: 08:00-20:00,52.4966395,13.3238897
12055,Berlin,Karl-Marx-Str.,231,RETAIL_OUTLET,Lotto TaBak,4339649,[],Mo: 09:00-20:00; Tu: 09:00-20:00; We: 09:00-20:00; Th: 09:00-20:00; Fr: 09:00-20:00; Sa: 09:00-20:00,52.4686296,13.4426683
10317,Berlin,Leopoldstr.,22,RETAIL_OUTLET,Postshop Lichtenberg,4324518,[],Mo: 08:30-18:00; Tu: 08:30-18:00; We: 08:30-18:00; Th: 08:30-18:00; Fr: 08:30-18:00; Sa: 08:30-13:00,52.5026508,13.4909242
13349,Berlin,Müllerstr.,113,RETAIL_OUTLET,Lotto/Tabak/Presse,4113366,[],Mo: 07:00-19:00; Tu: 07:00-19:00; We: 07:00-19:00; Th: 07:00-19:00; Fr: 07:00-19:00; Sa: 07:30-19:00,52.5558066,13.3422062
13089,Berlin,Romain-Rolland-Str.,66,RETAIL_OUTLET,Mario Heine Online Shop/Ecke Blanke,4315011,[],Mo: 09:00-18:00; Tu: 09:00-18:00; We: 09:00-18:00; Th: 09:00-18:00; Fr: 09:00-18:00; Sa: 09:00-13:00,52.5681939,13.4397198
12103,Berlin,Manteuffelstr.,4,RETAIL_OUTLET,Spätkauf Gumma,4319272,[],Mo: 09:00-22:00; Tu: 09:00-22:00; We: 09:00-22:00; Th: 09:00-22:00; Fr: 09:00-22:00; Sa: 09:00-22:00,52.4656573,13.3774806
10717,Berlin,Uhlandstr.,136,RETAIL_OUTLET,LOTTO,4120056,[],Mo: 07:00-19:00; Tu: 07:00-19:00; We: 07:00-19:00; Th: 07:00-19:00; Fr: 07:00-19:00; Sa: 07:00-19:00,52.4930861,13.323614
12159,Berlin,Hauptstr.,68,RETAIL_OUTLET,Presse Tabak Schreibwaren,4094895,[],Mo: 08:00-19:00; Tu: 08:00-19:00; We: 08:00-19:00; Th: 08:00-19:00; Fr: 08:00-19:00; Sa: 08:00-13:00,52.4762662,13.3408147
12099,Berlin,Tempelhofer Damm,171-173,POSTBANK_FINANCE_CENTER,Postbank Filiale,9530,[],Mo: 09:00-18:30; Tu: 09:00-18:30; We: 09:00-18:30; Th: 14:00-18:30; Fr: 09:00-18:30; Sa: 09:00-13:00,52.4617922,13.385599
13055,Berlin,Landsberger Allee,277,RETAIL_OUTLET,Michael Friese,4076508,[],Mo: 07:00-19:30; Tu: 07:00-19:30; We: 07:00-19:30; Th: 07:00-19:30; Fr: 07:00-19:30; Sa: 07:00-18:00,52.5347152,13.4959353
13409,Berlin,Residenzstr.,28,RETAIL_OUTLET,Handy Shop Spätkauf,4337771,[],Mo: 08:00-21:00; Tu: 08:00-21:00; We: 08:00-21:00; Th: 08:00-21:00; Fr: 08:00-21:00; Sa: 08:00-21:00,52.5687492,13.3613966
10717,Berlin,Uhlandstr.,82,RETAIL_OUTLET,Builder Travel GmbH,4321216,[],Mo: 09:00-18:00; Tu: 09:00-18:00; We: 09:00-18:00; Th: 09:00-18:00; Fr: 09:00-13:00; Sa: 11:00-13:00,52.489626,13.3226216
13088,Berlin,Berliner Allee,261-269,RETAIL_OUTLET,Lotto Tabak Post,4303836,[],Mo: 08:00-18:30; Tu: 08:00-18:30; We: 08:00-18:30; Th: 08:00-18:30; Fr: 08:00-18:30; Sa: 08:00-13:45,52.5614079,13.4676251
10317,Berlin,Irenenstr.,22,RETAIL_OUTLET,ON-ER GmbH,4296896,[],Mo: 09:00-18:00; Tu: 09:00-18:00; We: 09:00-18:00; Th: 09:00-18:00; Fr: 09:00-18:00; Sa: 09:00-13:00,52.5095071,13.4995701
10625,Berlin,Kantstr.,46,RETAIL_OUTLET,Kant Shop,4341491,[],Mo: 09:00-22:00; Tu: 09:00-22:00; We: 09:00-22:00; Th: 09:00-22:00; Fr: 09:00-22:00; Sa: 09:00-22:00,52.5065687,13.3118216
10319,Berlin,Sewanstr.,2,RETAIL_OUTLET,k kiosk,4335761,[],Mo: 07:00-19:00; Tu: 07:00-19:00; We: 07:00-19:00; Th: 07:00-19:00; Fr: 07:00-19:00; Sa: 07:00-19:00,52.4997588,13.4967934
10717,Berlin,Gasteiner Str.,8,RETAIL_OUTLET,Presseshop Schleicher,4091295,[],Mo: 06:30-18:00; Tu: 06:30-18:00; We: 06:30-18:00; Th: 06:30-18:00; Fr: 06:30-18:00; Sa: 08:00-14:00,52.487515,13.3233588
13409,Berlin,Residenzstr.,24-25,POSTBANK_FINANCE_CENTER,Postbank Filiale,4013115,"[{'type': 'closure', 'fromDate': '2025-10-08T00:00:00+0200', 'toDate': None}]",Mo: 13:00-18:00; Tu: 09:00-18:00; We: 09:00-18:00; Th: 09:00-18:00; Fr: 09:00-18:00; Sa: 09:00-14:00,52.5695712,13.3609407
10715,Berlin,Bundesallee,55,RETAIL_OUTLET,Lotto Presse,4343589,[],Mo: 09:00-18:00; Tu: 09:00-18:00; We: 09:00-18:00; Th: 09:00-18:00; Fr: 09:00-18:00; Sa: 09:00-13:00,52.4814805,13.3289064
10707,Berlin,Bregenzer Str.,9,RETAIL_OUTLET,Press-Point am Olivaer Platz,4135655,[],Mo: 08:00-20:00; Tu: 08:00-20:00; We: 08:00-20:00; Th: 08:00-20:00; Fr: 08:00-20:00; Sa: 08:00-18:00,52.4988288,13.3135636
12057,Berlin,Grenzallee,4d,RETAIL_OUTLET,k Kiosk,4318496,"[{'type': 'closure', 'fromDate': '2025-10-07T00:00:00+0200', 'toDate': None}]",Mo: 09:00-18:00; Tu: 09:00-18:00; We: 09:00-18:00; Th: 09:00-18:00; Fr: 09:00-18:00; Sa: 09:00-18:00,52.4696404,13.4630915
10585,Berlin,Otto-Suhr-Allee,104,RETAIL_OUTLET,Bilgehan Göbüt,4296047,[],Mo: 09:00-20:00; Tu: 09:00-20:00; We: 09:00-20:00; Th: 09:00-20:00; Fr: 09:00-20:00; Sa: 10:00-16:00,52.5173622,13.307712
12103,Berlin,Bessemerstr.,57-59,RETAIL_OUTLET,k kiosk,4336960,[],Mo: 08:00-19:30; Tu: 08:00-19:30; We: 08:00-19:30; Th: 08:00-19:30; Fr: 08:00-19:30; Sa: 08:00-19:30,52.4621086,13.3668507
10629,Berlin,Wilmersdorfer Str.,105,RETAIL_OUTLET,Lotto und DHL,4320846,[],Mo: 08:00-18:45; Tu: 08:00-18:45; We: 08:00-18:45; Th: 08:00-18:45; Fr: 08:00-18:45; Sa: 08:00-18:00,52.5041964,13.3076494
10627,Berlin,Wilmersdorfer Str.,46,POSTBANK_FINANCE_CENTER,Postbank Filiale,4063560,[],Mo: 09:00-18:00; Tu: 09:00-18:00; We: 09:00-18:00; Th: 09:00-18:00; Fr: 09:00-18:00; Sa: 10:00-14:00,52.509894,13.3055725
13351,Berlin,Swakopmunder Str.,44,RETAIL_OUTLET,Rozi Presse und Backshop,4117391,[],Mo: 07:30-16:00; Tu: 07:30-16:00; We: 07:30-16:00; Th: 07:30-16:00; Fr: 07:30-16:00; Sa: 08:00-13:00,52.5602938,13.332946
10627,Berlin,Kantstr.,66,RETAIL_OUTLET,Polat Store,4335362,[],Mo: 10:00-19:00; Tu: 10:00-19:00; We: 10:00-19:00; Th: 10:00-19:00; Fr: 10:00-19:00; Sa: 10:00-16:30,52.5069399,13.3033224
12103,Berlin,Friedrich-Karl-Str.,9,RETAIL_OUTLET,COPY  & MORE,4125830,[],Mo: 09:00-19:00; Tu: 09:00-19:00; We: 09:00-19:00; Th: 09:00-19:00; Fr: 09:00-19:00; Sa: 09:00-16:00,52.4557432,13.3821048
12157,Berlin,Beckerstr.,22,RETAIL_OUTLET,Kariertes + liniertes,4133298,[],Mo: 08:00-18:00; Tu: 08:00-18:00; We: 08:00-18:00; Th: 08:00-18:00; Fr: 08:00-18:00; Sa: 08:00-16:00,52.4669149,13.3426159
10709,Berlin,Kurfürstendamm,159,RETAIL_OUTLET,McPaper,4094985,[],Mo: 09:30-19:30; Tu: 09:30-19:30; We: 09:30-19:30; Th: 09:30-19:30; Fr: 09:30-19:30; Sa: 10:00-18:30,52.4993746,13.3046871
12161,Berlin,Bundesallee,131,RETAIL_OUTLET,LOTTO,4127043,[],Mo: 07:00-19:00; Tu: 07:00-19:00; We: 07:00-19:00; Th: 07:00-19:00; Fr: 07:00-19:00; Sa: 07:00-17:00,52.4737084,13.3287832
10589,Berlin,Osnabrücker Str.,24,RETAIL_OUTLET,Lotto Tabak Post,4337729,[],Mo: 08:00-19:00; Tu: 08:00-19:00; We: 08:00-19:00; Th: 08:00-19:00; Fr: 08:00-19:00; Sa: 09:00-16:00,52.5258887,13.300534
10711,Berlin,Damaschkestr.,6,RETAIL_OUTLET,Damaschkeshop,4301109,[],Mo: 08:00-20:00; Tu: 08:00-20:00; We: 08:00-20:00; Th: 08:00-20:00; Fr: 08:00-20:00; Sa: 10:00-18:00,52.4997808,13.3023568
10627,Berlin,Bismarckstr.,67,RETAIL_OUTLET,,4137410,[],Mo: 07:00-18:00; Tu: 07:00-18:00; We: 07:00-18:00; Th: 07:00-18:00; Fr: 07:00-18:00; Sa: 07:00-15:00,52.5113166,13.2977963
14197,Berlin,Laubacher Str.,31,RETAIL_OUTLET,Spätkauf,4331867,[],Mo: 09:00-20:00; Tu: 09:00-20:00; We: 09:00-20:00; Th: 09:00-20:00; Fr: 09:00-20:00; Sa: 09:00-18:00,52.4765969,13.3200576
10319,Berlin,Dolgenseestr.,8a,RETAIL_OUTLET,Tante Emma Laden,4331240,[],Mo: 08:00-20:00; Tu: 08:00-20:00; We: 08:00-20:00; Th: 08:00-20:00; Fr: 08:00-20:00; Sa: 08:00-20:00,52.4938909,13.5074827
12347,Berlin,Britzer Damm,99,RETAIL_OUTLET,Karsten Nüscher,4337073,[],Mo: 09:30-18:00; Tu: 09:30-18:00; We: 09:30-18:00; Th: 09:30-18:00; Fr: 09:30-18:00; Sa: 10:00-13:00,52.4539912,13.4383365
13055,Berlin,Hauptstr.,9,RETAIL_OUTLET,,4307072,[],Mo: 08:30-20:00; Tu: 08:30-20:00; We: 08:30-20:00; Th: 08:30-20:00; Fr: 08:30-20:00; Sa: 08:30-20:00,52.54868,13.5040418
13055,Berlin,Hauptstr.,9,RETAIL_OUTLET,Handyshop,4335284,[],Mo: 13:00-18:00; Tu: 13:00-18:00; We: 13:00-18:00; Th: 13:00-18:00; Fr: 09:30-12:30; Sa: 10:00-16:00,52.54868,13.5040418
12161,Berlin,Rheinstr.,49,RETAIL_OUTLET,Post & More,4340758,[],Mo: 08:00-20:00; Tu: 08:00-20:00; We: 08:00-20:00; Th: 08:00-20:00; Fr: 08:00-20:00; Sa: 08:00-20:00,52.4674956,13.3314385
14059,Berlin,Nehringstr.,1,RETAIL_OUTLET,Lotto Tabak,4341616,[],Mo: 09:00-20:00; Tu: 09:00-20:00; We: 09:00-20:00; Th: 09:00-20:00; Fr: 09:00-20:00; Sa: 09:00-20:00,52.5175131,13.2934247
13405,Berlin,Scharnweberstr.,127,RETAIL_OUTLET,Asta Multishop,4333976,[],Mo: 08:00-20:00; Tu: 08:00-20:00; We: 08:00-20:00; Th: 08:00-20:00; Fr: 08:00-20:00; Sa: 08:00-20:00,52.5647785,13.3242099
13403,Berlin,Ollenhauerstr.,122,RETAIL_OUTLET,,4326366,[],Mo: 08:00-18:30; Tu: 08:00-18:30; We: 08:00-18:30; Th: 08:00-18:30; Fr: 08:00-18:30; Sa: 08:00-18:30,52.5676771,13.3290451
10709,Berlin,Kurfürstendamm,142-147,RETAIL_OUTLET,McPaper,4083015,[],Mo: 09:00-20:00; Tu: 09:00-20:00; We: 09:00-20:00; Th: 09:00-20:00; Fr: 09:00-20:00; Sa: 09:00-20:00,52.4979894,13.297356
14057,Berlin,Neue Kantstr.,31,RETAIL_OUTLET,Kiosk Shop,4293633,[],Mo: 08:00-20:00; Tu: 08:00-20:00; We: 08:00-20:00; Th: 08:00-20:00; Fr: 08:00-20:00; Sa: 08:00-20:00,52.5065842,13.2939013
13403,Berlin,Waldowstr.,49,RETAIL_OUTLET,Backshop Waldowstr.,4331456,[],Mo: 06:30-20:00; Tu: 06:30-20:00; We: 06:30-20:00; Th: 06:30-20:00; Fr: 06:30-20:00; Sa: 06:30-20:00,52.5736243,13.3345013
10315,Berlin,Seddiner Str.,8,RETAIL_OUTLET,Pen & Paper,4337483,[],Mo: 08:30-18:30; Tu: 08:30-18:30; We: 08:30-18:30; Th: 08:30-18:30; Fr: 08:30-18:30; Sa: 09:00-15:30,52.5133907,13.5222796
14199,Berlin,Hohenzollerndamm,50,RETAIL_OUTLET,,4318969,[],Mo: 07:00-18:30; Tu: 07:00-18:30; We: 07:00-18:30; Th: 07:00-18:30; Fr: 07:00-18:30; Sa: 07:30-18:00,52.4877932,13.2992771
12163,Berlin,Schloßstr.,1,RETAIL_OUTLET,WOLSDORFF,4130528,[],Mo: 10:00-19:45; Tu: 10:00-19:45; We: 10:00-19:45; Th: 10:00-19:45; Fr: 10:00-19:45; Sa: 10:00-19:45,52.4644057,13.327387
14197,Berlin,Rüdesheimer Str.,8,RETAIL_OUTLET,,4311256,[],Mo: 08:00-20:00; Tu: 08:00-20:00; We: 08:00-20:00; Th: 08:00-20:00; Fr: 08:00-20:00; Sa: 08:00-20:00,52.4728832,13.3140987
12437,Berlin,Baumschulenstr.,6,RETAIL_OUTLET,ATM EXTRAS,4309576,[],Mo: 09:30-18:30; Tu: 09:30-18:30; We: 09:30-18:30; Th: 09:30-18:30; Fr: 09:30-18:30; Sa: 10:00-15:00,52.4687386,13.4912384
13051,Berlin,Hansastr.,236,RETAIL_OUTLET,CIGO im EDEKA,4330365,[],Mo: 09:00-18:00; Tu: 09:00-18:00; We: 09:00-18:00; Th: 09:00-18:00; Fr: 09:00-18:00; Sa: 09:00-18:00,52.5608689,13.4993003
13127,Berlin,Blankenburger Str.,149,RETAIL_OUTLET,Zeitungen-Lotto,4081563,"[{'type': 'holiday', 'fromDate': '2025-12-24T00:00:00+0100', 'toDate': '2026-01-04T23:59:59+0100'}]",Mo: 09:00-18:00; Tu: 09:00-18:00; We: 09:00-18:00; Th: 09:00-18:00; Fr: 09:00-18:00; Sa: 09:00-12:00,52.5880403,13.4277733
12169,Berlin,Bergstr.,75,RETAIL_OUTLET,Postfiliale Berlin 575,4338711,[],Mo: 08:30-11:00; Tu: 08:30-18:30; We: 08:30-18:30; Th: 08:30-18:30; Fr: 08:30-18:30; Sa: 09:00-16:00,52.4586529,13.336992
12163,Berlin,Markelstr.,8,RETAIL_OUTLET,,4307713,[],Mo: 09:30-18:00; Tu: 09:30-18:00; We: 09:30-18:00; Th: 09:30-18:00; Fr: 09:30-18:00; Sa: 10:00-15:00,52.4640897,13.325018
13158,Berlin,Hauptstr.,28,RETAIL_OUTLET,Kiosk Fariba,4334160,[],Mo: 09:00-18:00; Tu: 09:00-18:00; We: 09:00-18:00; Th: 09:00-18:00; Fr: 09:00-18:00; Sa: 09:00-14:00,52.5867632,13.3675567
13156,Berlin,Nordendstr.,76a,RETAIL_OUTLET,Backshop,4085549,[],Mo: 09:00-18:00; Tu: 09:00-18:00; We: 09:00-18:00; Th: 09:00-18:00; Fr: 09:00-18:00; Sa: 07:00-12:00,52.5903863,13.3978907
12109,Berlin,Rixdorfer Str.,115,RETAIL_OUTLET,"Tabakwaren, Lotto",4089409,"[{'type': 'holiday', 'fromDate': '2025-09-27T00:00:00+0200', 'toDate': '2025-09-30T23:59:59+0200'}, {'type': 'closure', 'fromDate': '2025-10-01T00:00:00+0200', 'toDate': None}]",Mo: holiday-holiday; Tu: 06:00-17:30; We: 06:00-17:30; Th: 06:00-14:00; Fr: 06:00-17:30; Sa: holiday-holiday,52.4447219,13.4003277
10319,Berlin,Otto-Schmirgal-Str.,1-7,POSTBANK_FINANCE_CENTER,Postbank Filiale,19730,[],Mo: 09:00-18:00; Tu: 09:00-18:00; We: 09:00-18:00; Th: 09:00-18:00; Fr: 09:00-18:00; Sa: 09:00-12:30,52.4974323,13.522256
14057,Berlin,Kaiserdamm,21,RETAIL_OUTLET,Bärlin Company,4323110,[],Mo: 09:00-18:00; Tu: 09:00-18:00; We: 09:00-18:00; Th: 09:00-18:00; Fr: 09:00-18:00; Sa: 10:00-16:00,52.5104098,13.2843453
13403,Berlin,General-Barby-Str.,28,RETAIL_OUTLET,Pen & Paper,4340537,[],Mo: 07:00-20:00; Tu: 07:00-20:00; We: 07:00-20:00; Th: 07:00-20:00; Fr: 07:00-20:00; Sa: 08:00-20:00,52.5691609,13.3175191
14057,Berlin,Rognitzstr.,10,RETAIL_OUTLET,Kiosk am Funkturm,4094175,[],Mo: 07:00-18:00; Tu: 07:00-18:00; We: 07:00-18:00; Th: 07:00-18:00; Fr: 07:00-18:00; Sa: 09:00-12:00,52.5097129,13.2840282
13627,Berlin,Halemweg,21,RETAIL_OUTLET,Post Halemweg,4330237,[],Mo: 10:00-18:00; Tu: 10:00-18:00; We: 10:00-18:00; Th: 10:00-18:00; Fr: 10:00-18:00; Sa: 10:00-17:00,52.53741,13.2857978
12109,Berlin,Mariendorfer Damm,104,RETAIL_OUTLET,,4337338,[],Mo: 07:00-19:00; Tu: 07:00-19:00; We: 07:00-19:00; Th: 07:00-19:00; Fr: 07:00-19:00; Sa: 07:00-14:00,52.4429389,13.3860567
12163,Berlin,Schildhornstr.,85,RETAIL_OUTLET,Sarwar Atelier,4304713,[],Mo: 09:00-18:00; Tu: 09:00-18:00; We: 09:00-18:00; Th: 09:00-18:00; Fr: 09:00-18:00; Sa: 10:00-14:00,52.4632185,13.3191685
14197,Berlin,Kreuznacher Str.,67,RETAIL_OUTLET,Kiosk und Zeitschriften,4309968,[],Mo: 10:00-18:00; Tu: 10:00-18:00; We: 10:00-18:00; Th: 10:00-18:00; Fr: 10:00-18:00; Sa: 10:00-14:00,52.4669446,13.3116892
14199,Berlin,Kissinger Str.,22,RETAIL_OUTLET,Backstube Zuckersüß,4316479,[],Mo: 09:00-18:00; Tu: 09:00-18:00; We: 09:00-18:00; Th: 09:00-18:00; Fr: 09:00-18:00; Sa: 09:00-16:00,52.4786315,13.2967128
12347,Berlin,Mohriner Allee,69,RETAIL_OUTLET,Finanzberatung Elsayad,4322254,[],Mo: 11:00-16:00; Tu: 11:00-16:00; We: 11:00-16:00; Th: 11:00-16:00; Fr: 11:00-16:00; Sa: 12:00-15:00,52.4414998,13.4243222
13051,Berlin,Prerower Platz,1,POSTBANK_FINANCE_CENTER,Postbank Filiale,13730,"[{'type': 'closure', 'fromDate': '2025-10-01T00:00:00+0200', 'toDate': None}]",Mo: 09:00-18:30; Tu: 09:00-18:30; We: 09:00-18:30; Th: 09:00-18:30; Fr: 09:00-18:30; Sa: 09:00-12:00,52.5648683,13.5065706
14057,Berlin,Kaiserdamm,33,RETAIL_OUTLET,KM Spätkauf,4339013,[],Mo: 09:00-20:00; Tu: 09:00-20:00; We: 09:00-20:00; Th: 09:00-20:00; Fr: 09:00-20:00; Sa: 09:00-20:00,52.5100054,13.2780983
12169,Berlin,Steglitzer Damm,22,RETAIL_OUTLET,Edeka Supermarkt,4328501,[],Mo: 09:30-18:00; Tu: 09:30-18:00; We: 09:30-18:00; Th: 09:30-18:00; Fr: 09:30-18:00; Sa: 09:30-14:00,52.4506899,13.3395637
12359,Berlin,Parchimer Allee,33,RETAIL_OUTLET,Kiez Shop,4313238,[],Mo: 09:00-19:00; Tu: 09:00-19:00; We: 09:00-19:00; Th: 09:00-19:00; Fr: 09:00-19:00; Sa: 09:00-16:00,52.4452048,13.454471
12167,Berlin,Albrechtstr.,114,RETAIL_OUTLET,Sweet Paper,4316858,[],Mo: 09:00-20:00; Tu: 09:00-20:00; We: 09:00-20:00; Th: 09:00-20:00; Fr: 09:00-20:00; Sa: 09:00-19:00,52.4548381,13.3274277
12165,Berlin,Albrechtstr.,123,RETAIL_OUTLET,Presse-Tabak-Getränke-Cafe,4339012,[],Mo: 07:00-18:00; Tu: 07:00-18:00; We: 07:00-18:00; Th: 07:00-18:00; Fr: 07:00-18:00; Sa: 08:00-16:00,52.4557555,13.3251562
13129,Berlin,Bahnhofstr.,45,RETAIL_OUTLET,Spektrum Lebensfreude,4338275,[],Mo: 09:30-18:00; Tu: 09:30-18:00; We: 09:30-18:00; Th: 09:30-18:00; Fr: 09:30-18:00; Sa: 09:30-14:00,52.5915009,13.4526808
13051,Berlin,Wustrower Str.,20,RETAIL_OUTLET,Wustrower Back & Snack,4337535,[],Mo: 08:00-17:30; Tu: 08:00-17:30; We: 08:00-17:30; Th: 08:00-17:30; Fr: 08:00-17:30; Sa: 09:00-14:00,52.5664179,13.5086499
13403,Berlin,Quäkerstr.,2,RETAIL_OUTLET,Änderungsschneiderei,4135238,"[{'type': 'holiday', 'fromDate': '2025-09-29T00:00:00+0200', 'toDate': '2025-10-12T23:59:59+0200'}]",Mo: holiday-holiday; Tu: 09:30-17:30; We: 09:30-17:30; Th: 09:30-17:30; Fr: 09:30-17:30; Sa: 09:30-13:00,52.5727054,13.3084945
10318,Berlin,Treskowallee,110,RETAIL_OUTLET,Post Karlshorst,4316477,[],Mo: 10:00-18:00; Tu: 10:00-18:00; We: 10:00-18:00; Th: 10:00-18:00; Fr: 10:00-18:00; Sa: 09:00-12:00,52.4825307,13.5252992
14052,Berlin,Theodor-Heuss-Platz,4,RETAIL_OUTLET,CIGO,4319271,[],Mo: 08:00-18:00; Tu: 08:00-18:00; We: 08:00-18:00; Th: 08:00-18:00; Fr: 08:00-18:00; Sa: 08:00-14:00,52.5100493,13.2731264
14199,Berlin,Breite Str.,22a,RETAIL_OUTLET,NIGHT SHOP 59,4312197,[],Mo: 09:30-18:30; Tu: 09:30-18:30; We: 09:30-18:30; Th: 09:30-18:30; Fr: 09:30-18:30; Sa: 09:30-15:00,52.4752666,13.2916994
13059,Berlin,Egon-Erwin-Kisch-Str.,34,RETAIL_OUTLET,Natürlich Blume,4078173,[],Mo: 09:00-17:00; Tu: 09:00-17:00; We: 09:00-17:00; Th: 09:00-17:00; Fr: 09:00-17:00; Sa: 08:00-12:00,52.5727495,13.5055204
12681,Berlin,Märkische Allee,166-172,RETAIL_OUTLET,Tabakwaren-Lotto im Kaufland,4085701,[],Mo: 08:00-14:00; Tu: 08:00-14:00; We: 08:00-14:00; Th: 08:00-14:00; Fr: 08:00-14:00; Sa: 08:00-13:00,52.5333764,13.5382683
12681,Berlin,Helene-Weigel-Platz,6,RETAIL_OUTLET,Änderungsschneiderei,4133273,[],Mo: 09:00-13:00; Tu: 13:30-17:30; We: 09:00-13:00; Th: 09:00-13:00; Fr: 09:00-13:00; Sa: 09:00-12:00,52.5285418,13.5398641
13057,Berlin,Warnitzer Str.,26,RETAIL_OUTLET,HalbNeu Technischer An.-Verkauf,4330750,[],Mo: 10:00-18:00; Tu: 10:00-18:00; We: 10:00-18:00; Th: 10:00-18:00; Fr: 10:00-18:00; Sa: 10:00-14:00,52.5667681,13.5170517
10318,Berlin,Robert-Siewert-Str.,97,RETAIL_OUTLET,CAP ...der Lebensmittelpunkt,4129549,[],Mo: 09:00-18:00; Tu: 09:00-18:00; We: 09:00-18:00; Th: 09:00-18:00; Fr: 09:00-18:00; Sa: 09:00-15:00,52.4931191,13.5374743
12167,Berlin,Birkbuschstr.,20,RETAIL_OUTLET,Der Magnet im Süden Berlins,4111731,[],Mo: 08:00-18:00; Tu: 08:00-18:00; We: 08:00-18:00; Th: 08:00-18:00; Fr: 08:00-18:00; Sa: 08:00-14:00,52.4493544,13.3237443
12359,Berlin,Gutschmidtstr.,29-31,POSTBANK_FINANCE_CENTER,Postbank Filiale,4068416,[],Mo: 09:00-18:30; Tu: 09:00-18:30; We: 09:00-18:30; Th: 14:00-18:30; Fr: 09:00-18:30; Sa: 09:00-13:00,52.436783,13.4470402
12359,Berlin,Gutschmidtstr.,17-19,RETAIL_OUTLET,Lorenz Tabakwaren,4076881,[],Mo: 09:00-20:00; Tu: 09:00-20:00; We: 09:00-20:00; Th: 09:00-20:00; Fr: 09:00-20:00; Sa: 09:00-20:00,52.4367637,13.4475966
12459,Berlin,Edisonstr.,56,RETAIL_OUTLET,Edison 56,4341367,[],Mo: 09:00-21:00; Tu: 09:00-21:00; We: 09:00-21:00; Th: 09:00-21:00; Fr: 09:00-21:00; Sa: 09:00-21:00,52.4637468,13.5135668
13437,Berlin,Alt-Wittenau,24,RETAIL_OUTLET,Presse Lotto Tabak,4141228,[],Mo: 09:00-18:00; Tu: 09:00-18:00; We: 09:00-18:00; Th: 09:00-18:00; Fr: 09:00-18:00; Sa: 09:00-13:00,52.5904988,13.3314608
13439,Berlin,Wilhelmsruher Damm,150,POSTBANK_FINANCE_CENTER,Postbank Filiale,1430,[],Mo: 09:00-18:00; Tu: 09:00-18:00; We: 09:00-18:00; Th: 13:25-18:00; Fr: 09:00-18:00; Sa: 09:00-14:00,52.5965851,13.3505706
13435,Berlin,Eichhorster Weg,5,RETAIL_OUTLET,Backshop Cafe Zeit,4334379,[],Mo: 08:30-20:00; Tu: 08:30-20:00; We: 08:30-20:00; Th: 08:30-20:00; Fr: 08:30-20:00; Sa: 08:30-18:00,52.5968238,13.346685
13439,Berlin,Senftenberger Ring,17,RETAIL_OUTLET,Vodafone,4304198,[],Mo: 10:00-18:00; Tu: 10:00-18:00; We: 10:00-18:00; Th: 10:00-18:00; Fr: 10:00-18:00; Sa: 10:00-18:00,52.5990541,13.3555945
13629,Berlin,Nonnendammallee,80,RETAIL_OUTLET,U-Back Sandwich&Coffee,4324207,[],Mo: 09:00-18:00; Tu: 09:00-18:00; We: 09:00-18:00; Th: 09:00-18:00; Fr: 09:00-18:00; Sa: 09:00-14:00,52.5364658,13.2655146
12247,Berlin,Leonorenstr.,77,RETAIL_OUTLET,Kiosk,4312658,"[{'type': 'closure', 'fromDate': '2025-12-31T00:00:00+0100', 'toDate': None}]",Mo: 09:00-20:00; Tu: 09:00-20:00; We: 09:00-20:00; Th: 09:00-20:00; Fr: 09:00-20:00; Sa: 09:00-20:00,52.4383557,13.3445561
12203,Berlin,Hindenburgdamm,62,RETAIL_OUTLET,Tabakwaren Am Händelplatz,4337727,[],Mo: 08:00-22:00; Tu: 08:00-22:00; We: 08:00-22:00; Th: 08:00-22:00; Fr: 08:00-22:00; Sa: 08:00-22:00,52.4491772,13.3156373
13437,Berlin,Roedernallee,88-90,RETAIL_OUTLET,SOPRORO-Sozialprojekt,4130532,[],Mo: 10:00-18:00; Tu: 10:00-18:00; We: 10:00-18:00; Th: 10:00-18:00; Fr: 10:00-18:00; Sa: 10:00-14:00,52.5939883,13.333894
12439,Berlin,Schnellerstr.,21,RETAIL_OUTLET,CIGO,4319710,[],Mo: 08:00-19:00; Tu: 08:00-19:00; We: 08:00-19:00; Th: 08:00-19:00; Fr: 08:00-19:00; Sa: 08:00-19:00,52.4564148,13.5092115
12249,Berlin,Kamenzer Damm,40,RETAIL_OUTLET,Wunderkiste,4099456,[],Mo: 09:00-17:30; Tu: 13:00-17:30; We: 13:00-17:30; Th: 13:00-17:30; Fr: 09:00-17:30; Sa: 09:00-12:00,52.4340416,13.3595843
12439,Berlin,Schnellerstr.,127,RETAIL_OUTLET,Lotto/ Toto,4127893,[],Mo: 06:00-20:00; Tu: 06:00-20:00; We: 06:00-20:00; Th: 06:00-20:00; Fr: 06:00-18:00; Sa: 08:00-13:00,52.456437,13.5108793
13509,Berlin,Holzhauser Str.,59,RETAIL_OUTLET,Moes Back&Späti,4340794,[],Mo: 08:00-19:00; Tu: 08:00-19:00; We: 08:00-19:00; Th: 08:00-19:00; Fr: 08:00-19:00; Sa: 08:00-16:00,52.5806879,13.3023854
13059,Berlin,Dorfstr.,25,RETAIL_OUTLET,Fairkauf,4137231,[],Mo: 09:00-19:00; Tu: 09:00-19:00; We: 09:00-19:00; Th: 09:00-19:00; Fr: 09:00-19:00; Sa: 09:00-14:00,52.5750749,13.5176365
12459,Berlin,Wilhelminenhofstr.,36,RETAIL_OUTLET,Haushaltswaren / Stoffe/ Kurzwaren,4124219,"[{'type': 'closure', 'fromDate': '2025-10-07T00:00:00+0200', 'toDate': None}]",Mo: 10:00-18:00; Tu: 10:00-18:00; We: 10:00-18:00; Th: 10:00-18:00; Fr: 10:00-18:00; Sa: 10:00-12:00,52.4612442,13.5195013
14052,Berlin,Reichsstr.,36,RETAIL_OUTLET,Presse & Tabak am Brixplatz,4130322,[],Mo: 07:00-18:30; Tu: 07:00-18:30; We: 07:00-18:30; Th: 07:00-18:30; Fr: 07:00-18:30; Sa: 07:00-13:30,52.5193025,13.2571635
