zipCode,city,district,additionalInfo,street,houseNo,format1,format2,keyWord,locationType,locationName,primaryKeyDeliverySystem,primaryKeyZipRegion,systemID,primaryKeyPF,pfServicetypes,pfAccessibilitytypes,pfClosureperiods,pfOtherinfos,poststationID,opening_hours,latitude,longitude
10178,Berlin,Mitte,,Spandauer Str.,2,csbnan7s8n2s3,csbn2s3n1,Postfiliale,RETAIL_OUTLET,City Shop,4340626,704.0,8,8-4340626,[],[],[],"[{'type': 'Bezeichnung', 'content': 'Berlin 3'}, {'type': 'open_all_day', 'content': 'false'}, {'type': 'nextAction_type', 'content': 'OPENINGHOUR'}, {'type': 'nextAction_day', 'content': 'today'}, {'type': 'nextAction_openUntil', 'content': '18:00'}, {'type': 'tt_timestamp', 'content': '35172443056719344'}]",,Mo: 08:00-18:00; Tu: 08:00-18:00; We: 08:00-18:00; Th: 08:00-18:00; Fr: 08:00-18:00; Sa: 08:00-16:00,52.5211445,13.4037667
10178,Berlin,Mitte,,Rathausstr.,5,csbnan7s8n2s3,csbn2s3n1,Postbank Filiale,POSTBANK_FINANCE_CENTER,Postbank Filiale,6730,503.0,8,8-6730,[],[],"[{'type': 'closure', 'fromDate': '2025-10-29T00:00:00+0100', 'toDate': None}]","[{'type': 'christmasHintEN', 'content': ' '}, {'type': 'christmasHintDE', 'content': ' '}, {'type': 'Bezeichnung', 'content': 'Berlin 2'}, {'type': 'open_all_day', 'content': 'false'}, {'type': 'nextAction_type', 'content': 'OPENINGHOUR'}, {'type': 'nextAction_day', 'content': 'today'}, {'type': 'nextAction_openUntil', 'content': '18:30'}, {'type': 'tt_timestamp', 'content': '35172443056719344'}]",,Mo: 09:30-18:30; Tu: 09:30-18:30; We: 09:30-18:30; Th: 09:30-18:30; Fr: 09:30-18:30; Sa: 09:00-14:00,52.5197371,13.4115168
10178,Berlin,Mitte,,Karl-Liebknecht-Str.,13,csbnan7s8n2s3,csbn2s3n1,Postfiliale,RETAIL_OUTLET,Lotto Post Tabak,4307374,706.0,8,8-4307374,[],[],[],"[{'type': 'christmasHintEN', 'content': ' '}, {'type': 'christmasHintDE', 'content': ' '}, {'type': 'Bezeichnung', 'content': 'Berlin 146'}, {'type': 'open_all_day', 'content': 'false'}, {'type': 'nextAction_type', 'content': 'OPENINGHOUR'}, {'type': 'nextAction_day', 'content': 'today'}, {'type': 'nextAction_openUntil', 'content': '19:00'}, {'type': 'tt_timestamp', 'content': '35172443056719344'}]",,Mo: 08:00-19:00; Tu: 08:00-19:00; We: 08:00-19:00; Th: 08:00-19:00; Fr: 08:00-19:00; Sa: 08:00-19:00,52.5223268,13.4080741
10179,Berlin,Mitte,,Grunerstr.,20,csbnan7s8n2s3,csbn2s3n1,Postfiliale,RETAIL_OUTLET,"GECO im ALEXA, Untergeschoss/Baseme",4125530,,8,8-4125530,[],[],[],"[{'type': 'christmasHintEN', 'content': ' '}, {'type': 'christmasHintDE', 'content': ' '}, {'type': 'Bezeichnung', 'content': 'Berlin 142'}, {'type': 'open_all_day', 'content': 'false'}, {'type': 'nextAction_type', 'content': 'OPENINGHOUR'}, {'type': 'nextAction_day', 'content': 'today'}, {'type': 'nextAction_openUntil', 'content': '19:45'}, {'type': 'tt_timestamp', 'content': '35172443056719344'}]",,Mo: 09:00-19:45; Tu: 09:00-19:45; We: 09:00-19:45; Th: 09:00-19:45; Fr: 09:00-19:45; Sa: 09:00-19:45,52.5187644,13.4163841
10179,Berlin,Mitte,,Brückenstr.,1a,csbnan7s8n2s3,csbn2s3n1,Postfiliale,RETAIL_OUTLET,Lotto-Post-Schreibwaren,4326999,504.0,8,8-4326999,[],[],[],"[{'type': 'christmasHintEN', 'content': ' '}, {'type': 'christmasHintDE', 'content': ' '}, {'type': 'Bezeichnung', 'content': 'Berlin 14'}, {'type': 'open_all_day', 'content': 'false'}, {'type': 'nextAction_type', 'content': 'OPENINGHOUR'}, {'type': 'nextAction_day', 'content': 'today'}, {'type': 'nextAction_openUntil', 'content': '19:00'}, {'type': 'tt_timestamp', 'content': '35172443056719344'}]",,Mo: 09:00-19:00; Tu: 09:00-19:00; We: 09:00-19:00; Th: 09:00-19:00; Fr: 09:00-19:00; Sa: 09:00-15:00,52.5115047,13.4169142
10117,Berlin,Mitte,,Behrenstr.,29,csbnan7s8n2s3,csbn2s3n1,Postfiliale,RETAIL_OUTLET,Lotto Post Zeitschriften,4329065,502.0,8,8-4329065,[],[],[],"[{'type': 'christmasHintEN', 'content': ' '}, {'type': 'christmasHintDE', 'content': ' '}, {'type': 'Bezeichnung', 'content': 'Berlin 8'}, {'type': 'open_all_day', 'content': 'false'}, {'type': 'nextAction_type', 'content': 'OPENINGHOUR'}, {'type': 'nextAction_day', 'content': 'today'}, {'type': 'nextAction_openUntil', 'content': '22:00'}, {'type': 'tt_timestamp', 'content': '35172443056719344'}]",,Mo: 07:00-22:00; Tu: 07:00-22:00; We: 07:00-22:00; Th: 07:00-22:00; Fr: 07:00-22:00; Sa: 08:00-20:00; Su: 09:00-21:00,52.5155824,13.3902965
10119,Berlin,Mitte,,Torstr.,98,csbnan7s8n2s3,csbn2s3n1,Postfiliale,RETAIL_OUTLET,Postshop Torstraße,4312916,534.0,8,8-4312916,[],[],[],"[{'type': 'Bezeichnung', 'content': 'Berlin 5'}, {'type': 'christmasHintEN', 'content': ' '}, {'type': 'christmasHintDE', 'content': ' '}, {'type': 'open_all_day', 'content': 'false'}, {'type': 'nextAction_type', 'content': 'OPENINGHOUR'}, {'type': 'nextAction_day', 'content': 'today'}, {'type': 'nextAction_openUntil', 'content': '18:30'}, {'type': 'tt_timestamp', 'content': '35172443056719344'}]",,Mo: 09:00-18:30; Tu: 09:00-18:30; We: 09:00-18:30; Th: 09:00-18:30; Fr: 09:00-18:30; Sa: 10:00-15:00,52.5294491,13.4043244
10969,Berlin,Kreuzberg,,Markgrafenstr.,19a,csbnan7s8n2s3,csbn2s3n1,Postfiliale,RETAIL_OUTLET,Lotto-Toto-Post,4335469,794.0,8,8-4335469,[],[],[],"[{'type': 'Bezeichnung', 'content': 'Berlin 607'}, {'type': 'open_all_day', 'content': 'false'}, {'type': 'nextAction_type', 'content': 'OPENINGHOUR'}, {'type': 'nextAction_day', 'content': 'today'}, {'type': 'nextAction_openUntil', 'content': '18:00'}, {'type': 'tt_timestamp', 'content': '35172443056719344'}]",,Mo: 09:00-18:00; Tu: 09:00-18:00; We: 09:00-18:00; Th: 09:00-18:00; Fr: 09:00-18:00; Sa: 09:00-13:00,52.5073043,13.3945643
10117,Berlin,Mitte,,Friedrichstr.,133,csbnan7s8n2s3,csbn2s3n1,Postfiliale,RETAIL_OUTLET,City-Shop am Friedrichstadtpalast,4341744,658.0,8,8-4341744,[],[],[],"[{'type': 'Bezeichnung', 'content': 'Berlin 64'}, {'type': 'open_all_day', 'content': 'false'}, {'type': 'nextAction_type', 'content': 'OPENINGHOUR'}, {'type': 'nextAction_day', 'content': 'today'}, {'type': 'nextAction_openUntil', 'content': '19:00'}, {'type': 'tt_timestamp', 'content': '35172443056719344'}]",,Mo: 08:00-19:00; Tu: 08:00-19:00; We: 08:00-19:00; Th: 08:00-19:00; Fr: 08:00-19:00; Sa: 08:00-16:00,52.5235573,13.3874275
10179,Berlin,Mitte,,Heinrich-Heine-Platz,9,csbnan7s8n2s3,csbn2s3n1,Postfiliale,RETAIL_OUTLET,Tabac-Center,4139026,826.0,8,8-4139026,[],[],[],"[{'type': 'christmasHintEN', 'content': ' '}, {'type': 'christmasHintDE', 'content': ' '}, {'type': 'Bezeichnung', 'content': 'Berlin 600'}, {'type': 'open_all_day', 'content': 'false'}, {'type': 'nextAction_type', 'content': 'OPENINGHOUR'}, {'type': 'nextAction_day', 'content': 'today'}, {'type': 'nextAction_openUntil', 'content': '19:00'}, {'type': 'tt_timestamp', 'content': '35172443056719344'}]",,Mo: 07:00-19:00; Tu: 07:00-19:00; We: 07:00-19:00; Th: 07:00-19:00; Fr: 07:00-19:00; Sa: 07:00-17:00,52.506585,13.4158765
10249,Berlin,Friedrichshain,,Mollstr.,19,csbnan7s8n2s3,csbn2s3n1,Postfiliale,RETAIL_OUTLET,Post Lotto Schreibwaren,4327580,509.0,8,8-4327580,[],[],[],"[{'type': 'christmasHintEN', 'content': ' '}, {'type': 'christmasHintDE', 'content': ' '}, {'type': 'Bezeichnung', 'content': 'Berlin 18'}, {'type': 'open_all_day', 'content': 'false'}, {'type': 'nextAction_type', 'content': 'OPENINGHOUR'}, {'type': 'nextAction_day', 'content': 'today'}, {'type': 'nextAction_openUntil', 'content': '18:00'}, {'type': 'tt_timestamp', 'content': '35172443056719344'}]",,Mo: 08:00-18:00; Tu: 08:00-18:00; We: 08:00-18:00; Th: 08:00-18:00; Fr: 08:00-18:00; Sa: 08:00-13:00,52.5234703,13.4261535
10119,Berlin,Mitte,,Fehrbelliner Str.,83,csbnan7s8n2s3,csbn2s3n1,Postfiliale,RETAIL_OUTLET,etwas Spätkauf,4335800,778.0,8,8-4335800,[],[],[],"[{'type': 'Bezeichnung', 'content': 'Berlin 6'}, {'type': 'open_all_day', 'content': 'false'}, {'type': 'nextAction_type', 'content': 'OPENINGHOUR'}, {'type': 'nextAction_day', 'content': 'today'}, {'type': 'nextAction_openUntil', 'content': '22:30'}, {'type': 'tt_timestamp', 'content': '35172443056719344'}]",,Mo: 09:00-22:30; Tu: 09:00-22:30; We: 09:00-22:30; Th: 09:00-22:30; Fr: 09:00-22:30; Sa: 10:00-22:30,52.5322896,13.4057837
10969,Berlin,Kreuzberg,,Oranienstr.,55,csbnan7s8n2s3,csbn2s3n1,Postfiliale,RETAIL_OUTLET,Kiezkauf,4329456,871.0,8,8-4329456,[],[],[],"[{'type': 'christmasHintEN', 'content': ' '}, {'type': 'christmasHintDE', 'content': ' '}, {'type': 'Bezeichnung', 'content': 'Berlin 615'}, {'type': 'open_all_day', 'content': 'false'}, {'type': 'nextAction_type', 'content': 'OPENINGHOUR'}, {'type': 'nextAction_day', 'content': 'today'}, {'type': 'nextAction_openUntil', 'content': '20:00'}, {'type': 'tt_timestamp', 'content': '35172443056719344'}]",,Mo: 07:00-20:00; Tu: 07:00-20:00; We: 07:00-20:00; Th: 07:00-20:00; Fr: 07:00-20:00; Sa: 07:00-20:00,52.5034209,13.4119274
10115,Berlin,Mitte,,Novalisstr.,13,csbnan7s8n2s3,csbn2s3n1,Postfiliale,RETAIL_OUTLET,Lottoladen Bieselt,4116178,545.0,8,8-4116178,[],[],[],"[{'type': 'christmasHintEN', 'content': ' '}, {'type': 'christmasHintDE', 'content': ' '}, {'type': 'Bezeichnung', 'content': 'Berlin 7'}, {'type': 'open_all_day', 'content': 'false'}, {'type': 'nextAction_type', 'content': 'OPENINGHOUR'}, {'type': 'nextAction_day', 'content': 'today'}, {'type': 'nextAction_openUntil', 'content': '19:00'}, {'type': 'tt_timestamp', 'content': '35172443056719344'}]",,Mo: 08:00-19:00; Tu: 08:00-19:00; We: 08:00-19:00; Th: 08:00-19:00; Fr: 08:00-19:00; Sa: 08:30-12:30,52.5284359,13.3885248
10407,Berlin,Prenzlauer Berg,,Am Friedrichshain,35,csbnan7s8n2s3,csbn2s3n1,Postfiliale,RETAIL_OUTLET,Melis Coffee 2,4088342,560.0,8,8-4088342,[],[],[],"[{'type': 'christmasHintEN', 'content': ' '}, {'type': 'christmasHintDE', 'content': ' '}, {'type': 'Bezeichnung', 'content': 'Berlin 751'}, {'type': 'open_all_day', 'content': 'false'}, {'type': 'nextAction_type', 'content': 'OPENINGHOUR'}, {'type': 'nextAction_day', 'content': 'today'}, {'type': 'nextAction_openUntil', 'content': '22:00'}, {'type': 'tt_timestamp', 'content': '35172443056719344'}]",,Mo: 08:00-22:00; Tu: 08:00-22:00; We: 08:00-22:00; Th: 08:00-22:00; Fr: 08:00-22:00; Sa: 08:00-22:00,52.5282837,13.4247892
10117,Berlin,Mitte,,Reinhardtstr.,46,csbnan7s8n2s3,csbn2s3n1,Postfiliale,RETAIL_OUTLET,LTP,4337728,433.0,8,8-4337728,[],[],[],"[{'type': 'Bezeichnung', 'content': 'Berlin 943'}, {'type': 'open_all_day', 'content': 'false'}, {'type': 'nextAction_type', 'content': 'OPENINGHOUR'}, {'type': 'nextAction_day', 'content': 'today'}, {'type': 'nextAction_openUntil', 'content': '19:00'}, {'type': 'tt_timestamp', 'content': '35172443056719344'}]",,Mo: 09:00-19:00; Tu: 09:00-19:00; We: 09:00-19:00; Th: 09:00-19:00; Fr: 09:00-19:00; Sa: 10:00-15:00,52.5225025,13.3784177
10969,Berlin,,,Ritterstr.,4-5,csbnan7s8n2s3,csbn2s3n1,Postfiliale,RETAIL_OUTLET,"Tabakwaren, Zeitungen, Lotto/Toto",4331236,479.0,8,8-4331236,[],[],[],"[{'type': 'christmasHintEN', 'content': ' '}, {'type': 'christmasHintDE', 'content': ' '}, {'type': 'Bezeichnung', 'content': 'Berlin 610'}, {'type': 'open_all_day', 'content': 'false'}, {'type': 'nextAction_type', 'content': 'OPENINGHOUR'}, {'type': 'nextAction_day', 'content': 'today'}, {'type': 'nextAction_openUntil', 'content': '18:00'}, {'type': 'tt_timestamp', 'content': '35172443056719344'}]",,Mo: 09:00-18:00; Tu: 09:00-18:00; We: 09:00-18:00; Th: 09:00-18:00; Fr: 09:00-18:00; Sa: 09:00-13:00,52.5008922,13.4126049
10115,Berlin,Mitte,,Chausseestr.,121-122,csbnan7s8n2s3,csbn2s3n1,Postfiliale,RETAIL_OUTLET,Postshop Chausseestraße,4328800,501.0,8,8-4328800,[],[],[],"[{'type': 'christmasHintEN', 'content': ' '}, {'type': 'christmasHintDE', 'content': ' '}, {'type': 'Bezeichnung', 'content': 'Berlin 4'}, {'type': 'open_all_day', 'content': 'false'}, {'type': 'nextAction_type', 'content': 'OPENINGHOUR'}, {'type': 'nextAction_day', 'content': 'today'}, {'type': 'nextAction_openUntil', 'content': '18:00'}, {'type': 'tt_timestamp', 'content': '35172443056719344'}]",,Mo: 09:00-18:00; Tu: 09:00-18:00; We: 09:00-18:00; Th: 09:00-18:00; Fr: 09:00-18:00; Sa: 09:00-13:00,52.529325,13.38428
10243,Berlin,Friedrichshain,,Am Ostbahnhof,5,csbnan7s8n2s3,csbn2s3n1,Postfiliale,RETAIL_OUTLET,P & B Press & Books,4304991,821.0,8,8-4304991,[],[],[],"[{'type': 'christmasHintEN', 'content': ' '}, {'type': 'christmasHintDE', 'content': ' '}, {'type': 'Bezeichnung', 'content': 'Berlin 599'}, {'type': 'open_all_day', 'content': 'false'}, {'type': 'nextAction_type', 'content': 'OPENINGHOUR'}, {'type': 'nextAction_day', 'content': 'today'}, {'type': 'nextAction_openUntil', 'content': '20:00'}, {'type': 'tt_timestamp', 'content': '35172443056719344'}]",,Mo: 06:00-20:00; Tu: 06:00-20:00; We: 06:00-20:00; Th: 06:00-20:00; Fr: 06:00-20:00; Sa: 06:00-20:00,52.5103138,13.4329901
10785,Berlin,Tiergarten,,Potsdamer Platz,2,csbnan7s8n2s3,csbn2s3n1,Postfiliale,RETAIL_OUTLET,Spar Expres /Im Bhf–Eing.Sony-Cente,4337484,572.0,8,8-4337484,[],[],[],"[{'type': 'Bezeichnung', 'content': 'Berlin 309'}, {'type': 'open_all_day', 'content': 'false'}, {'type': 'nextAction_type', 'content': 'OPENINGHOUR'}, {'type': 'nextAction_day', 'content': 'today'}, {'type': 'nextAction_openUntil', 'content': '19:00'}, {'type': 'tt_timestamp', 'content': '35172443056719344'}]",,Mo: 09:00-19:00; Tu: 09:00-19:00; We: 09:00-19:00; Th: 09:00-19:00; Fr: 09:00-19:00; Sa: 10:00-15:00,52.5096925,13.3752856
10997,Berlin,Kreuzberg,,Oranienstr.,10-11,csbnan7s8n2s3,csbn2s3n1,Postfiliale,RETAIL_OUTLET,Lotto Post,4306719,548.0,8,8-4306719,[],[],[],"[{'type': 'christmasHintEN', 'content': ' '}, {'type': 'christmasHintDE', 'content': ' '}, {'type': 'Bezeichnung', 'content': 'Berlin 360'}, {'type': 'open_all_day', 'content': 'false'}, {'type': 'nextAction_type', 'content': 'OPENINGHOUR'}, {'type': 'nextAction_day', 'content': 'today'}, {'type': 'nextAction_openUntil', 'content': '19:00'}, {'type': 'tt_timestamp', 'content': '35172443056719344'}]",,Mo: 09:00-19:00; Tu: 09:00-19:00; We: 09:00-19:00; Th: 09:00-19:00; Fr: 09:00-19:00; Sa: 10:00-17:00,52.5000886,13.4240324
10243,Berlin,Friedrichshain,,Straße der Pariser Kommune,41,csbnan7s8n2s3,csbn2s3n1,Postfiliale,RETAIL_OUTLET,Lotto-Postpoint ,4093206,539.0,8,8-4093206,[],[],[],"[{'type': 'christmasHintEN', 'content': ' '}, {'type': 'christmasHintDE', 'content': ' '}, {'type': 'Bezeichnung', 'content': 'Berlin 175'}, {'type': 'open_all_day', 'content': 'false'}, {'type': 'nextAction_type', 'content': 'OPENINGHOUR'}, {'type': 'nextAction_day', 'content': 'today'}, {'type': 'nextAction_openUntil', 'content': '19:00'}, {'type': 'tt_timestamp', 'content': '35172443056719344'}]",,Mo: 08:00-19:00; Tu: 08:00-19:00; We: 08:00-19:00; Th: 08:00-19:00; Fr: 08:00-19:00; Sa: 08:00-13:00,52.516377,13.4401479
10435,Berlin,Prenzlauer Berg,,Sredzkistr.,29,csbnan7s8n2s3,csbn2s3n1,Postfiliale,RETAIL_OUTLET,Kiez Kiosk,4317608,589.0,8,8-4317608,[],[],[],"[{'type': 'christmasHintEN', 'content': ' '}, {'type': 'christmasHintDE', 'content': ' '}, {'type': 'Bezeichnung', 'content': 'Berlin 584'}, {'type': 'open_all_day', 'content': 'false'}, {'type': 'nextAction_type', 'content': 'OPENINGHOUR'}, {'type': 'nextAction_day', 'content': 'today'}, {'type': 'nextAction_openUntil', 'content': '22:45'}, {'type': 'tt_timestamp', 'content': '35172443056719344'}]",,Mo: 10:00-22:45; Tu: 10:00-22:45; We: 10:00-22:45; Th: 10:00-22:45; Fr: 10:00-22:45; Sa: 10:00-22:45; Su: 13:00-20:00,52.5385032,13.4168586
10961,Berlin,Kreuzberg,,Blücherstr.,15,csbnan7s8n2s3,csbn2s3n1,Postfiliale,RETAIL_OUTLET,Kiosk,4308421,569.0,8,8-4308421,[],[],[],"[{'type': 'christmasHintEN', 'content': ' '}, {'type': 'Bezeichnung', 'content': 'Berlin 614'}, {'type': 'christmasHintDE', 'content': ' '}, {'type': 'open_all_day', 'content': 'false'}, {'type': 'nextAction_type', 'content': 'OPENINGHOUR'}, {'type': 'nextAction_day', 'content': 'today'}, {'type': 'nextAction_openUntil', 'content': '19:00'}, {'type': 'tt_timestamp', 'content': '35172443056719344'}]",,Mo: 08:00-19:00; Tu: 08:00-19:00; We: 08:00-19:00; Th: 08:00-19:00; Fr: 08:00-19:00; Sa: 08:00-19:00,52.4952186,13.3972017
10405,Berlin,Prenzlauer Berg,,Prenzlauer Allee,51,csbnan7s8n2s3,csbn2s3n1,Postfiliale,RETAIL_OUTLET,Melis Getränke,4292208,586.0,8,8-4292208,[],[],[],"[{'type': 'christmasHintEN', 'content': ' '}, {'type': 'christmasHintDE', 'content': ' '}, {'type': 'Bezeichnung', 'content': 'Berlin 581'}, {'type': 'open_all_day', 'content': 'false'}, {'type': 'nextAction_type', 'content': 'OPENINGHOUR'}, {'type': 'nextAction_day', 'content': 'today'}, {'type': 'nextAction_openUntil', 'content': '22:30'}, {'type': 'tt_timestamp', 'content': '35172443056719344'}]",,Mo: 07:30-22:30; Tu: 07:30-22:30; We: 07:30-22:30; Th: 07:30-22:30; Fr: 07:30-22:30; Sa: 07:30-22:30,52.5379209,13.4239386
13355,Berlin,Wedding,,Ackerstr.,118,csbnan7s8n2s3,csbn2s3n1,Postfiliale,RETAIL_OUTLET,Kiezshop am Ackerplatz,4324472,479.0,8,8-4324472,[],[],[],"[{'type': 'Bezeichnung', 'content': 'Berlin 667'}, {'type': 'christmasHintEN', 'content': ' '}, {'type': 'christmasHintDE', 'content': ' '}, {'type': 'open_all_day', 'content': 'false'}, {'type': 'nextAction_type', 'content': 'OPENINGHOUR'}, {'type': 'nextAction_day', 'content': 'today'}, {'type': 'nextAction_openUntil', 'content': '18:00'}, {'type': 'tt_timestamp', 'content': '35172443056719344'}]",,Mo: 09:00-18:00; Tu: 09:00-18:00; We: 09:00-18:00; Th: 09:00-18:00; Fr: 09:00-18:00; Sa: 09:00-18:00,52.5374724,13.3853992
10557,Berlin,Moabit,,Europaplatz,1,csbnan7s8n2s3,csbn2s3n1,Postfiliale,RETAIL_OUTLET,Relay,4316213,745.0,8,8-4316213,[],[],[],"[{'type': 'christmasHintEN', 'content': ' '}, {'type': 'christmasHintDE', 'content': ' '}, {'type': 'Bezeichnung', 'content': 'Berlin 619'}, {'type': 'open_all_day', 'content': 'false'}, {'type': 'nextAction_type', 'content': 'OPENINGHOUR'}, {'type': 'nextAction_day', 'content': 'today'}, {'type': 'nextAction_openUntil', 'content': '19:00'}, {'type': 'tt_timestamp', 'content': '35172443056719344'}]",,Mo: 09:00-19:00; Tu: 09:00-19:00; We: 09:00-19:00; Th: 09:00-19:00; Fr: 09:00-19:00; Sa: 10:00-16:00,52.5256753,13.3684737
10435,Berlin,Prenzlauer Berg,,Danziger Str.,41,csbnan7s8n2s3,csbn2s3n1,Postfiliale,RETAIL_OUTLET,Kiez Kiosk,4338189,499.0,8,8-4338189,[],[],[],"[{'type': 'Bezeichnung', 'content': 'Berlin 582'}, {'type': 'open_all_day', 'content': 'false'}, {'type': 'nextAction_type', 'content': 'OPENINGHOUR'}, {'type': 'nextAction_day', 'content': 'today'}, {'type': 'nextAction_openUntil', 'content': '24:00'}, {'type': 'tt_timestamp', 'content': '35172443056719344'}]",,Mo: 08:00-24:00; Tu: 08:00-24:00; We: 08:00-24:00; Th: 08:00-24:00; Fr: 08:00-24:00; Sa: 08:00-24:00,52.5402127,13.4191934
10407,Berlin,Prenzlauer Berg,,Danziger Str.,122,csbnan7s8n2s3,csbn2s3n1,Postfiliale,RETAIL_OUTLET,Central Food + Getränkemarkt,4332560,554.0,8,8-4332560,[],[],[],"[{'type': 'christmasHintEN', 'content': ' '}, {'type': 'christmasHintDE', 'content': ' '}, {'type': 'Bezeichnung', 'content': 'Berlin 553'}, {'type': 'open_all_day', 'content': 'false'}, {'type': 'nextAction_type', 'content': 'OPENINGHOUR'}, {'type': 'nextAction_day', 'content': 'today'}, {'type': 'nextAction_openUntil', 'content': '20:00'}, {'type': 'tt_timestamp', 'content': '35172443056719344'}]",,Mo: 08:00-20:00; Tu: 08:00-20:00; We: 08:00-20:00; Th: 08:00-20:00; Fr: 08:00-20:00; Sa: 09:00-20:00,52.5356067,13.4334958
10407,Berlin,Prenzlauer Berg,,Danziger Str.,176,csbnan7s8n2s3,csbn2s3n1,Postfiliale,RETAIL_OUTLET,Getränke Tabak Lebensmittel,4327392,538.0,8,8-4327392,[],[],[],"[{'type': 'christmasHintEN', 'content': ' '}, {'type': 'christmasHintDE', 'content': ' '}, {'type': 'Bezeichnung', 'content': 'Berlin 763'}, {'type': 'open_all_day', 'content': 'false'}, {'type': 'nextAction_type', 'content': 'OPENINGHOUR'}, {'type': 'nextAction_day', 'content': 'today'}, {'type': 'nextAction_openUntil', 'content': '19:00'}, {'type': 'tt_timestamp', 'content': '35172443056719344'}]",,Mo: 10:00-19:00; Tu: 10:00-19:00; We: 10:00-19:00; Th: 10:00-19:00; Fr: 10:00-19:00; Sa: 10:00-18:00,52.532245,13.4404143
10557,Berlin,Moabit,,Lehrter Str.,1,csbnan7s8n2s3,csbn2s3n1,Postfiliale,RETAIL_OUTLET,Lehrter Shop,4103143,593.0,8,8-4103143,[],[],[],"[{'type': 'christmasHintEN', 'content': ' '}, {'type': 'christmasHintDE', 'content': ' '}, {'type': 'Bezeichnung', 'content': 'Berlin 618'}, {'type': 'open_all_day', 'content': 'false'}, {'type': 'nextAction_type', 'content': 'OPENINGHOUR'}, {'type': 'nextAction_day', 'content': 'today'}, {'type': 'nextAction_openUntil', 'content': '23:00'}, {'type': 'tt_timestamp', 'content': '35172443056719344'}]",,Mo: 06:00-23:00; Tu: 06:00-23:00; We: 06:00-23:00; Th: 06:00-23:00; Fr: 06:00-23:00; Sa: 07:00-23:00; Su: 08:00-18:00,52.5261154,13.3653025
10967,Berlin,Kreuzberg,,Graefestr.,73,csbnan7s8n2s3,csbn2s3n1,Postfiliale,RETAIL_OUTLET,Presse-Tabek-Post-Lotto,4329384,565.0,8,8-4329384,[],[],[],"[{'type': 'christmasHintEN', 'content': ' '}, {'type': 'christmasHintDE', 'content': ' '}, {'type': 'Bezeichnung', 'content': 'Berlin 609'}, {'type': 'open_all_day', 'content': 'false'}, {'type': 'nextAction_type', 'content': 'OPENINGHOUR'}, {'type': 'nextAction_day', 'content': 'today'}, {'type': 'nextAction_openUntil', 'content': '21:00'}, {'type': 'tt_timestamp', 'content': '35172443056719344'}]",,Mo: 09:00-21:00; Tu: 09:00-21:00; We: 09:00-21:00; Th: 09:00-21:00; Fr: 09:00-21:00; Sa: 09:00-21:00,52.4921511,13.4173403
10437,Berlin,Prenzlauer Berg,,Schönhauser Allee,135,csbnan7s8n2s3,csbn2s3n1,Postfiliale,RETAIL_OUTLET,Kiosk,4098107,587.0,8,8-4098107,[],[],"[{'type': 'holiday', 'fromDate': '2025-05-27T00:00:00+0200', 'toDate': '2025-10-01T23:59:59+0200'}, {'type': 'closure', 'fromDate': '2025-10-02T00:00:00+0200', 'toDate': None}]","[{'type': 'christmasHintEN', 'content': ' '}, {'type': 'christmasHintDE', 'content': ' '}, {'type': 'Bezeichnung', 'content': 'Berlin 580'}, {'type': 'open_all_day', 'content': 'false'}, {'type': 'nextAction_type', 'content': 'OPENINGHOUR'}, {'type': 'nextAction_day', 'content': 'future'}, {'type': 'tt_timestamp', 'content': '35172443056719344'}]",,Mo: holiday-holiday; Tu: holiday-holiday; We: holiday-holiday; Th: holiday-holiday; Fr: holiday-holiday; Sa: holiday-holiday,52.5439621,13.4120056
13355,Berlin,Gesundbrunnen,,Brunnenstr.,78,csbnan7s8n2s3,csbn2s3n1,Postfiliale,RETAIL_OUTLET,Kiosk,4111098,,8,8-4111098,[],[],[],"[{'type': 'christmasHintEN', 'content': ' '}, {'type': 'christmasHintDE', 'content': ' '}, {'type': 'Bezeichnung', 'content': 'Berlin 652'}, {'type': 'open_all_day', 'content': 'false'}, {'type': 'nextAction_type', 'content': 'OPENINGHOUR'}, {'type': 'nextAction_day', 'content': 'today'}, {'type': 'nextAction_openUntil', 'content': '18:00'}, {'type': 'tt_timestamp', 'content': '35172443056719344'}]",,Mo: 06:00-18:00; Tu: 06:00-18:00; We: 06:00-18:00; Th: 06:00-18:00; Fr: 06:00-18:00; Sa: 07:00-13:00,52.543149,13.3926426
10961,Berlin,Kreuzberg,,Mehringdamm,38,csbnan7s8n2s3,csbn2s3n1,Postfiliale,RETAIL_OUTLET,Kiosk Lotto,4131844,846.0,8,8-4131844,[],[],[],"[{'type': 'christmasHintEN', 'content': ' '}, {'type': 'christmasHintDE', 'content': ' '}, {'type': 'Bezeichnung', 'content': 'Berlin 620'}, {'type': 'open_all_day', 'content': 'false'}, {'type': 'nextAction_type', 'content': 'OPENINGHOUR'}, {'type': 'nextAction_day', 'content': 'today'}, {'type': 'nextAction_openUntil', 'content': '20:00'}, {'type': 'tt_timestamp', 'content': '35172443056719344'}]",,Mo: 08:00-20:00; Tu: 08:00-20:00; We: 08:00-20:00; Th: 08:00-20:00; Fr: 08:00-20:00; Sa: 09:00-20:00; Su: 09:00-20:00,52.4933016,13.3875628
10967,Berlin,Kreuzberg,,Kottbusser Damm,13,csbnan7s8n2s3,csbn2s3n1,Postfiliale,RETAIL_OUTLET,Sezgin Yildririm,4111391,544.0,8,8-4111391,[],[],[],"[{'type': 'christmasHintEN', 'content': ' '}, {'type': 'christmasHintDE', 'content': ' '}, {'type': 'Bezeichnung', 'content': 'Berlin 181'}, {'type': 'open_all_day', 'content': 'false'}, {'type': 'nextAction_type', 'content': 'OPENINGHOUR'}, {'type': 'nextAction_day', 'content': 'today'}, {'type': 'nextAction_openUntil', 'content': '20:00'}, {'type': 'tt_timestamp', 'content': '35172443056719344'}]",,Mo: 10:00-20:00; Tu: 10:00-20:00; We: 10:00-20:00; Th: 10:00-20:00; Fr: 10:00-20:00; Sa: 10:00-19:00,52.4927855,13.4219581
10961,Berlin,Kreuzberg,,Gneisenaustr.,9,csbnan7s8n2s3,csbn2s3n1,Postfiliale,RETAIL_OUTLET,KI-BA Kiosk -Back-Shop,4093180,568.0,8,8-4093180,[],[],[],"[{'type': 'christmasHintEN', 'content': ' '}, {'type': 'christmasHintDE', 'content': ' '}, {'type': 'Bezeichnung', 'content': 'Berlin 617'}, {'type': 'open_all_day', 'content': 'false'}, {'type': 'nextAction_type', 'content': 'OPENINGHOUR'}, {'type': 'nextAction_day', 'content': 'today'}, {'type': 'nextAction_openUntil', 'content': '24:00'}, {'type': 'tt_timestamp', 'content': '35172443056719344'}]",,Mo: 00:00-02:00; Tu: 00:00-02:00; We: 06:00-24:00; Th: 06:00-24:00; Fr: 06:00-24:00; Sa: 06:00-24:00; Su: 00:00-03:00,52.4920055,13.3907076
10967,Berlin,Kreuzberg,,Körtestr.,17,csbnan7s8n2s3,csbn2s3n1,Postfiliale,RETAIL_OUTLET,Heim Getränke 2,4335329,855.0,8,8-4335329,[],[],[],"[{'type': 'Bezeichnung', 'content': 'Berlin 616'}, {'type': 'open_all_day', 'content': 'false'}, {'type': 'nextAction_type', 'content': 'OPENINGHOUR'}, {'type': 'nextAction_day', 'content': 'today'}, {'type': 'nextAction_openUntil', 'content': '23:00'}, {'type': 'tt_timestamp', 'content': '35172443056719344'}]",,Mo: 09:00-23:00; Tu: 09:00-23:00; We: 09:00-23:00; Th: 09:00-23:00; Fr: 09:00-23:00; Sa: 09:00-23:00,52.490469,13.4104314
10557,Berlin,Moabit,,Otto-Weidt-Platz,14,csbnan7s8n2s3,csbn2s3n1,Postfiliale,RETAIL_OUTLET,Golden Bridge,4333802,673.0,8,8-4333802,[],[],[],"[{'type': 'christmasHintEN', 'content': ' '}, {'type': 'christmasHintDE', 'content': ' '}, {'type': 'Bezeichnung', 'content': 'Berlin 215'}, {'type': 'open_all_day', 'content': 'false'}, {'type': 'nextAction_type', 'content': 'OPENINGHOUR'}, {'type': 'nextAction_day', 'content': 'today'}, {'type': 'nextAction_openUntil', 'content': '22:00'}, {'type': 'tt_timestamp', 'content': '35172443056719344'}]",,Mo: 10:00-22:00; Tu: 10:00-22:00; We: 10:00-22:00; Th: 10:00-22:00; Fr: 10:00-22:00; Sa: 10:00-22:00,52.5331926,13.3681052
10961,Berlin,Kreuzberg,,Gneisenaustr.,40,csbnan7s8n2s3,csbn2s3n1,Postfiliale,RETAIL_OUTLET,POSTFILIALE 547,4293476,547.0,8,8-4293476,[],[],[],"[{'type': 'christmasHintEN', 'content': ' '}, {'type': 'christmasHintDE', 'content': ' '}, {'type': 'Bezeichnung', 'content': 'Berlin 605'}, {'type': 'open_all_day', 'content': 'false'}, {'type': 'nextAction_type', 'content': 'OPENINGHOUR'}, {'type': 'nextAction_day', 'content': 'today'}, {'type': 'nextAction_openUntil', 'content': '18:30'}, {'type': 'tt_timestamp', 'content': '35172443056719344'}]",,Mo: 10:00-18:30; Tu: 10:00-18:30; We: 10:00-18:30; Th: 10:00-18:30; Fr: 10:00-18:30; Sa: 11:00-14:00,52.4899945,13.4006005
10997,Berlin,Kreuzberg,,Wrangelstr.,86,csbnan7s8n2s3,csbn2s3n1,Postfiliale,RETAIL_OUTLET,Wrangel Shop,4342599,579.0,8,8-4342599,[],[],[],"[{'type': 'Bezeichnung', 'content': 'Berlin 141'}, {'type': 'open_all_day', 'content': 'false'}, {'type': 'nextAction_type', 'content': 'OPENINGHOUR'}, {'type': 'nextAction_day', 'content': 'today'}, {'type': 'nextAction_openUntil', 'content': '16:00'}, {'type': 'tt_timestamp', 'content': '35172443056719344'}]",,Mo: 09:00-16:00; Tu: 09:00-16:00; We: 09:00-16:00; Th: 09:00-16:00; Fr: 09:00-16:00; Sa: 09:00-16:00,52.4990714,13.4410497
10243,Berlin,Friedrichshain,,Kopernikusstr.,6,csbnan7s8n2s3,csbn2s3n1,Postfiliale,RETAIL_OUTLET,Kopernikus-Shop,4126263,601.0,8,8-4126263,[],[],[],"[{'type': 'christmasHintEN', 'content': ' '}, {'type': 'christmasHintDE', 'content': ' '}, {'type': 'Bezeichnung', 'content': 'Berlin 171'}, {'type': 'open_all_day', 'content': 'false'}, {'type': 'nextAction_type', 'content': 'OPENINGHOUR'}, {'type': 'nextAction_day', 'content': 'today'}, {'type': 'nextAction_openUntil', 'content': '21:00'}, {'type': 'tt_timestamp', 'content': '35172443056719344'}]",,Mo: 08:00-21:00; Tu: 08:00-21:00; We: 08:00-21:00; Th: 08:00-21:00; Fr: 08:00-21:00; Sa: 08:00-18:00,52.5107303,13.4511785
10249,Berlin,Friedrichshain,,Ebertystr.,5,csbnan7s8n2s3,csbn2s3n1,Postfiliale,RETAIL_OUTLET,Lotto Post,4323347,508.0,8,8-4323347,[],[],"[{'type': 'holiday', 'fromDate': '2025-10-15T00:00:00+0200', 'toDate': '2025-10-18T23:59:59+0200'}]","[{'type': 'christmasHintEN', 'content': ' '}, {'type': 'christmasHintDE', 'content': ' '}, {'type': 'Bezeichnung', 'content': 'Berlin 76'}, {'type': 'open_all_day', 'content': 'false'}, {'type': 'nextAction_type', 'content': 'OPENINGHOUR'}, {'type': 'nextAction_day', 'content': 'today'}, {'type': 'nextAction_openUntil', 'content': '18:00'}, {'type': 'tt_timestamp', 'content': '35172443056719344'}]",,Mo: 10:00-18:00; Tu: 10:00-18:00; We: 10:00-18:00; Th: 10:00-18:00; Fr: 10:00-18:00; Sa: 10:00-13:00,52.5264419,13.4511022
10965,Berlin,Kreuzberg,,Yorckstr.,22,csbnan7s8n2s3,csbn2s3n1,Postfiliale,RETAIL_OUTLET,York 22,4335731,831.0,8,8-4335731,[],[],[],"[{'type': 'Bezeichnung', 'content': 'Berlin 621'}, {'type': 'open_all_day', 'content': 'false'}, {'type': 'nextAction_type', 'content': 'OPENINGHOUR'}, {'type': 'nextAction_day', 'content': 'today'}, {'type': 'nextAction_openUntil', 'content': '21:00'}, {'type': 'tt_timestamp', 'content': '35172443056719344'}]",,Mo: 09:00-21:00; Tu: 09:00-21:00; We: 09:00-21:00; Th: 09:00-21:00; Fr: 09:00-21:00; Sa: 09:00-21:00,52.4929306,13.3800807
10999,Berlin,Kreuzberg,,Reichenberger Str.,73a,csbnan7s8n2s3,csbn2s3n1,Postfiliale,RETAIL_OUTLET,Lotto,4118455,562.0,8,8-4118455,[],[],[],"[{'type': 'christmasHintEN', 'content': ' '}, {'type': 'christmasHintDE', 'content': ' '}, {'type': 'Bezeichnung', 'content': 'Berlin 365'}, {'type': 'open_all_day', 'content': 'false'}, {'type': 'nextAction_type', 'content': 'OPENINGHOUR'}, {'type': 'nextAction_day', 'content': 'today'}, {'type': 'nextAction_openUntil', 'content': '19:00'}, {'type': 'tt_timestamp', 'content': '35172443056719344'}]",,Mo: 09:00-19:00; Tu: 09:00-19:00; We: 09:00-19:00; Th: 09:00-19:00; Fr: 09:00-19:00; Sa: 09:00-16:00; Su: 09:00-14:00,52.4942796,13.4342308
10437,Berlin,Prenzlauer Berg,,Stargarder Str.,61,csbnan7s8n2s3,csbn2s3n1,Postfiliale,RETAIL_OUTLET,Star 61,4135055,609.0,8,8-4135055,[],[],[],"[{'type': 'christmasHintEN', 'content': ' '}, {'type': 'christmasHintDE', 'content': ' '}, {'type': 'Bezeichnung', 'content': 'Berlin 961'}, {'type': 'open_all_day', 'content': 'false'}, {'type': 'nextAction_type', 'content': 'OPENINGHOUR'}, {'type': 'nextAction_day', 'content': 'today'}, {'type': 'nextAction_openUntil', 'content': '18:00'}, {'type': 'tt_timestamp', 'content': '35172443056719344'}]",,Mo: 10:00-18:00; Tu: 10:00-18:00; We: 10:00-18:00; Th: 10:00-18:00; Fr: 10:00-18:00; Sa: 12:00-16:00,52.5454148,13.4211543
10437,Berlin,Prenzlauer Berg,,Gleimstr.,13a,csbnan7s8n2s3,csbn2s3n1,Postfiliale,RETAIL_OUTLET,"gleim shop-snacks, drinks and more",4109034,567.0,8,8-4109034,[],[],[],"[{'type': 'christmasHintEN', 'content': ' '}, {'type': 'christmasHintDE', 'content': ' '}, {'type': 'Bezeichnung', 'content': 'Berlin 583'}, {'type': 'open_all_day', 'content': 'false'}, {'type': 'nextAction_type', 'content': 'OPENINGHOUR'}, {'type': 'nextAction_day', 'content': 'today'}, {'type': 'nextAction_openUntil', 'content': '22:00'}, {'type': 'tt_timestamp', 'content': '35172443056719344'}]",,Mo: 07:00-22:00; Tu: 07:00-22:00; We: 07:00-22:00; Th: 07:00-22:00; Fr: 07:00-22:00; Sa: 07:00-22:00,52.5470375,13.407223
10247,Berlin,Friedrichshain,,Petersburger Str.,95,csbnan7s8n2s3,csbn2s3n1,Postfiliale,RETAIL_OUTLET,Drink Shop Ja Dilo,4339706,665.0,8,8-4339706,[],[],[],"[{'type': 'Bezeichnung', 'content': 'Berlin 68'}, {'type': 'open_all_day', 'content': 'false'}, {'type': 'nextAction_type', 'content': 'OPENINGHOUR'}, {'type': 'nextAction_day', 'content': 'today'}, {'type': 'nextAction_openUntil', 'content': '18:00'}, {'type': 'tt_timestamp', 'content': '35172443056719344'}]",,Mo: 10:00-18:00; Tu: 10:00-18:00; We: 10:00-18:00; Th: 10:00-18:00; Fr: 10:00-18:00; Sa: 10:00-18:00,52.5171608,13.4539871
10961,Berlin,Kreuzberg,,Bergmannstr.,10,csbnan7s8n2s3,csbn2s3n1,Postfiliale,RETAIL_OUTLET,Zigarren Lotto Post,4301048,578.0,8,8-4301048,[],[],[],"[{'type': 'christmasHintEN', 'content': ' '}, {'type': 'christmasHintDE', 'content': ' '}, {'type': 'Bezeichnung', 'content': 'Berlin 131'}, {'type': 'open_all_day', 'content': 'false'}, {'type': 'nextAction_type', 'content': 'OPENINGHOUR'}, {'type': 'nextAction_day', 'content': 'today'}, {'type': 'nextAction_openUntil', 'content': '20:00'}, {'type': 'tt_timestamp', 'content': '35172443056719344'}]",,Mo: 06:00-20:00; Tu: 06:00-20:00; We: 06:00-20:00; Th: 06:00-20:00; Fr: 06:00-20:00; Sa: 07:00-13:00,52.4895214,13.3898103
10437,Berlin,Prenzlauer Berg,,Gleimstr.,29,csbnan7s8n2s3,csbn2s3n1,Postfiliale,RETAIL_OUTLET,Spätkauf Oktar,4328212,543.0,8,8-4328212,[],[],[],"[{'type': 'christmasHintEN', 'content': ' '}, {'type': 'christmasHintDE', 'content': ' '}, {'type': 'Bezeichnung', 'content': 'Berlin 59'}, {'type': 'open_all_day', 'content': 'false'}, {'type': 'nextAction_type', 'content': 'OPENINGHOUR'}, {'type': 'nextAction_day', 'content': 'today'}, {'type': 'nextAction_openUntil', 'content': '20:00'}, {'type': 'tt_timestamp', 'content': '35172443056719344'}]",,Mo: 10:00-20:00; Tu: 10:00-20:00; We: 10:00-20:00; Th: 10:00-20:00; Fr: 10:00-20:00; Sa: 10:00-20:00,52.5474814,13.4126957
10557,Berlin,Moabit,,Lehrter Str.,24e,csbnan7s8n2s3,csbn2s3n1,Postfiliale,RETAIL_OUTLET,Posty,4340815,527.0,8,8-4340815,[],[],[],"[{'type': 'Bezeichnung', 'content': 'Berlin 611'}, {'type': 'open_all_day', 'content': 'false'}, {'type': 'nextAction_type', 'content': 'OPENINGHOUR'}, {'type': 'nextAction_day', 'content': 'today'}, {'type': 'nextAction_openUntil', 'content': '23:00'}, {'type': 'tt_timestamp', 'content': '35172443056719344'}]",,Mo: 10:00-23:00; Tu: 10:00-23:00; We: 10:00-23:00; Th: 10:00-23:00; Fr: 10:00-23:00; Sa: 10:00-23:00,52.5316046,13.3616137
10967,Berlin,Neukölln,,Kottbusser Damm,72,csbnan7s8n2s3,csbn2s3n1,Postfiliale,RETAIL_OUTLET,Pen & Paper,4318164,737.0,8,8-4318164,[],[],[],"[{'type': 'Bezeichnung', 'content': 'Berlin 612'}, {'type': 'christmasHintEN', 'content': ' '}, {'type': 'christmasHintDE', 'content': ' '}, {'type': 'open_all_day', 'content': 'false'}, {'type': 'nextAction_type', 'content': 'OPENINGHOUR'}, {'type': 'nextAction_day', 'content': 'today'}, {'type': 'nextAction_openUntil', 'content': '23:45'}, {'type': 'tt_timestamp', 'content': '35172443056719344'}]",,Mo: 09:00-23:45; Tu: 09:00-23:45; We: 09:00-23:45; Th: 09:00-23:45; Fr: 09:00-23:45; Sa: 09:00-23:45,52.4897689,13.4243979
10245,Berlin,Friedrichshain,,Rotherstr.,20,csbnan7s8n2s3,csbn2s3n1,Postfiliale,RETAIL_OUTLET,Pen & Paper,4296469,835.0,8,8-4296469,[],[],[],"[{'type': 'christmasHintEN', 'content': ' '}, {'type': 'christmasHintDE', 'content': ' '}, {'type': 'Bezeichnung', 'content': 'Berlin 16'}, {'type': 'open_all_day', 'content': 'false'}, {'type': 'nextAction_type', 'content': 'OPENINGHOUR'}, {'type': 'nextAction_day', 'content': 'today'}, {'type': 'nextAction_openUntil', 'content': '20:00'}, {'type': 'tt_timestamp', 'content': '35172443056719344'}]",,Mo: 08:00-20:00; Tu: 08:00-20:00; We: 08:00-20:00; Th: 08:00-20:00; Fr: 08:00-20:00; Sa: 10:00-15:00,52.5036094,13.4505738
10409,Berlin,Prenzlauer Berg,,Grellstr.,1a,csbnan7s8n2s3,csbn2s3n1,Postfiliale,RETAIL_OUTLET,Presseshop,4337154,717.0,8,8-4337154,[],[],[],"[{'type': 'Bezeichnung', 'content': 'Berlin 585'}, {'type': 'open_all_day', 'content': 'false'}, {'type': 'nextAction_type', 'content': 'OPENINGHOUR'}, {'type': 'nextAction_day', 'content': 'today'}, {'type': 'nextAction_openUntil', 'content': '18:00'}, {'type': 'tt_timestamp', 'content': '35172443056719344'}]",,Mo: 09:00-18:00; Tu: 09:00-18:00; We: 09:00-18:00; Th: 09:00-18:00; Fr: 09:00-18:00; Sa: 10:00-16:00,52.5452922,13.4281401
10785,Berlin,Schöneberg,,Kurfürstenstr.,153,csbnan7s8n2s3,csbn2s3n1,Postfiliale,RETAIL_OUTLET,Kiosk Lotto,4311123,691.0,8,8-4311123,[],[],[],"[{'type': 'christmasHintEN', 'content': ' '}, {'type': 'christmasHintDE', 'content': ' '}, {'type': 'Bezeichnung', 'content': 'Berlin 303'}, {'type': 'open_all_day', 'content': 'false'}, {'type': 'nextAction_type', 'content': 'OPENINGHOUR'}, {'type': 'nextAction_day', 'content': 'today'}, {'type': 'nextAction_openUntil', 'content': '20:00'}, {'type': 'tt_timestamp', 'content': '35172443056719344'}]",,Mo: 08:00-20:00; Tu: 08:00-20:00; We: 08:00-20:00; Th: 08:00-20:00; Fr: 08:00-20:00; Sa: 08:00-20:00,52.4994564,13.3635099
13355,Berlin,Gesundbrunnen,,Brunnenstr.,105,csbnan7s8n2s3,csbn2s3n1,Postfiliale,RETAIL_OUTLET,Picobello im Kaufland,4322402,474.0,8,8-4322402,[],[],[],"[{'type': 'christmasHintEN', 'content': ' '}, {'type': 'christmasHintDE', 'content': ' '}, {'type': 'Bezeichnung', 'content': 'Berlin 662'}, {'type': 'open_all_day', 'content': 'false'}, {'type': 'nextAction_type', 'content': 'OPENINGHOUR'}, {'type': 'nextAction_day', 'content': 'today'}, {'type': 'nextAction_openUntil', 'content': '19:00'}, {'type': 'tt_timestamp', 'content': '35172443056719344'}]",,Mo: 09:00-19:00; Tu: 09:00-19:00; We: 09:00-19:00; Th: 09:00-19:00; Fr: 09:00-19:00; Sa: 09:00-19:00,52.5476732,13.3890231
10439,Berlin,Prenzlauer Berg,,Schönhauser Allee,79,csbnan7s8n2s3,csbn2s3n1,Postbank Filiale,POSTBANK_FINANCE_CENTER,Postbank Filiale,78430,518.0,8,8-78430,[],[],[],"[{'type': 'christmasHintEN', 'content': ' '}, {'type': 'christmasHintDE', 'content': ' '}, {'type': 'Bezeichnung', 'content': 'Berlin 58'}, {'type': 'open_all_day', 'content': 'false'}, {'type': 'nextAction_type', 'content': 'OPENINGHOUR'}, {'type': 'nextAction_day', 'content': 'today'}, {'type': 'nextAction_openUntil', 'content': '20:00'}, {'type': 'tt_timestamp', 'content': '35172443056719344'}]",,Mo: 10:00-20:00; Tu: 10:00-20:00; We: 10:00-20:00; Th: 10:00-20:00; Fr: 10:00-20:00; Sa: 10:00-17:00,52.549578,13.4147154
10785,Berlin,Tiergarten,,Lützowstr.,48,csbnan7s8n2s3,csbn2s3n1,Postfiliale,RETAIL_OUTLET,Lottoladen Turhan,4314881,849.0,8,8-4314881,[],[],[],"[{'type': 'Bezeichnung', 'content': 'Berlin 304'}, {'type': 'christmasHintEN', 'content': ' '}, {'type': 'christmasHintDE', 'content': ' '}, {'type': 'open_all_day', 'content': 'false'}, {'type': 'nextAction_type', 'content': 'OPENINGHOUR'}, {'type': 'nextAction_day', 'content': 'today'}, {'type': 'nextAction_openUntil', 'content': '18:00'}, {'type': 'tt_timestamp', 'content': '35172443056719344'}]",,Mo: 06:00-18:00; Tu: 06:00-18:00; We: 06:00-18:00; Th: 06:00-18:00; Fr: 06:00-18:00; Sa: 08:00-14:00,52.5050459,13.3561429
10783,Berlin,Schöneberg,,Bülowstr.,27,csbnan7s8n2s3,csbn2s3n1,Postfiliale,RETAIL_OUTLET,Pen and Paper,4313641,813.0,8,8-4313641,[],[],[],"[{'type': 'christmasHintEN', 'content': ' '}, {'type': 'christmasHintDE', 'content': ' '}, {'type': 'Bezeichnung', 'content': 'Berlin 302'}, {'type': 'open_all_day', 'content': 'false'}, {'type': 'nextAction_type', 'content': 'OPENINGHOUR'}, {'type': 'nextAction_day', 'content': 'today'}, {'type': 'nextAction_openUntil', 'content': '22:00'}, {'type': 'tt_timestamp', 'content': '35172443056719344'}]",,Mo: 09:00-22:00; Tu: 09:00-22:00; We: 09:00-22:00; Th: 09:00-22:00; Fr: 09:00-22:00; Sa: 10:00-22:00,52.4973064,13.3629597
10245,Berlin,Friedrichshain,,Gabriel-Max-Str.,4,csbnan7s8n2s3,csbn2s3n1,Postfiliale,RETAIL_OUTLET,Ayse Aykut,4320428,559.0,8,8-4320428,[],[],[],"[{'type': 'christmasHintEN', 'content': ' '}, {'type': 'christmasHintDE', 'content': ' '}, {'type': 'Bezeichnung', 'content': 'Berlin 178'}, {'type': 'open_all_day', 'content': 'false'}, {'type': 'nextAction_type', 'content': 'OPENINGHOUR'}, {'type': 'nextAction_day', 'content': 'today'}, {'type': 'nextAction_openUntil', 'content': '17:00'}, {'type': 'tt_timestamp', 'content': '35172443056719344'}]",,Mo: 09:00-17:00; Tu: 09:00-17:00; We: 09:00-17:00; Th: 09:00-17:00; Fr: 09:00-17:00; Sa: 09:00-17:00,52.5100566,13.4583556
10409,Berlin,Prenzlauer Berg,,Greifswalder Str.,90,csbnan7s8n2s3,csbn2s3n1,Postfiliale,RETAIL_OUTLET,Post-Shop Prenzlauer Berg,4332251,517.0,8,8-4332251,[],[],[],"[{'type': 'Bezeichnung', 'content': 'Berlin-Prenzlauer Berg'}, {'type': 'open_all_day', 'content': 'false'}, {'type': 'nextAction_type', 'content': 'OPENINGHOUR'}, {'type': 'nextAction_day', 'content': 'today'}, {'type': 'nextAction_openUntil', 'content': '18:00'}, {'type': 'tt_timestamp', 'content': '35172443056719344'}]",,Mo: 09:00-18:00; Tu: 09:00-18:00; We: 09:00-18:00; Th: 09:00-18:00; Fr: 09:00-18:00; Sa: 09:00-13:00,52.5434739,13.4420731
10829,Berlin,Schöneberg,,Bautzener Str.,25,csbnan7s8n2s3,csbn2s3n1,Postfiliale,RETAIL_OUTLET,Minimarkt,4336351,856.0,8,8-4336351,[],[],[],"[{'type': 'Bezeichnung', 'content': 'Berlin 622'}, {'type': 'open_all_day', 'content': 'false'}, {'type': 'nextAction_type', 'content': 'OPENINGHOUR'}, {'type': 'nextAction_day', 'content': 'today'}, {'type': 'nextAction_openUntil', 'content': '20:00'}, {'type': 'tt_timestamp', 'content': '35172443056719344'}]",,Mo: 08:00-20:00; Tu: 08:00-20:00; We: 08:00-20:00; Th: 08:00-20:00; Fr: 08:00-20:00; Sa: 10:00-18:00,52.4906292,13.3709992
10249,Berlin,Prenzlauer Berg,,Hermann-Blankenstein-Str.,38,csbnan7s8n2s3,csbn2s3n1,Postfiliale,RETAIL_OUTLET,k kiosk ,4319474,,8,8-4319474,[],[],[],"[{'type': 'christmasHintEN', 'content': ' '}, {'type': 'christmasHintDE', 'content': ' '}, {'type': 'Bezeichnung', 'content': 'Berlin 670'}, {'type': 'open_all_day', 'content': 'false'}, {'type': 'nextAction_type', 'content': 'OPENINGHOUR'}, {'type': 'nextAction_day', 'content': 'today'}, {'type': 'nextAction_openUntil', 'content': '17:30'}, {'type': 'tt_timestamp', 'content': '35172443056719344'}]",,Mo: 09:00-17:30; Tu: 09:00-17:30; We: 09:00-17:30; Th: 09:00-17:30; Fr: 09:00-17:30; Sa: 09:00-17:30,52.5240101,13.4617084
10407,Berlin,Prenzlauer Berg,,Storkower Str.,139,csbnan7s8n2s3,csbn2s3n1,Postfiliale,RETAIL_OUTLET,k kiosk,4307189,,8,8-4307189,[],[],[],"[{'type': 'christmasHintEN', 'content': ' '}, {'type': 'christmasHintDE', 'content': ' '}, {'type': 'Bezeichnung', 'content': 'Berlin 762'}, {'type': 'open_all_day', 'content': 'false'}, {'type': 'nextAction_type', 'content': 'OPENINGHOUR'}, {'type': 'nextAction_day', 'content': 'today'}, {'type': 'nextAction_openUntil', 'content': '17:30'}, {'type': 'tt_timestamp', 'content': '35172443056719344'}]",,Mo: 09:00-17:30; Tu: 09:00-17:30; We: 09:00-17:30; Th: 09:00-17:30; Fr: 09:00-17:30; Sa: 09:00-17:30,52.533484,13.4565964
10439,Berlin,Prenzlauer Berg,,Paul-Robeson-Str.,19,csbnan7s8n2s3,csbn2s3n1,Postfiliale,RETAIL_OUTLET,MG Kiezmarkt,4293064,640.0,8,8-4293064,[],[],[],"[{'type': 'christmasHintEN', 'content': ' '}, {'type': 'christmasHintDE', 'content': ' '}, {'type': 'Bezeichnung', 'content': 'Berlin 196'}, {'type': 'open_all_day', 'content': 'false'}, {'type': 'nextAction_type', 'content': 'OPENINGHOUR'}, {'type': 'nextAction_day', 'content': 'today'}, {'type': 'nextAction_openUntil', 'content': '20:00'}, {'type': 'tt_timestamp', 'content': '35172443056719344'}]",,Mo: 08:00-20:00; Tu: 08:00-20:00; We: 08:00-20:00; Th: 08:00-20:00; Fr: 08:00-20:00; Sa: 08:00-16:00,52.5528419,13.4065105
10559,Berlin,Moabit,,Turmstr.,19,csbnan7s8n2s3,csbn2s3n1,Postfiliale,RETAIL_OUTLET,Backshop-Kiosk,4341561,722.0,8,8-4341561,[],[],[],"[{'type': 'Bezeichnung', 'content': 'Berlin 219'}, {'type': 'open_all_day', 'content': 'false'}, {'type': 'nextAction_type', 'content': 'OPENINGHOUR'}, {'type': 'nextAction_day', 'content': 'today'}, {'type': 'nextAction_openUntil', 'content': '18:00'}, {'type': 'tt_timestamp', 'content': '35172443056719344'}]",,Mo: 09:00-18:00; Tu: 09:00-18:00; We: 09:00-18:00; Th: 09:00-18:00; Fr: 09:00-18:00; Sa: 10:00-18:00,52.5264211,13.3487363
12045,Berlin,Neukölln,,Weichselstr.,30,csbnan7s8n2s3,csbn2s3n1,Postfiliale,RETAIL_OUTLET,,4315186,625.0,8,8-4315186,[],[],[],"[{'type': 'Bezeichnung', 'content': 'Berlin 843'}, {'type': 'christmasHintEN', 'content': ' '}, {'type': 'christmasHintDE', 'content': ' '}, {'type': 'open_all_day', 'content': 'false'}, {'type': 'nextAction_type', 'content': 'OPENINGHOUR'}, {'type': 'nextAction_day', 'content': 'today'}, {'type': 'nextAction_openUntil', 'content': '19:00'}, {'type': 'tt_timestamp', 'content': '35172443056719344'}]",,Mo: 09:00-19:00; Tu: 09:00-19:00; We: 09:00-19:00; Th: 09:00-19:00; Fr: 09:00-19:00; Sa: 09:00-19:00,52.487509,13.4374793
10247,Berlin,Friedrichshain,,Samariterstr.,3,csbnan7s8n2s3,csbn2s3n1,Postfiliale,RETAIL_OUTLET,Dein Späti,4324347,550.0,8,8-4324347,[],[],[],"[{'type': 'christmasHintEN', 'content': ' '}, {'type': 'christmasHintDE', 'content': ' '}, {'type': 'Bezeichnung', 'content': 'Berlin 343'}, {'type': 'open_all_day', 'content': 'false'}, {'type': 'nextAction_openUntil', 'content': '13:00'}, {'type': 'nextAction_type', 'content': 'OPENINGHOUR'}, {'type': 'nextAction_day', 'content': 'today'}, {'type': 'nextAction_openFrom', 'content': '14:00'}, {'type': 'tt_timestamp', 'content': '35172443056719344'}]",,Mo: 14:00-24:00; Tu: 14:00-24:00; We: 10:00-13:00; Th: 14:00-24:00; Fr: 10:00-13:00; Sa: 10:00-13:00,52.5154206,13.4649036
13353,Berlin,Wedding,,Burgsdorfstr.,3a,csbnan7s8n2s3,csbn2s3n1,Postfiliale,RETAIL_OUTLET,Drinks House,4287503,415.0,8,8-4287503,[],[],[],"[{'type': 'christmasHintEN', 'content': ' '}, {'type': 'christmasHintDE', 'content': ' '}, {'type': 'Bezeichnung', 'content': 'Berlin 654'}, {'type': 'open_all_day', 'content': 'false'}, {'type': 'nextAction_type', 'content': 'OPENINGHOUR'}, {'type': 'nextAction_day', 'content': 'today'}, {'type': 'nextAction_openUntil', 'content': '23:00'}, {'type': 'tt_timestamp', 'content': '35172443056719344'}]",,Mo: 11:30-23:00; Tu: 11:30-23:00; We: 11:30-23:00; Th: 11:30-23:00; Fr: 11:30-23:00; Sa: 11:30-23:00; Su: 11:30-23:00,52.5426205,13.3621311
13357,Berlin,Gesundbrunnen,,Badstr.,20,csbnan7s8n2s3,csbn2s3n1,Postfiliale,RETAIL_OUTLET,KLC mobile store,4298603,678.0,8,8-4298603,[],[],[],"[{'type': 'christmasHintEN', 'content': ' '}, {'type': 'christmasHintDE', 'content': ' '}, {'type': 'Bezeichnung', 'content': 'Berlin 661'}, {'type': 'open_all_day', 'content': 'false'}, {'type': 'nextAction_type', 'content': 'OPENINGHOUR'}, {'type': 'nextAction_day', 'content': 'today'}, {'type': 'nextAction_openUntil', 'content': '19:00'}, {'type': 'tt_timestamp', 'content': '35172443056719344'}]",,Mo: 10:00-19:00; Tu: 10:00-19:00; We: 10:00-19:00; Th: 10:00-19:00; Fr: 10:00-19:00; Sa: 10:00-16:00,52.5518485,13.3829807
10439,Berlin,Pankow,,Schönhauser Allee,91,csbnan7s8n2s3,csbn2s3n1,Postfiliale,RETAIL_OUTLET,Spätkauf P-Berg Kiosk,4129392,600.0,8,8-4129392,[],[],[],"[{'type': 'christmasHintEN', 'content': ' '}, {'type': 'christmasHintDE', 'content': ' '}, {'type': 'Bezeichnung', 'content': 'Berlin 353'}, {'type': 'open_all_day', 'content': 'false'}, {'type': 'nextAction_type', 'content': 'OPENINGHOUR'}, {'type': 'nextAction_day', 'content': 'today'}, {'type': 'nextAction_openUntil', 'content': '19:00'}, {'type': 'tt_timestamp', 'content': '35172443056719344'}]",,Mo: 10:00-19:00; Tu: 10:00-19:00; We: 10:00-19:00; Th: 10:00-19:00; Fr: 10:00-19:00; Sa: 11:00-18:00,52.5541454,13.4150373
10777,Berlin,Schöneberg,,Maaßenstr.,8,csbnan7s8n2s3,csbn2s3n1,Postfiliale,RETAIL_OUTLET,LOTTO,4329387,596.0,8,8-4329387,[],[],[],"[{'type': 'christmasHintEN', 'content': ' '}, {'type': 'christmasHintDE', 'content': ' '}, {'type': 'Bezeichnung', 'content': 'Berlin 310'}, {'type': 'open_all_day', 'content': 'false'}, {'type': 'nextAction_type', 'content': 'OPENINGHOUR'}, {'type': 'nextAction_day', 'content': 'today'}, {'type': 'nextAction_openUntil', 'content': '20:00'}, {'type': 'tt_timestamp', 'content': '35172443056719344'}]",,Mo: 07:30-20:00; Tu: 07:30-20:00; We: 07:30-20:00; Th: 07:30-20:00; Fr: 07:30-20:00; Sa: 07:30-20:00,52.4979406,13.3539888
12435,Berlin,Alt-Treptow,,Karl-Kunger-Str.,56,csbnan7s8n2s3,csbn2s3n1,Postfiliale,RETAIL_OUTLET,Lotto Tabak Post,4288412,414.0,8,8-4288412,[],[],[],"[{'type': 'christmasHintEN', 'content': ' '}, {'type': 'christmasHintDE', 'content': ' '}, {'type': 'Bezeichnung', 'content': 'Berlin 567'}, {'type': 'open_all_day', 'content': 'false'}, {'type': 'nextAction_type', 'content': 'OPENINGHOUR'}, {'type': 'nextAction_day', 'content': 'today'}, {'type': 'nextAction_openUntil', 'content': '21:00'}, {'type': 'tt_timestamp', 'content': '35172443056719344'}]",,Mo: 06:00-21:00; Tu: 06:00-21:00; We: 06:00-21:00; Th: 06:00-21:00; Fr: 06:00-21:00; Sa: 07:00-21:00,52.4908927,13.4481344
10369,Berlin,Lichtenberg,,Franz-Jacob-Str.,2c,csbnan7s8n2s3,csbn2s3n1,Postfiliale,RETAIL_OUTLET,K kiosk,4320843,515.0,8,8-4320843,[],[],[],"[{'type': 'christmasHintEN', 'content': ' '}, {'type': 'christmasHintDE', 'content': ' '}, {'type': 'Bezeichnung', 'content': 'Berlin-Lichtenberg 5'}, {'type': 'open_all_day', 'content': 'false'}, {'type': 'nextAction_type', 'content': 'OPENINGHOUR'}, {'type': 'nextAction_day', 'content': 'today'}, {'type': 'nextAction_openUntil', 'content': '18:00'}, {'type': 'tt_timestamp', 'content': '35172443056719344'}]",,Mo: 09:00-18:00; Tu: 09:00-18:00; We: 09:00-18:00; Th: 09:00-18:00; Fr: 09:00-18:00; Sa: 09:00-13:00,52.5251582,13.4660296
10965,Berlin,Kreuzberg,,Dudenstr.,76,csbnan7s8n2s3,csbn2s3n1,Postfiliale,RETAIL_OUTLET,Berlin 420,4337364,677.0,8,8-4337364,[],[],[],"[{'type': 'Bezeichnung', 'content': 'Berlin 420'}, {'type': 'open_all_day', 'content': 'false'}, {'type': 'nextAction_type', 'content': 'OPENINGHOUR'}, {'type': 'nextAction_day', 'content': 'today'}, {'type': 'nextAction_openUntil', 'content': '18:00'}, {'type': 'tt_timestamp', 'content': '35172443056719344'}]",,Mo: 10:00-18:00; Tu: 10:00-18:00; We: 10:00-18:00; Th: 10:00-18:00; Fr: 10:00-18:00; Sa: 09:30-14:30,52.4851853,13.3744921
10787,Berlin,Schöneberg,,Kurfürstenstr.,114,csbnan7s8n2s3,csbn2s3n1,Postfiliale,RETAIL_OUTLET,Tabak-Zeitschriften-Lotto,4322596,898.0,8,8-4322596,[],[],[],"[{'type': 'christmasHintEN', 'content': ' '}, {'type': 'christmasHintDE', 'content': ' '}, {'type': 'Bezeichnung', 'content': 'Berlin 606'}, {'type': 'open_all_day', 'content': 'false'}, {'type': 'nextAction_type', 'content': 'OPENINGHOUR'}, {'type': 'nextAction_day', 'content': 'today'}, {'type': 'nextAction_openUntil', 'content': '18:00'}, {'type': 'tt_timestamp', 'content': '35172443056719344'}]",,Mo: 06:00-18:00; Tu: 06:00-18:00; We: 06:00-18:00; Th: 06:00-18:00; Fr: 06:00-18:00; Sa: 07:00-13:00,52.5035436,13.3471349
10245,Berlin,Friedrichshain,,Sonntagstr.,27,csbnan7s8n2s3,csbn2s3n1,Postfiliale,RETAIL_OUTLET,Käpt'n Kiez,4325967,769.0,8,8-4325967,[],[],[],"[{'type': 'christmasHintEN', 'content': ' '}, {'type': 'christmasHintDE', 'content': ' '}, {'type': 'Bezeichnung', 'content': 'Berlin 540'}, {'type': 'open_all_day', 'content': 'false'}, {'type': 'nextAction_type', 'content': 'OPENINGHOUR'}, {'type': 'nextAction_day', 'content': 'today'}, {'type': 'nextAction_openUntil', 'content': '17:00'}, {'type': 'tt_timestamp', 'content': '35172443056719344'}]",,Mo: 09:00-17:00; Tu: 09:00-17:00; We: 09:00-17:00; Th: 09:00-17:00; Fr: 09:00-17:00; Sa: 09:00-17:00,52.5061276,13.4655183
10247,Berlin,Friedrichshain,,Frankfurter Allee,71-77,csbnan7s8n2s3,csbn2s3n1,Postbank Filiale,POSTBANK_FINANCE_CENTER,Postbank Filiale,19330,506.0,8,8-19330,[],[],[],"[{'type': 'christmasHintEN', 'content': ' '}, {'type': 'christmasHintDE', 'content': ' '}, {'type': 'Bezeichnung', 'content': 'Berlin-Frankfurter Allee'}, {'type': 'open_all_day', 'content': 'false'}, {'type': 'nextAction_type', 'content': 'OPENINGHOUR'}, {'type': 'nextAction_day', 'content': 'today'}, {'type': 'nextAction_openUntil', 'content': '18:30'}, {'type': 'tt_timestamp', 'content': '35172443056719344'}]",,Mo: 09:00-18:30; Tu: 09:00-18:30; We: 09:00-18:30; Th: 09:00-18:30; Fr: 09:00-18:30; Sa: 09:30-13:00,52.5145466,13.4687215
13353,Berlin,Wedding,,Müllerstr.,156b,csbnan7s8n2s3,csbn2s3n1,Postbank Filiale,POSTBANK_FINANCE_CENTER,Postbank Filiale,4068447,515.0,8,8-4068447,[],[],[],"[{'type': 'christmasHintEN', 'content': ' '}, {'type': 'christmasHintDE', 'content': ' '}, {'type': 'Bezeichnung', 'content': 'Berlin-Wedding'}, {'type': 'open_all_day', 'content': 'false'}, {'type': 'nextAction_type', 'content': 'OPENINGHOUR'}, {'type': 'nextAction_day', 'content': 'today'}, {'type': 'nextAction_openUntil', 'content': '18:30'}, {'type': 'tt_timestamp', 'content': '35172443056719344'}]",,Mo: 09:00-18:30; Tu: 09:00-18:30; We: 09:00-18:30; Th: 09:00-18:30; Fr: 09:00-18:30; Sa: 09:00-14:00,52.5452536,13.3606625
13086,Berlin,Weißensee,,Streustr.,67,csbnan7s8n2s3,csbn2s3n1,Postfiliale,RETAIL_OUTLET,Kiez-Markt,4326868,542.0,8,8-4326868,[],[],[],"[{'type': 'christmasHintEN', 'content': ' '}, {'type': 'christmasHintDE', 'content': ' '}, {'type': 'Bezeichnung', 'content': 'Berlin-Weißensee 3'}, {'type': 'open_all_day', 'content': 'false'}, {'type': 'nextAction_type', 'content': 'OPENINGHOUR'}, {'type': 'nextAction_day', 'content': 'today'}, {'type': 'nextAction_openUntil', 'content': '19:00'}, {'type': 'tt_timestamp', 'content': '35172443056719344'}]",,Mo: 07:00-19:00; Tu: 07:00-19:00; We: 07:00-19:00; Th: 07:00-19:00; Fr: 07:00-19:00; Sa: 07:00-18:00,52.5527273,13.4332032
10551,Berlin,Moabit,,Stromstr.,11-17,csbnan7s8n2s3,csbn2s3n1,Postfiliale,RETAIL_OUTLET,GECO,4128764,629.0,8,8-4128764,[],[],[],"[{'type': 'christmasHintEN', 'content': ' '}, {'type': 'Bezeichnung', 'content': 'Berlin 218'}, {'type': 'christmasHintDE', 'content': ' '}, {'type': 'open_all_day', 'content': 'false'}, {'type': 'nextAction_type', 'content': 'OPENINGHOUR'}, {'type': 'nextAction_day', 'content': 'today'}, {'type': 'nextAction_openUntil', 'content': '18:00'}, {'type': 'tt_timestamp', 'content': '35172443056719344'}]",,Mo: 10:00-18:00; Tu: 10:00-18:00; We: 10:00-18:00; Th: 10:00-18:00; Fr: 10:00-18:00; Sa: 10:00-18:00,52.5274065,13.3435422
13353,Berlin,Wedding,,Sprengelstr.,13,csbnan7s8n2s3,csbn2s3n1,Postfiliale,RETAIL_OUTLET,Tabakwaren Akgül,4306652,617.0,8,8-4306652,[],[],[],"[{'type': 'christmasHintEN', 'content': ' '}, {'type': 'christmasHintDE', 'content': ' '}, {'type': 'Bezeichnung', 'content': 'Berlin 660'}, {'type': 'open_all_day', 'content': 'false'}, {'type': 'nextAction_type', 'content': 'OPENINGHOUR'}, {'type': 'nextAction_day', 'content': 'today'}, {'type': 'nextAction_openUntil', 'content': '18:00'}, {'type': 'tt_timestamp', 'content': '35172443056719344'}]",,Mo: 08:00-18:00; Tu: 08:00-18:00; We: 08:00-18:00; Th: 08:00-18:00; Fr: 08:00-18:00; Sa: 08:00-16:00,52.5420088,13.3554323
12043,Berlin,Neukölln,,Karl-Marx-Str.,66,csbnan7s8n2s3,csbn2s3n1,Postbank Filiale,POSTBANK_FINANCE_CENTER,Postbank Filiale,4013333,501.0,8,8-4013333,[],[],[],"[{'type': 'christmasHintEN', 'content': ' '}, {'type': 'Bezeichnung', 'content': 'Berlin 44'}, {'type': 'christmasHintDE', 'content': ' '}, {'type': 'open_all_day', 'content': 'false'}, {'type': 'nextAction_type', 'content': 'OPENINGHOUR'}, {'type': 'nextAction_day', 'content': 'today'}, {'type': 'nextAction_openUntil', 'content': '19:00'}, {'type': 'tt_timestamp', 'content': '35172443056719344'}]",,Mo: 10:00-19:00; Tu: 10:00-19:00; We: 10:00-19:00; Th: 10:00-13:00; Fr: 10:00-19:00; Sa: 10:00-16:00,52.4821658,13.4329947
12043,Berlin,Neukölln,,Karl-Marx-Str.,66,csbn7s8n2s3,csbn2s3n1,Poststation,POSTSTATION,Postbank,207,,12,12-207,[],[],[],"[{'type': 'packstn_utilization_fri', 'content': '1'}, {'type': 'packstation_model', 'content': 'PPL01_S'}, {'type': 'capacity', 'content': '27'}, {'type': 'packstn_utilization_sun', 'content': '1'}, {'type': 'packstn_utilization_tue', 'content': '1'}, {'type': 'packstationPrimaryKefPf', 'content': '1-12043713'}, {'type': 'packstation_type', 'content': 'POSTSTATION'}, {'type': 'packstn_utilization_sat', 'content': '1'}, {'type': 'packstn_utilization_thu', 'content': '1'}, {'type': 'packstn_utilization_wed', 'content': '1'}, {'type': 'packstn_utilization_mon', 'content': '1'}, {'type': 'letterBoxPrimaryKefPf', 'content': '6-15370569'}, {'type': 'open_all_day', 'content': 'false'}, {'type': 'poststation_nextAction_day', 'content': 'today'}, {'type': 'poststation_nextAction_openUntil', 'content': '18:45'}, {'type': 'nextAction_type', 'content': 'COLLECTION_TIME'}, {'type': 'nextAction_day', 'content': 'today'}, {'type': 'nextAction_openUntil', 'content': '16:30'}, {'type': 'tt_timestamp', 'content': '35172443056719344'}]",207.0,Not available,52.482039,13.4328191
13347,Berlin,Gesundbrunnen,,Reinickendorfer Str.,48a,csbnan7s8n2s3,csbn2s3n1,Postfiliale,RETAIL_OUTLET,Mo`s Spätkauf,4327669,659.0,8,8-4327669,[],[],[],"[{'type': 'christmasHintEN', 'content': ' '}, {'type': 'christmasHintDE', 'content': ' '}, {'type': 'Bezeichnung', 'content': 'Berlin 650'}, {'type': 'open_all_day', 'content': 'false'}, {'type': 'nextAction_type', 'content': 'OPENINGHOUR'}, {'type': 'nextAction_day', 'content': 'today'}, {'type': 'nextAction_openUntil', 'content': '23:00'}, {'type': 'tt_timestamp', 'content': '35172443056719344'}]",,Mo: 10:00-23:00; Tu: 10:00-23:00; We: 10:00-23:00; Th: 10:00-23:00; Fr: 10:00-23:00; Sa: 10:00-23:00,52.5504624,13.3682927
10559,Berlin,Moabit,,Stephanstr.,41-44,csbnan7s8n2s3,csbn2s3n1,Postfiliale,RETAIL_OUTLET,GECO,4102054,,8,8-4102054,[],[],[],"[{'type': 'Bezeichnung', 'content': 'Berlin 217'}, {'type': 'christmasHintEN', 'content': ' '}, {'type': 'christmasHintDE', 'content': ' '}, {'type': 'open_all_day', 'content': 'false'}, {'type': 'nextAction_type', 'content': 'OPENINGHOUR'}, {'type': 'nextAction_day', 'content': 'today'}, {'type': 'nextAction_openUntil', 'content': '14:00'}, {'type': 'tt_timestamp', 'content': '35172443056719344'}]",,Mo: 08:30-14:00; Tu: 08:30-14:00; We: 08:30-19:30; Th: 08:30-14:00; Fr: 08:30-14:00; Sa: 08:30-19:30,52.5320797,13.3441194
12053,Berlin,Neukölln,,Boddinstr.,48,csbnan7s8n2s3,csbn2s3n1,Postfiliale,RETAIL_OUTLET,dies & das,4335897,513.0,8,8-4335897,[],[],[],"[{'type': 'Bezeichnung', 'content': 'Berlin 441'}, {'type': 'open_all_day', 'content': 'false'}, {'type': 'nextAction_type', 'content': 'OPENINGHOUR'}, {'type': 'nextAction_day', 'content': 'today'}, {'type': 'nextAction_openUntil', 'content': '20:00'}, {'type': 'tt_timestamp', 'content': '35172443056719344'}]",,Mo: 08:00-20:00; Tu: 08:00-20:00; We: 08:00-20:00; Th: 08:00-20:00; Fr: 08:00-20:00; Sa: 08:00-16:00,52.4801574,13.4292887
12435,Berlin,Alt-Treptow,,Martin-Hoffmann-Str.,16,csbnan7s8n2s3,csbn2s3n1,Postfiliale,RETAIL_OUTLET,MUCA Kiosk,4337662,627.0,8,8-4337662,[],[],[],"[{'type': 'Bezeichnung', 'content': 'Berlin 568'}, {'type': 'open_all_day', 'content': 'false'}, {'type': 'nextAction_type', 'content': 'OPENINGHOUR'}, {'type': 'nextAction_day', 'content': 'today'}, {'type': 'nextAction_openUntil', 'content': '19:00'}, {'type': 'tt_timestamp', 'content': '35172443056719344'}]",,Mo: 07:00-19:00; Tu: 07:00-19:00; We: 07:00-19:00; Th: 07:00-19:00; Fr: 07:00-19:00; Sa: 09:00-14:00,52.4945075,13.459708
10827,Berlin,Schöneberg,,Hauptstr.,152,csbnan7s8n2s3,csbn2s3n1,Postfiliale,RETAIL_OUTLET,,4138988,415.0,8,8-4138988,[],[],[],"[{'type': 'christmasHintEN', 'content': ' '}, {'type': 'Bezeichnung', 'content': 'Berlin 625'}, {'type': 'christmasHintDE', 'content': ' '}, {'type': 'open_all_day', 'content': 'false'}, {'type': 'nextAction_type', 'content': 'OPENINGHOUR'}, {'type': 'nextAction_day', 'content': 'today'}, {'type': 'nextAction_openUntil', 'content': '20:00'}, {'type': 'tt_timestamp', 'content': '35172443056719344'}]",,Mo: 07:00-20:00; Tu: 07:00-20:00; We: 07:00-20:00; Th: 07:00-20:00; Fr: 07:00-20:00; Sa: 07:00-20:00,52.4884464,13.3588436
10777,Berlin,,,Motzstr.,34,csbnan7s8n2s3,csbn2s3n1,Postfiliale,RETAIL_OUTLET,Spätkauf Kiosk,4343505,839.0,8,8-4343505,[],[],[],"[{'type': 'Bezeichnung', 'content': 'Berlin 628'}, {'type': 'open_all_day', 'content': 'false'}, {'type': 'nextAction_type', 'content': 'OPENINGHOUR'}, {'type': 'nextAction_day', 'content': 'today'}, {'type': 'nextAction_openUntil', 'content': '23:30'}, {'type': 'tt_timestamp', 'content': '35172443056719344'}]",,Mo: 08:00-23:30; Tu: 08:00-23:30; We: 08:00-23:30; Th: 08:00-23:30; Fr: 08:00-23:30; Sa: 08:30-23:30,52.4974543,13.3467292
13086,Berlin,Weißensee,,Langhansstr.,7,csbnan7s8n2s3,csbn2s3n1,Postfiliale,RETAIL_OUTLET,Der Kiosk,4326270,423.0,8,8-4326270,[],[],[],"[{'type': 'christmasHintEN', 'content': ' '}, {'type': 'christmasHintDE', 'content': ' '}, {'type': 'Bezeichnung', 'content': 'Berlin-Weißensee 4'}, {'type': 'open_all_day', 'content': 'false'}, {'type': 'nextAction_type', 'content': 'OPENINGHOUR'}, {'type': 'nextAction_day', 'content': 'today'}, {'type': 'nextAction_openUntil', 'content': '20:00'}, {'type': 'tt_timestamp', 'content': '35172443056719344'}]",,Mo: 07:00-20:00; Tu: 07:00-20:00; We: 07:00-20:00; Th: 07:00-20:00; Fr: 07:00-20:00; Sa: 10:00-20:00,52.549226,13.4489987
13353,Berlin,Wedding,,Torfstr.,19,csbnan7s8n2s3,csbn2s3n1,Postfiliale,RETAIL_OUTLET,Presse Shop,4297750,674.0,8,8-4297750,[],[],[],"[{'type': 'christmasHintEN', 'content': ' '}, {'type': 'christmasHintDE', 'content': ' '}, {'type': 'Bezeichnung', 'content': 'Berlin 655'}, {'type': 'open_all_day', 'content': 'false'}, {'type': 'nextAction_type', 'content': 'OPENINGHOUR'}, {'type': 'nextAction_day', 'content': 'today'}, {'type': 'nextAction_openUntil', 'content': '20:00'}, {'type': 'tt_timestamp', 'content': '35172443056719344'}]",,Mo: 07:00-20:00; Tu: 07:00-20:00; We: 07:00-20:00; Th: 07:00-20:00; Fr: 07:00-20:00; Sa: 08:00-20:00,52.5413666,13.350146
10369,Berlin,Lichtenberg,,Landsberger Allee,171,csbnan7s8n2s3,csbn2s3n1,Postfiliale,RETAIL_OUTLET,Berliner Shop,4323154,555.0,8,8-4323154,[],[],[],"[{'type': 'christmasHintEN', 'content': ' '}, {'type': 'christmasHintDE', 'content': ' '}, {'type': 'Bezeichnung', 'content': 'Berlin 761'}, {'type': 'open_all_day', 'content': 'false'}, {'type': 'nextAction_type', 'content': 'OPENINGHOUR'}, {'type': 'nextAction_day', 'content': 'today'}, {'type': 'nextAction_openUntil', 'content': '18:00'}, {'type': 'tt_timestamp', 'content': '35172443056719344'}]",,Mo: 09:00-18:00; Tu: 09:00-18:00; We: 09:00-18:00; Th: 09:00-18:00; Fr: 09:00-18:00; Sa: 09:00-12:00,52.5317729,13.4693058
10551,Berlin,Moabit,,Jonasstr.,4,csbnan7s8n2s3,csbn2s3n1,Postfiliale,RETAIL_OUTLET,Kiosk,4312472,599.0,8,8-4312472,[],[],[],"[{'type': 'christmasHintEN', 'content': ' '}, {'type': 'christmasHintDE', 'content': ' '}, {'type': 'Bezeichnung', 'content': 'Berlin 103'}, {'type': 'open_all_day', 'content': 'false'}, {'type': 'nextAction_openUntil', 'content': '14:00'}, {'type': 'nextAction_type', 'content': 'OPENINGHOUR'}, {'type': 'nextAction_day', 'content': 'today'}, {'type': 'nextAction_openFrom', 'content': '14:45'}, {'type': 'tt_timestamp', 'content': '35172443056719344'}]",,Mo: 14:45-22:00; Tu: 09:00-14:00; We: 09:00-14:00; Th: 14:45-22:00; Fr: 09:00-14:00; Sa: 14:45-18:00,52.5272181,13.3394029
12043,Berlin,Neukölln,,Erkstr.,5,csbnan7s8n2s3,csbn2s3n1,Postfiliale,RETAIL_OUTLET,Getränke-Tabakwaren-Zeitschriften,4314016,556.0,8,8-4314016,[],[],[],"[{'type': 'christmasHintEN', 'content': ' '}, {'type': 'christmasHintDE', 'content': ' '}, {'type': 'Bezeichnung', 'content': 'Berlin 841'}, {'type': 'open_all_day', 'content': 'false'}, {'type': 'nextAction_type', 'content': 'OPENINGHOUR'}, {'type': 'nextAction_day', 'content': 'today'}, {'type': 'nextAction_openUntil', 'content': '19:00'}, {'type': 'tt_timestamp', 'content': '35172443056719344'}]",,Mo: 10:00-19:00; Tu: 10:00-19:00; We: 10:00-19:00; Th: 10:00-19:00; Fr: 10:00-19:00; Sa: 10:00-16:00,52.4810075,13.4370457
10247,Berlin,Friedrichshain,,Frankfurter Allee,104,csbnan7s8n2s3,csbn2s3n1,Postfiliale,RETAIL_OUTLET,BERLINMAN,4341745,480.0,8,8-4341745,[],[],[],"[{'type': 'Bezeichnung', 'content': 'Berlin 69'}, {'type': 'open_all_day', 'content': 'false'}, {'type': 'nextAction_type', 'content': 'OPENINGHOUR'}, {'type': 'nextAction_day', 'content': 'today'}, {'type': 'nextAction_openUntil', 'content': '19:00'}, {'type': 'tt_timestamp', 'content': '35172443056719344'}]",,Mo: 08:00-19:00; Tu: 08:00-19:00; We: 08:00-19:00; Th: 08:00-19:00; Fr: 08:00-19:00; Sa: 08:00-16:00,52.5135552,13.473898
12059,Berlin,Neukölln,,Harzer Str.,85,csbnan7s8n2s3,csbn2s3n1,Postfiliale,RETAIL_OUTLET,Troja Spätkauf,4324455,576.0,8,8-4324455,[],[],[],"[{'type': 'Bezeichnung', 'content': 'Berlin 569'}, {'type': 'christmasHintEN', 'content': ' '}, {'type': 'christmasHintDE', 'content': ' '}, {'type': 'open_all_day', 'content': 'false'}, {'type': 'nextAction_type', 'content': 'OPENINGHOUR'}, {'type': 'nextAction_day', 'content': 'today'}, {'type': 'nextAction_openUntil', 'content': '19:00'}, {'type': 'tt_timestamp', 'content': '35172443056719344'}]",,Mo: 09:00-19:00; Tu: 09:00-19:00; We: 09:00-19:00; Th: 09:00-19:00; Fr: 09:00-19:00; Sa: 09:00-15:00,52.485022,13.4492437
10823,Berlin,Schöneberg,,Akazienstr.,15,csbnan7s8n2s3,csbn2s3n1,Postfiliale,RETAIL_OUTLET,The Market,4323108,531.0,8,8-4323108,[],[],[],"[{'type': 'christmasHintEN', 'content': ' '}, {'type': 'christmasHintDE', 'content': ' '}, {'type': 'Bezeichnung', 'content': 'Berlin 629'}, {'type': 'open_all_day', 'content': 'false'}, {'type': 'nextAction_type', 'content': 'OPENINGHOUR'}, {'type': 'nextAction_day', 'content': 'today'}, {'type': 'nextAction_openUntil', 'content': '20:00'}, {'type': 'tt_timestamp', 'content': '35172443056719344'}]",,Mo: 10:00-20:00; Tu: 10:00-20:00; We: 10:00-20:00; Th: 10:00-20:00; Fr: 10:00-20:00; Sa: 10:00-20:00,52.4890721,13.3536202
13189,Berlin,Pankow,,Berliner Str.,47,csbnan7s8n2s3,csbn2s3n1,Postfiliale,RETAIL_OUTLET,Heiko Dreßler,4341492,545.0,8,8-4341492,[],[],[],"[{'type': 'Bezeichnung', 'content': 'Berlin-Pankow 4'}, {'type': 'open_all_day', 'content': 'false'}, {'type': 'nextAction_type', 'content': 'OPENINGHOUR'}, {'type': 'nextAction_day', 'content': 'today'}, {'type': 'nextAction_openUntil', 'content': '18:00'}, {'type': 'tt_timestamp', 'content': '35172443056719344'}]",,Mo: 08:00-18:00; Tu: 08:00-18:00; We: 08:00-18:00; Th: 08:00-18:00; Fr: 08:00-18:00; Sa: 08:00-15:00,52.5600614,13.412762
13359,Berlin,Gesundbrunnen,,Soldiner Str.,84,csbnan7s8n2s3,csbn2s3n1,Postfiliale,RETAIL_OUTLET,Online Telecafe,4114042,566.0,8,8-4114042,[],[],[],"[{'type': 'christmasHintEN', 'content': ' '}, {'type': 'christmasHintDE', 'content': ' '}, {'type': 'Bezeichnung', 'content': 'Berlin 664'}, {'type': 'open_all_day', 'content': 'false'}, {'type': 'nextAction_type', 'content': 'OPENINGHOUR'}, {'type': 'nextAction_day', 'content': 'today'}, {'type': 'nextAction_openUntil', 'content': '18:00'}, {'type': 'tt_timestamp', 'content': '35172443056719344'}]",,Mo: 11:00-18:00; Tu: 11:00-18:00; We: 11:00-18:00; Th: 11:00-18:00; Fr: 11:00-18:00; Sa: 11:00-18:00,52.5586639,13.3860123
10829,Berlin,Schöneberg,,Leberstr.,24,csbnan7s8n2s3,csbn2s3n1,Postfiliale,RETAIL_OUTLET,"LOTTO, Bild, Berliner Morgenpost",4125652,537.0,8,8-4125652,[],[],[],"[{'type': 'Bezeichnung', 'content': 'Berlin 623'}, {'type': 'christmasHintEN', 'content': ' '}, {'type': 'christmasHintDE', 'content': ' '}, {'type': 'open_all_day', 'content': 'false'}, {'type': 'nextAction_type', 'content': 'OPENINGHOUR'}, {'type': 'nextAction_day', 'content': 'today'}, {'type': 'nextAction_openUntil', 'content': '18:00'}, {'type': 'tt_timestamp', 'content': '35172443056719344'}]",,Mo: 06:00-18:00; Tu: 06:00-18:00; We: 06:00-18:00; Th: 06:00-18:00; Fr: 06:00-18:00; Sa: 08:00-13:00,52.4840131,13.3612823
10317,Berlin,Lichtenberg,,Marktstr.,5,csbnan7s8n2s3,csbn2s3n1,Postfiliale,RETAIL_OUTLET,Tabak-Shop im Kaufland,4087852,,8,8-4087852,[],[],[],"[{'type': 'christmasHintEN', 'content': ' '}, {'type': 'christmasHintDE', 'content': ' '}, {'type': 'Bezeichnung', 'content': 'Berlin-Lichtenberg 8'}, {'type': 'open_all_day', 'content': 'false'}, {'type': 'nextAction_type', 'content': 'OPENINGHOUR'}, {'type': 'nextAction_day', 'content': 'today'}, {'type': 'nextAction_openUntil', 'content': '19:45'}, {'type': 'tt_timestamp', 'content': '35172443056719344'}]",,Mo: 08:00-19:45; Tu: 08:00-19:45; We: 08:00-19:45; Th: 08:00-19:45; Fr: 08:00-19:45; Sa: 08:00-19:30,52.5040826,13.4729723
10789,Berlin,Charlottenburg,,Tauentzienstr.,9-12,csbnan7s8n2s3,csbn2s3n1,Postfiliale,RETAIL_OUTLET,k kiosk,4337089,670.0,8,8-4337089,[],[],[],"[{'type': 'Bezeichnung', 'content': 'Berlin 307'}, {'type': 'open_all_day', 'content': 'false'}, {'type': 'nextAction_type', 'content': 'OPENINGHOUR'}, {'type': 'nextAction_day', 'content': 'today'}, {'type': 'nextAction_openUntil', 'content': '20:00'}, {'type': 'tt_timestamp', 'content': '35172443056719344'}]",,Mo: 10:00-20:00; Tu: 10:00-20:00; We: 10:00-20:00; Th: 10:00-20:00; Fr: 10:00-20:00; Sa: 10:00-20:00,52.5041258,13.3376688
10781,Berlin,Schöneberg,,Eisenacher Str.,84,csbnan7s8n2s3,csbn2s3n1,Postfiliale,RETAIL_OUTLET,Schreibwaren-Bürobedarf,4287470,526.0,8,8-4287470,[],[],[],"[{'type': 'Bezeichnung', 'content': 'Berlin 305'}, {'type': 'christmasHintEN', 'content': ' '}, {'type': 'christmasHintDE', 'content': ' '}, {'type': 'open_all_day', 'content': 'false'}, {'type': 'nextAction_type', 'content': 'OPENINGHOUR'}, {'type': 'nextAction_day', 'content': 'today'}, {'type': 'nextAction_openUntil', 'content': '19:00'}, {'type': 'tt_timestamp', 'content': '35172443056719344'}]",,Mo: 08:00-19:00; Tu: 08:00-19:00; We: 08:00-19:00; Th: 08:00-19:00; Fr: 08:00-19:00; Sa: 10:00-17:00,52.4897962,13.3493156
12049,Berlin,Neukölln,,Schillerpromenade,28,csbnan7s8n2s3,csbn2s3n1,Postfiliale,RETAIL_OUTLET,Kiosk & Bäckerei / Kiosk & Internet,4092044,600.0,8,8-4092044,[],[],[],"[{'type': 'Bezeichnung', 'content': 'Berlin 437'}, {'type': 'christmasHintEN', 'content': ' '}, {'type': 'christmasHintDE', 'content': ' '}, {'type': 'open_all_day', 'content': 'false'}, {'type': 'nextAction_type', 'content': 'OPENINGHOUR'}, {'type': 'nextAction_day', 'content': 'today'}, {'type': 'nextAction_openUntil', 'content': '22:00'}, {'type': 'tt_timestamp', 'content': '35172443056719344'}]",,Mo: 07:00-22:00; Tu: 07:00-22:00; We: 07:00-22:00; Th: 07:00-22:00; Fr: 07:00-22:00; Sa: 07:00-22:00,52.4746935,13.4232556
13353,Berlin,Wedding,,Brüsseler Str.,49,csbnan7s8n2s3,csbn2s3n1,Postfiliale,RETAIL_OUTLET,Trinkstelle,4289494,670.0,8,8-4289494,[],[],[],"[{'type': 'Bezeichnung', 'content': 'Berlin 656'}, {'type': 'christmasHintEN', 'content': ' '}, {'type': 'christmasHintDE', 'content': ' '}, {'type': 'open_all_day', 'content': 'false'}, {'type': 'nextAction_type', 'content': 'OPENINGHOUR'}, {'type': 'nextAction_day', 'content': 'today'}, {'type': 'nextAction_openUntil', 'content': '22:00'}, {'type': 'tt_timestamp', 'content': '35172443056719344'}]",,Mo: 11:00-22:00; Tu: 11:00-22:00; We: 11:00-22:00; Th: 11:00-22:00; Fr: 11:00-22:00; Sa: 11:00-22:00,52.5480304,13.3521713
13347,Berlin,Wedding,,Amsterdamer Str.,2,csbnan7s8n2s3,csbn2s3n1,Postfiliale,RETAIL_OUTLET,Göker`s Kiosk,4298456,639.0,8,8-4298456,[],[],[],"[{'type': 'christmasHintEN', 'content': ' '}, {'type': 'christmasHintDE', 'content': ' '}, {'type': 'Bezeichnung', 'content': 'Berlin 651'}, {'type': 'open_all_day', 'content': 'false'}, {'type': 'nextAction_type', 'content': 'OPENINGHOUR'}, {'type': 'nextAction_day', 'content': 'today'}, {'type': 'nextAction_openUntil', 'content': '18:30'}, {'type': 'tt_timestamp', 'content': '35172443056719344'}]",,Mo: 08:00-18:30; Tu: 08:00-18:30; We: 08:00-18:30; Th: 08:00-18:30; Fr: 08:00-18:30; Sa: 09:00-16:30,52.54962,13.3546277
10827,Berlin,Schöneberg,,Hauptstr.,27-29,csbnan7s8n2s3,csbn2s3n1,Postbank Filiale,POSTBANK_FINANCE_CENTER,Postbank Filiale,5330,529.0,8,8-5330,[],[],[],"[{'type': 'christmasHintEN', 'content': ' '}, {'type': 'christmasHintDE', 'content': ' '}, {'type': 'Bezeichnung', 'content': 'Berlin-Schöneberg'}, {'type': 'open_all_day', 'content': 'false'}, {'type': 'nextAction_type', 'content': 'OPENINGHOUR'}, {'type': 'nextAction_day', 'content': 'today'}, {'type': 'nextAction_openUntil', 'content': '18:30'}, {'type': 'tt_timestamp', 'content': '35172443056719344'}]",,Mo: 09:00-18:30; Tu: 09:00-18:30; We: 09:00-18:30; Th: 09:00-18:30; Fr: 09:00-18:30; Sa: 09:00-13:00,52.4855537,13.3546122
10789,Berlin,Wilmersdorf,,Würzburger Str.,2,csbnan7s8n2s3,csbn2s3n1,Postfiliale,RETAIL_OUTLET,Kiosk/Lotto/Post,4315232,862.0,8,8-4315232,[],[],[],"[{'type': 'christmasHintEN', 'content': ' '}, {'type': 'christmasHintDE', 'content': ' '}, {'type': 'Bezeichnung', 'content': 'Berlin 300'}, {'type': 'open_all_day', 'content': 'false'}, {'type': 'nextAction_type', 'content': 'OPENINGHOUR'}, {'type': 'nextAction_day', 'content': 'today'}, {'type': 'nextAction_openUntil', 'content': '23:45'}, {'type': 'tt_timestamp', 'content': '35172443056719344'}]",,Mo: 08:00-23:45; Tu: 08:00-23:45; We: 08:00-23:45; Th: 08:00-23:45; Fr: 08:00-23:45; Sa: 08:00-23:45,52.5004085,13.3374754
10551,Berlin,Moabit,,Emdener Str.,58,csbnan7s8n2s3,csbn2s3n1,Postfiliale,RETAIL_OUTLET,Janas Branche,4310239,427.0,8,8-4310239,[],[],[],"[{'type': 'christmasHintEN', 'content': ' '}, {'type': 'christmasHintDE', 'content': ' '}, {'type': 'Bezeichnung', 'content': 'Berlin 210'}, {'type': 'open_all_day', 'content': 'false'}, {'type': 'nextAction_type', 'content': 'OPENINGHOUR'}, {'type': 'nextAction_day', 'content': 'today'}, {'type': 'nextAction_openUntil', 'content': '20:00'}, {'type': 'tt_timestamp', 'content': '35172443056719344'}]",,Mo: 08:30-20:00; Tu: 08:30-20:00; We: 08:30-20:00; Th: 08:30-20:00; Fr: 08:30-20:00; Sa: 08:30-20:00,52.5275426,13.3332554
12043,Berlin,Neukölln,,Karl-Marx-Str.,137,csbnan7s8n2s3,csbn2s3n1,Postfiliale,RETAIL_OUTLET,Spätkauf44,4141072,596.0,8,8-4141072,[],[],[],"[{'type': 'christmasHintEN', 'content': ' '}, {'type': 'christmasHintDE', 'content': ' '}, {'type': 'Bezeichnung', 'content': 'Berlin 842'}, {'type': 'open_all_day', 'content': 'false'}, {'type': 'nextAction_type', 'content': 'OPENINGHOUR'}, {'type': 'nextAction_day', 'content': 'today'}, {'type': 'nextAction_openUntil', 'content': '22:00'}, {'type': 'tt_timestamp', 'content': '35172443056719344'}]",,Mo: 08:00-22:00; Tu: 08:00-22:00; We: 08:00-22:00; Th: 08:00-22:00; Fr: 08:00-22:00; Sa: 08:00-22:00,52.4772317,13.4390092
13088,Berlin,Weißensee,,Berliner Allee,98,csbnan7s8n2s3,csbn2s3n1,Postfiliale,RETAIL_OUTLET,McPaper,4094980,,8,8-4094980,[],[],[],"[{'type': 'christmasHintEN', 'content': ' '}, {'type': 'christmasHintDE', 'content': ' '}, {'type': 'Bezeichnung', 'content': 'Berlin-Weißensee 6'}, {'type': 'open_all_day', 'content': 'false'}, {'type': 'nextAction_type', 'content': 'OPENINGHOUR'}, {'type': 'nextAction_day', 'content': 'today'}, {'type': 'nextAction_openUntil', 'content': '19:30'}, {'type': 'tt_timestamp', 'content': '35172443056719344'}]",,Mo: 09:00-19:30; Tu: 09:00-19:30; We: 09:00-19:30; Th: 09:00-19:30; Fr: 09:00-19:30; Sa: 09:30-17:00,52.5497546,13.4583724
10623,Berlin,Charlottenburg,,Hardenbergplatz,11,csbnan7s8n2s3,csbn2s3n1,Postfiliale,RETAIL_OUTLET,P & B Press & Books,4304308,574.0,8,8-4304308,[],[],[],"[{'type': 'christmasHintEN', 'content': ' '}, {'type': 'christmasHintDE', 'content': ' '}, {'type': 'Bezeichnung', 'content': 'Berlin 113'}, {'type': 'open_all_day', 'content': 'false'}, {'type': 'nextAction_type', 'content': 'OPENINGHOUR'}, {'type': 'nextAction_day', 'content': 'today'}, {'type': 'nextAction_openUntil', 'content': '21:30'}, {'type': 'tt_timestamp', 'content': '35172443056719344'}]",,Mo: 04:30-21:30; Tu: 04:30-21:30; We: 04:30-21:30; Th: 04:30-21:30; Fr: 04:30-21:30; Sa: 04:30-21:30; Su: 04:30-21:30,52.5069829,13.3329913
13409,Berlin,Gesundbrunnen,,Residenzstr.,85,csbn7s8n2s3,csbn2s3n1,Poststation,POSTSTATION,Kaufland,746,,12,12-746,[],[],[],"[{'type': 'packstn_utilization_fri', 'content': '1'}, {'type': 'packstation_model', 'content': 'PPL01_S'}, {'type': 'letterBoxPrimaryKefPf', 'content': '6-25039787'}, {'type': 'packstn_utilization_sun', 'content': '1'}, {'type': 'packstn_utilization_tue', 'content': '1'}, {'type': 'packstation_type', 'content': 'POSTSTATION'}, {'type': 'packstn_utilization_sat', 'content': '1'}, {'type': 'packstn_utilization_thu', 'content': '1'}, {'type': 'packstationPrimaryKefPf', 'content': '1-13409716'}, {'type': 'packstn_utilization_wed', 'content': '1'}, {'type': 'packstn_utilization_mon', 'content': '1'}, {'type': 'capacity', 'content': '52'}, {'type': 'open_all_day', 'content': 'true'}, {'type': 'poststation_nextAction_day', 'content': 'today'}, {'type': 'poststation_nextAction_openUntil', 'content': '24:00'}, {'type': 'nextAction_type', 'content': 'COLLECTION_TIME'}, {'type': 'nextAction_day', 'content': 'today'}, {'type': 'nextAction_openUntil', 'content': '16:00'}, {'type': 'tt_timestamp', 'content': '35172443056719344'}]",746.0,Not available,52.558674,13.3729041
13409,Berlin,Gesundbrunnen,,Residenzstr.,85-86,csbnan7s8n2s3,csbn2s3n1,Postfiliale,RETAIL_OUTLET,CIGO,4343700,564.0,8,8-4343700,[],[],[],"[{'type': 'Bezeichnung', 'content': 'Berlin 516'}, {'type': 'open_all_day', 'content': 'false'}, {'type': 'nextAction_type', 'content': 'OPENINGHOUR'}, {'type': 'nextAction_day', 'content': 'today'}, {'type': 'nextAction_openUntil', 'content': '19:00'}, {'type': 'tt_timestamp', 'content': '35172443056719344'}]",,Mo: 08:00-19:00; Tu: 08:00-19:00; We: 08:00-19:00; Th: 08:00-19:00; Fr: 08:00-19:00; Sa: 08:00-19:00,52.5590133,13.3729058
10827,Berlin,Schöneberg,,Hauptstr.,130,csbnan7s8n2s3,csbn2s3n1,Postfiliale,RETAIL_OUTLET,Lotto Presse Tabakwaren,4306698,440.0,8,8-4306698,[],[],[],"[{'type': 'christmasHintEN', 'content': ' '}, {'type': 'christmasHintDE', 'content': ' '}, {'type': 'Bezeichnung', 'content': 'Berlin 626'}, {'type': 'open_all_day', 'content': 'false'}, {'type': 'nextAction_type', 'content': 'OPENINGHOUR'}, {'type': 'nextAction_day', 'content': 'today'}, {'type': 'nextAction_openUntil', 'content': '19:00'}, {'type': 'tt_timestamp', 'content': '35172443056719344'}]",,Mo: 08:00-19:00; Tu: 08:00-19:00; We: 11:00-18:00; Th: 10:00-18:00; Fr: 08:00-18:00; Sa: 10:00-18:00,52.4842907,13.3532877
13055,Berlin,Alt-Hohenschönhausen,,Konrad-Wolf-Str.,60,csbnan7s8n2s3,csbn2s3n1,Postfiliale,RETAIL_OUTLET,k kiosk,4341169,540.0,8,8-4341169,[],[],[],"[{'type': 'Bezeichnung', 'content': 'Berlin-Hohenschönhausen 4'}, {'type': 'open_all_day', 'content': 'false'}, {'type': 'nextAction_type', 'content': 'OPENINGHOUR'}, {'type': 'nextAction_day', 'content': 'today'}, {'type': 'nextAction_openUntil', 'content': '18:00'}, {'type': 'tt_timestamp', 'content': '35172443056719344'}]",,Mo: 08:00-18:00; Tu: 08:00-18:00; We: 08:00-18:00; Th: 08:00-18:00; Fr: 08:00-18:00; Sa: 08:00-13:00,52.5363067,13.4749415
13187,Berlin,Pankow,,Mühlenstr.,25,csbnan7s8n2s3,csbn2s3n1,Postfiliale,RETAIL_OUTLET,Späti 25,4339364,640.0,8,8-4339364,[],[],[],"[{'type': 'Bezeichnung', 'content': 'Berlin-Pankow 2'}, {'type': 'open_all_day', 'content': 'false'}, {'type': 'nextAction_type', 'content': 'OPENINGHOUR'}, {'type': 'nextAction_day', 'content': 'today'}, {'type': 'nextAction_openUntil', 'content': '22:00'}, {'type': 'tt_timestamp', 'content': '35172443056719344'}]",,Mo: 10:00-22:00; Tu: 10:00-22:00; We: 10:00-22:00; Th: 10:00-22:00; Fr: 10:00-22:00; Sa: 10:00-22:00; Su: 10:00-19:00,52.5640053,13.4075172
10367,Berlin,Lichtenberg,,Normannenstr.,6,csbnan7s8n2s3,csbn2s3n1,Postfiliale,RETAIL_OUTLET,Kiosk Lebensmittel Nguyen,4320633,628.0,8,8-4320633,[],[],[],"[{'type': 'christmasHintEN', 'content': ' '}, {'type': 'christmasHintDE', 'content': ' '}, {'type': 'Bezeichnung', 'content': 'Berlin-Lichtenberg 2'}, {'type': 'open_all_day', 'content': 'false'}, {'type': 'nextAction_type', 'content': 'OPENINGHOUR'}, {'type': 'nextAction_day', 'content': 'today'}, {'type': 'nextAction_openUntil', 'content': '20:00'}, {'type': 'tt_timestamp', 'content': '35172443056719344'}]",,Mo: 08:00-20:00; Tu: 08:00-20:00; We: 08:00-20:00; Th: 08:00-20:00; Fr: 08:00-20:00; Sa: 09:30-19:00,52.5159599,13.482548
13409,Berlin,Reinickendorf,,Markstr.,20,csbnan7s8n2s3,csbn2s3n1,Postfiliale,RETAIL_OUTLET,Zeitungen-Tabak-Lotto,4126037,440.0,8,8-4126037,[],[],[],"[{'type': 'christmasHintEN', 'content': ' '}, {'type': 'Bezeichnung', 'content': 'Berlin 515'}, {'type': 'christmasHintDE', 'content': ' '}, {'type': 'open_all_day', 'content': 'false'}, {'type': 'nextAction_type', 'content': 'OPENINGHOUR'}, {'type': 'nextAction_day', 'content': 'today'}, {'type': 'nextAction_openUntil', 'content': '18:00'}, {'type': 'tt_timestamp', 'content': '35172443056719344'}]",,Mo: 06:00-18:00; Tu: 06:00-18:00; We: 06:00-18:00; Th: 06:00-18:00; Fr: 06:00-18:00; Sa: 07:00-16:00,52.5582782,13.3656092
13187,Berlin,Pankow,,Brehmestr.,1,csbnan7s8n2s3,csbn2s3n1,Postfiliale,RETAIL_OUTLET,Ali Haliscelik,4075170,559.0,8,8-4075170,[],[],[],"[{'type': 'christmasHintEN', 'content': ' '}, {'type': 'christmasHintDE', 'content': ' '}, {'type': 'Bezeichnung', 'content': 'Berlin-Pankow 3'}, {'type': 'open_all_day', 'content': 'false'}, {'type': 'nextAction_type', 'content': 'OPENINGHOUR'}, {'type': 'nextAction_day', 'content': 'today'}, {'type': 'nextAction_openUntil', 'content': '18:00'}, {'type': 'tt_timestamp', 'content': '35172443056719344'}]",,Mo: 09:00-18:00; Tu: 09:00-18:00; We: 09:00-18:00; Th: 09:00-18:00; Fr: 09:00-18:00; Sa: 10:00-12:00,52.5646362,13.3943603
10367,Berlin,Lichtenberg,,Josef-Orlopp-Str.,22,csbn7s8n2s3,csbn2s3n1,Poststation,POSTSTATION,ALDI Markt,1036,,12,12-1036,[],[],[],"[{'type': 'packstn_utilization_fri', 'content': '1'}, {'type': 'packstation_model', 'content': 'PPL01_S'}, {'type': 'packstn_utilization_sun', 'content': '1'}, {'type': 'packstn_utilization_tue', 'content': '1'}, {'type': 'packstationPrimaryKefPf', 'content': '1-10367719'}, {'type': 'packstation_type', 'content': 'POSTSTATION'}, {'type': 'letterBoxPrimaryKefPf', 'content': '6-25091379'}, {'type': 'packstn_utilization_sat', 'content': '1'}, {'type': 'packstn_utilization_thu', 'content': '1'}, {'type': 'packstn_utilization_wed', 'content': '1'}, {'type': 'packstn_utilization_mon', 'content': '1'}, {'type': 'capacity', 'content': '35'}, {'type': 'open_all_day', 'content': 'true'}, {'type': 'poststation_nextAction_day', 'content': 'today'}, {'type': 'poststation_nextAction_openUntil', 'content': '24:00'}, {'type': 'nextAction_type', 'content': 'COLLECTION_TIME'}, {'type': 'nextAction_day', 'content': 'today'}, {'type': 'nextAction_openUntil', 'content': '16:15'}, {'type': 'tt_timestamp', 'content': '35172443056719344'}]",1036.0,Not available,52.523072,13.4837171
13189,Berlin,Pankow,,Neumannstr.,18,csbnan7s8n2s3,csbn2s3n1,Postfiliale,RETAIL_OUTLET,Kiez Post,4125137,562.0,8,8-4125137,[],[],[],"[{'type': 'Bezeichnung', 'content': 'Berlin 712'}, {'type': 'christmasHintEN', 'content': ' '}, {'type': 'christmasHintDE', 'content': ' '}, {'type': 'open_all_day', 'content': 'false'}, {'type': 'nextAction_openUntil', 'content': '13:00'}, {'type': 'nextAction_type', 'content': 'OPENINGHOUR'}, {'type': 'nextAction_day', 'content': 'today'}, {'type': 'nextAction_openFrom', 'content': '14:00'}, {'type': 'tt_timestamp', 'content': '35172443056719344'}]",,Mo: 14:00-18:30; Tu: 09:30-13:00; We: 14:00-18:30; Th: 14:00-18:30; Fr: 09:30-13:00; Sa: 10:00-13:00,52.564754,13.4213987
12043,Berlin,Neukölln,,Karl-Marx-Str.,181,csbnan7s8n2s3,csbn2s3n1,Postfiliale,RETAIL_OUTLET,Bülent Akkan,4074076,582.0,8,8-4074076,[],[],[],"[{'type': 'christmasHintEN', 'content': ' '}, {'type': 'christmasHintDE', 'content': ' '}, {'type': 'Bezeichnung', 'content': 'Berlin 446'}, {'type': 'open_all_day', 'content': 'false'}, {'type': 'nextAction_type', 'content': 'OPENINGHOUR'}, {'type': 'nextAction_day', 'content': 'today'}, {'type': 'nextAction_openUntil', 'content': '19:00'}, {'type': 'tt_timestamp', 'content': '35172443056719344'}]",,Mo: 06:00-19:00; Tu: 06:00-19:00; We: 06:00-19:00; Th: 06:00-19:00; Fr: 06:00-19:00; Sa: 06:00-19:00,52.4740578,13.4405552
10587,Berlin,Charlottenburg,,Helmholtzstr.,29,csbnan7s8n2s3,csbn2s3n1,Postfiliale,RETAIL_OUTLET,Kiosk,4122491,597.0,8,8-4122491,[],[],[],"[{'type': 'christmasHintEN', 'content': ' '}, {'type': 'christmasHintDE', 'content': ' '}, {'type': 'Bezeichnung', 'content': 'Berlin 126'}, {'type': 'open_all_day', 'content': 'false'}, {'type': 'nextAction_type', 'content': 'OPENINGHOUR'}, {'type': 'nextAction_day', 'content': 'today'}, {'type': 'nextAction_openUntil', 'content': '18:30'}, {'type': 'tt_timestamp', 'content': '35172443056719344'}]",,Mo: 08:30-18:30; Tu: 08:30-18:30; We: 08:30-18:30; Th: 08:30-18:30; Fr: 08:30-18:30; Sa: 10:00-17:30,52.5217517,13.3253748
10719,Berlin,Wilmersdorf,,Schaperstr.,14,csbnan7s8n2s3,csbn2s3n1,Postfiliale,RETAIL_OUTLET,Kiosk Lotto,4136102,564.0,8,8-4136102,[],[],[],"[{'type': 'christmasHintEN', 'content': ' '}, {'type': 'christmasHintDE', 'content': ' '}, {'type': 'Bezeichnung', 'content': 'Berlin 319'}, {'type': 'open_all_day', 'content': 'false'}, {'type': 'nextAction_type', 'content': 'OPENINGHOUR'}, {'type': 'nextAction_day', 'content': 'today'}, {'type': 'nextAction_openUntil', 'content': '19:00'}, {'type': 'tt_timestamp', 'content': '35172443056719344'}]",,Mo: 10:00-19:00; Tu: 10:00-19:00; We: 10:00-19:00; Th: 10:00-19:00; Fr: 10:00-19:00; Sa: 12:00-15:00,52.4996842,13.3303101
13189,Berlin,Pankow,,Stubnitzstr.,32,csbnan7s8n2s3,csbn2s3n1,Postfiliale,RETAIL_OUTLET,KIOSK / Lotto,4303410,558.0,8,8-4303410,[],[],[],"[{'type': 'christmasHintEN', 'content': ' '}, {'type': 'christmasHintDE', 'content': ' '}, {'type': 'Bezeichnung', 'content': 'Berlin-Pankow 5'}, {'type': 'open_all_day', 'content': 'false'}, {'type': 'nextAction_type', 'content': 'OPENINGHOUR'}, {'type': 'nextAction_day', 'content': 'today'}, {'type': 'nextAction_openUntil', 'content': '18:00'}, {'type': 'tt_timestamp', 'content': '35172443056719344'}]",,Mo: 09:00-18:00; Tu: 09:00-18:00; We: 09:00-18:00; Th: 09:00-18:00; Fr: 09:00-18:00; Sa: 10:00-14:00,52.5667241,13.4153625
10827,Berlin,Schöneberg,,Dominicusstr.,52,csbnan7s8n2s3,csbn2s3n1,Postfiliale,RETAIL_OUTLET,Late Shop Zwei.Null,4323109,556.0,8,8-4323109,[],[],[],"[{'type': 'christmasHintEN', 'content': ' '}, {'type': 'christmasHintDE', 'content': ' '}, {'type': 'Bezeichnung', 'content': 'Berlin 627'}, {'type': 'open_all_day', 'content': 'false'}, {'type': 'nextAction_type', 'content': 'OPENINGHOUR'}, {'type': 'nextAction_day', 'content': 'today'}, {'type': 'nextAction_openUntil', 'content': '23:00'}, {'type': 'tt_timestamp', 'content': '35172443056719344'}]",,Mo: 08:00-23:00; Tu: 08:00-23:00; We: 08:00-23:00; Th: 08:00-23:00; Fr: 08:00-23:00; Sa: 10:00-23:00,52.4801563,13.3515935
10779,Berlin,Wilmersdorf,,Prager Platz,1-3,csbnan7s8n2s3,csbn2s3n1,Postfiliale,RETAIL_OUTLET,,4136015,577.0,8,8-4136015,[],[],[],"[{'type': 'christmasHintEN', 'content': ' '}, {'type': 'christmasHintDE', 'content': ' '}, {'type': 'Bezeichnung', 'content': 'Berlin 104'}, {'type': 'open_all_day', 'content': 'false'}, {'type': 'nextAction_type', 'content': 'OPENINGHOUR'}, {'type': 'nextAction_day', 'content': 'today'}, {'type': 'nextAction_openUntil', 'content': '17:30'}, {'type': 'tt_timestamp', 'content': '35172443056719344'}]",,Mo: 07:00-17:30; Tu: 07:00-17:30; We: 07:00-17:30; Th: 07:00-17:30; Fr: 07:00-17:30; Sa: 07:00-14:00,52.493534,13.3327773
10623,Berlin,Charlottenburg,,Uhlandstr.,20-25,csbnan7s8n2s3,csbn2s3n1,Postfiliale,RETAIL_OUTLET,The Kiosk Berlin,4294164,523.0,8,8-4294164,[],[],[],"[{'type': 'christmasHintEN', 'content': ' '}, {'type': 'christmasHintDE', 'content': ' '}, {'type': 'Bezeichnung', 'content': 'Berlin 116'}, {'type': 'open_all_day', 'content': 'false'}, {'type': 'nextAction_type', 'content': 'OPENINGHOUR'}, {'type': 'nextAction_day', 'content': 'today'}, {'type': 'nextAction_openUntil', 'content': '21:00'}, {'type': 'tt_timestamp', 'content': '35172443056719344'}]",,Mo: 08:00-21:00; Tu: 08:00-21:00; We: 08:00-21:00; Th: 08:00-21:00; Fr: 08:00-21:00; Sa: 10:00-18:00,52.5040255,13.3253855
13349,Berlin,Wedding,,Müllerstr.,123,csbnan7s8n2s3,csbn2s3n1,Postfiliale,RETAIL_OUTLET,Lotto / Presse / Tabak,4308188,574.0,8,8-4308188,[],[],[],"[{'type': 'christmasHintEN', 'content': ' '}, {'type': 'christmasHintDE', 'content': ' '}, {'type': 'Bezeichnung', 'content': 'Berlin 659'}, {'type': 'open_all_day', 'content': 'false'}, {'type': 'nextAction_type', 'content': 'OPENINGHOUR'}, {'type': 'nextAction_day', 'content': 'today'}, {'type': 'nextAction_openUntil', 'content': '17:30'}, {'type': 'tt_timestamp', 'content': '35172443056719344'}]",,Mo: 07:30-17:30; Tu: 07:30-17:30; We: 07:30-17:30; Th: 07:30-17:30; Fr: 07:30-17:30; Sa: 07:30-14:30,52.5534232,13.346243
13187,Berlin,Pankow,,Wollankstr.,2,csbnan7s8n2s3,csbn2s3n1,Postfiliale,RETAIL_OUTLET,Minimarkt Wollank,4306751,444.0,8,8-4306751,[],[],[],"[{'type': 'christmasHintEN', 'content': ' '}, {'type': 'christmasHintDE', 'content': ' '}, {'type': 'Bezeichnung', 'content': 'Berlin-Pankow 6'}, {'type': 'open_all_day', 'content': 'false'}, {'type': 'nextAction_type', 'content': 'OPENINGHOUR'}, {'type': 'nextAction_day', 'content': 'today'}, {'type': 'nextAction_openUntil', 'content': '22:00'}, {'type': 'tt_timestamp', 'content': '35172443056719344'}]",,Mo: 08:00-22:00; Tu: 08:00-22:00; We: 08:00-22:00; Th: 08:00-22:00; Fr: 08:00-22:00; Sa: 08:00-22:00,52.568777,13.3995457
10825,Berlin,Schöneberg,,Wartburgstr.,25,csbnan7s8n2s3,csbn2s3n1,Postfiliale,RETAIL_OUTLET,Uni-Shop,4338077,571.0,8,8-4338077,[],[],[],"[{'type': 'Bezeichnung', 'content': 'Berlin 624'}, {'type': 'open_all_day', 'content': 'false'}, {'type': 'nextAction_type', 'content': 'OPENINGHOUR'}, {'type': 'nextAction_day', 'content': 'today'}, {'type': 'nextAction_openUntil', 'content': '18:00'}, {'type': 'tt_timestamp', 'content': '35172443056719344'}]",,Mo: 07:00-18:00; Tu: 07:00-18:00; We: 07:00-18:00; Th: 07:00-18:00; Fr: 07:00-18:00; Sa: 07:00-18:00,52.486111,13.339012
13055,Berlin,Alt-Hohenschönhausen,,Landsberger Allee,217,csbnan7s8n2s3,csbn2s3n1,Postfiliale,RETAIL_OUTLET,Lotto Shop 217,4140694,593.0,8,8-4140694,[],[],[],"[{'type': 'christmasHintEN', 'content': ' '}, {'type': 'christmasHintDE', 'content': ' '}, {'type': 'Bezeichnung', 'content': 'Berlin-Hohenschönhausen 10'}, {'type': 'open_all_day', 'content': 'false'}, {'type': 'nextAction_type', 'content': 'OPENINGHOUR'}, {'type': 'nextAction_day', 'content': 'today'}, {'type': 'nextAction_openUntil', 'content': '18:00'}, {'type': 'tt_timestamp', 'content': '35172443056719344'}]",,Mo: 07:00-18:00; Tu: 07:00-18:00; We: 07:00-18:00; Th: 07:00-18:00; Fr: 07:00-18:00; Sa: 08:00-13:00,52.5341511,13.4862957
12051,Berlin,Neukölln,,Hermannstr.,111,csbnan7s8n2s3,csbn2s3n1,Postfiliale,RETAIL_OUTLET,Telehof,4078321,585.0,8,8-4078321,[],[],[],"[{'type': 'christmasHintEN', 'content': ' '}, {'type': 'christmasHintDE', 'content': ' '}, {'type': 'Bezeichnung', 'content': 'Berlin 443'}, {'type': 'open_all_day', 'content': 'false'}, {'type': 'nextAction_type', 'content': 'OPENINGHOUR'}, {'type': 'nextAction_day', 'content': 'today'}, {'type': 'nextAction_openUntil', 'content': '18:00'}, {'type': 'tt_timestamp', 'content': '35172443056719344'}]",,Mo: 09:00-18:00; Tu: 09:00-18:00; We: 09:00-18:00; Th: 09:00-18:00; Fr: 09:00-18:00; Sa: 09:30-13:00,52.467861,13.4308904
12059,Berlin,Neukölln,,Sonnenallee,208,csbnan7s8n2s3,csbn2s3n1,Postfiliale,RETAIL_OUTLET,Star-Kiosk,4343213,601.0,8,8-4343213,[],[],[],"[{'type': 'Bezeichnung', 'content': 'Berlin 438'}, {'type': 'open_all_day', 'content': 'false'}, {'type': 'nextAction_type', 'content': 'OPENINGHOUR'}, {'type': 'nextAction_day', 'content': 'today'}, {'type': 'nextAction_openUntil', 'content': '23:00'}, {'type': 'tt_timestamp', 'content': '35172443056719344'}]",,Mo: 08:00-23:00; Tu: 08:00-23:00; We: 08:00-23:00; Th: 08:00-23:00; Fr: 08:00-23:00; Sa: 08:00-23:00,52.4745898,13.453952
13187,Berlin,Pankow,,Breite Str.,20,csbnan7s8n2s3,csbn2s3n1,Postbank Filiale,POSTBANK_FINANCE_CENTER,Postbank Filiale,4125410,514.0,8,8-4125410,[],[],[],"[{'type': 'christmasHintEN', 'content': ' '}, {'type': 'Bezeichnung', 'content': 'Berlin-Pankow'}, {'type': 'christmasHintDE', 'content': ' '}, {'type': 'open_all_day', 'content': 'false'}, {'type': 'nextAction_type', 'content': 'OPENINGHOUR'}, {'type': 'nextAction_day', 'content': 'today'}, {'type': 'nextAction_openUntil', 'content': '18:30'}, {'type': 'tt_timestamp', 'content': '35172443056719344'}]",,Mo: 09:30-18:30; Tu: 09:30-18:30; We: 09:30-18:30; Th: 09:30-18:30; Fr: 09:30-18:30; Sa: 09:30-14:00,52.5698551,13.4040653
13187,Berlin,Pankow,,Breite Str.,20,csbn7s8n2s3,csbn2s3n1,Poststation,POSTSTATION,24h-Bereich ,265,,12,12-265,[],[],[],"[{'type': 'packstn_utilization_fri', 'content': '1'}, {'type': 'packstation_model', 'content': 'PPL01_S'}, {'type': 'packstn_utilization_tue', 'content': '2'}, {'type': 'packstn_utilization_mon', 'content': '2'}, {'type': 'packstn_utilization_sun', 'content': '1'}, {'type': 'packstation_type', 'content': 'POSTSTATION'}, {'type': 'packstn_utilization_sat', 'content': '1'}, {'type': 'packstn_utilization_wed', 'content': '2'}, {'type': 'packstn_utilization_thu', 'content': '1'}, {'type': 'capacity', 'content': '69'}, {'type': 'packstationPrimaryKefPf', 'content': '1-13187706'}, {'type': 'letterBoxPrimaryKefPf', 'content': '6-15370532'}, {'type': 'open_all_day', 'content': 'false'}, {'type': 'poststation_nextAction_day', 'content': 'today'}, {'type': 'poststation_nextAction_openUntil', 'content': '22:00'}, {'type': 'nextAction_type', 'content': 'COLLECTION_TIME'}, {'type': 'nextAction_day', 'content': 'today'}, {'type': 'nextAction_openUntil', 'content': '16:00'}, {'type': 'tt_timestamp', 'content': '35172443056719344'}]",265.0,Not available,52.569988,13.4047471
10585,Berlin,Charlottenburg,,Otto-Suhr-Allee,6-16,csbnan7s8n2s3,csbn2s3n1,Postbank Filiale,POSTBANK_FINANCE_CENTER,Postbank Filiale,4319312,521.0,8,8-4319312,[],[],[],"[{'type': 'christmasHintEN', 'content': ' '}, {'type': 'christmasHintDE', 'content': ' '}, {'type': 'Bezeichnung', 'content': 'Berlin 10'}, {'type': 'open_all_day', 'content': 'false'}, {'type': 'nextAction_type', 'content': 'OPENINGHOUR'}, {'type': 'nextAction_day', 'content': 'today'}, {'type': 'nextAction_openUntil', 'content': '18:30'}, {'type': 'tt_timestamp', 'content': '35172443056719344'}]",,Mo: 09:00-18:30; Tu: 09:00-18:30; We: 09:00-18:30; Th: 09:00-18:30; Fr: 09:00-18:30; Sa: 09:00-13:00,52.5140939,13.3195819
13409,Berlin,Reinickendorf,,Provinzstr.,93,csbnan7s8n2s3,csbn2s3n1,Postfiliale,RETAIL_OUTLET,Lotto-Toto,4088246,537.0,8,8-4088246,[],[],[],"[{'type': 'christmasHintEN', 'content': ' '}, {'type': 'christmasHintDE', 'content': ' '}, {'type': 'Bezeichnung', 'content': 'Berlin 522'}, {'type': 'open_all_day', 'content': 'false'}, {'type': 'nextAction_type', 'content': 'OPENINGHOUR'}, {'type': 'nextAction_day', 'content': 'today'}, {'type': 'nextAction_openUntil', 'content': '18:00'}, {'type': 'tt_timestamp', 'content': '35172443056739088'}]",,Mo: 07:00-18:00; Tu: 07:00-18:00; We: 07:00-18:00; Th: 07:00-18:00; Fr: 07:00-18:00; Sa: 08:00-14:00,52.5677485,13.3787628
12099,Berlin,Tempelhof,,Germaniastr.,2,csbnan7s8n2s3,csbn2s3n1,Postfiliale,RETAIL_OUTLET,GERMANIA-SHOP ,4294306,562.0,8,8-4294306,[],[],[],"[{'type': 'christmasHintEN', 'content': ' '}, {'type': 'christmasHintDE', 'content': ' '}, {'type': 'Bezeichnung', 'content': 'Berlin 422'}, {'type': 'open_all_day', 'content': 'false'}, {'type': 'nextAction_type', 'content': 'OPENINGHOUR'}, {'type': 'nextAction_day', 'content': 'today'}, {'type': 'nextAction_openUntil', 'content': '19:00'}, {'type': 'tt_timestamp', 'content': '35172443056739088'}]",,Mo: 06:00-19:00; Tu: 06:00-19:00; We: 06:00-19:00; Th: 06:00-19:00; Fr: 06:00-19:00; Sa: 07:00-15:00,52.4655747,13.3900142
12103,Berlin,Tempelhof,,Schöneberger Str.,7,csbnan7s8n2s3,csbn2s3n1,Postfiliale,RETAIL_OUTLET,Tabak und Lotto,4330364,779.0,8,8-4330364,[],[],[],"[{'type': 'christmasHintEN', 'content': ' '}, {'type': 'christmasHintDE', 'content': ' '}, {'type': 'Bezeichnung', 'content': 'Berlin 183'}, {'type': 'open_all_day', 'content': 'false'}, {'type': 'nextAction_type', 'content': 'OPENINGHOUR'}, {'type': 'nextAction_day', 'content': 'today'}, {'type': 'nextAction_openUntil', 'content': '18:45'}, {'type': 'tt_timestamp', 'content': '35172443056739088'}]",,Mo: 08:00-18:45; Tu: 08:00-18:45; We: 08:00-18:45; Th: 08:00-18:45; Fr: 08:00-18:45; Sa: 08:00-18:45,52.4676051,13.3770703
10625,Berlin,Charlottenburg,,Schillerstr.,10,csbnan7s8n2s3,csbn2s3n1,Postfiliale,RETAIL_OUTLET,EMRE,4080491,561.0,8,8-4080491,[],[],[],"[{'type': 'Bezeichnung', 'content': 'Berlin 128'}, {'type': 'christmasHintEN', 'content': ' '}, {'type': 'christmasHintDE', 'content': ' '}, {'type': 'open_all_day', 'content': 'false'}, {'type': 'nextAction_type', 'content': 'OPENINGHOUR'}, {'type': 'nextAction_day', 'content': 'today'}, {'type': 'nextAction_openUntil', 'content': '18:00'}, {'type': 'tt_timestamp', 'content': '35172443056739088'}]",,Mo: 06:30-18:00; Tu: 06:30-18:00; We: 06:30-18:00; Th: 06:30-18:00; Fr: 06:30-18:00; Sa: 08:00-13:00,52.511078,13.3186598
13086,Berlin,Weißensee,,Rennbahnstr.,24,csbnan7s8n2s3,csbn2s3n1,Postfiliale,RETAIL_OUTLET,Rennbahn Späti 24,4318788,703.0,8,8-4318788,[],[],[],"[{'type': 'christmasHintEN', 'content': ' '}, {'type': 'christmasHintDE', 'content': ' '}, {'type': 'Bezeichnung', 'content': 'Berlin-Weißensee 8'}, {'type': 'open_all_day', 'content': 'false'}, {'type': 'nextAction_type', 'content': 'OPENINGHOUR'}, {'type': 'nextAction_day', 'content': 'today'}, {'type': 'nextAction_openUntil', 'content': '23:00'}, {'type': 'tt_timestamp', 'content': '35172443056739088'}]",,Mo: 08:00-23:00; Tu: 08:00-23:00; We: 08:00-23:00; Th: 08:00-23:00; Fr: 08:00-23:00; Sa: 09:00-23:00; Su: 12:00-20:00,52.5604853,13.4587388
10719,Berlin,Wilmersdorf,,Uhlandstr.,50,csbnan7s8n2s3,csbn2s3n1,Postfiliale,RETAIL_OUTLET,U-Land,4343699,576.0,8,8-4343699,[],[],[],"[{'type': 'Bezeichnung', 'content': 'Berlin 158'}, {'type': 'open_all_day', 'content': 'false'}, {'type': 'nextAction_type', 'content': 'OPENINGHOUR'}, {'type': 'nextAction_day', 'content': 'today'}, {'type': 'nextAction_openUntil', 'content': '20:00'}, {'type': 'tt_timestamp', 'content': '35172443056739088'}]",,Mo: 08:00-20:00; Tu: 08:00-20:00; We: 08:00-20:00; Th: 08:00-20:00; Fr: 08:00-20:00; Sa: 08:00-20:00,52.4966395,13.3238897
12055,Berlin,Neukölln,,Karl-Marx-Str.,231,csbnan7s8n2s3,csbn2s3n1,Postfiliale,RETAIL_OUTLET,Lotto TaBak,4339649,558.0,8,8-4339649,[],[],[],"[{'type': 'Bezeichnung', 'content': 'Berlin 449'}, {'type': 'open_all_day', 'content': 'false'}, {'type': 'nextAction_type', 'content': 'OPENINGHOUR'}, {'type': 'nextAction_day', 'content': 'today'}, {'type': 'nextAction_openUntil', 'content': '20:00'}, {'type': 'tt_timestamp', 'content': '35172443056739088'}]",,Mo: 09:00-20:00; Tu: 09:00-20:00; We: 09:00-20:00; Th: 09:00-20:00; Fr: 09:00-20:00; Sa: 09:00-20:00,52.4686296,13.4426683
10317,Berlin,Lichtenberg,,Leopoldstr.,22,csbnan7s8n2s3,csbn2s3n1,Postfiliale,RETAIL_OUTLET,Postshop Lichtenberg,4324518,511.0,8,8-4324518,[],[],[],"[{'type': 'christmasHintEN', 'content': ' '}, {'type': 'christmasHintDE', 'content': ' '}, {'type': 'Bezeichnung', 'content': 'Berlin-Lichtenberg 4'}, {'type': 'open_all_day', 'content': 'false'}, {'type': 'nextAction_type', 'content': 'OPENINGHOUR'}, {'type': 'nextAction_day', 'content': 'today'}, {'type': 'nextAction_openUntil', 'content': '18:00'}, {'type': 'tt_timestamp', 'content': '35172443056739088'}]",,Mo: 08:30-18:00; Tu: 08:30-18:00; We: 08:30-18:00; Th: 08:30-18:00; Fr: 08:30-18:00; Sa: 08:30-13:00,52.5026508,13.4909242
13349,Berlin,Wedding,,Müllerstr.,113,csbnan7s8n2s3,csbn2s3n1,Postfiliale,RETAIL_OUTLET,Lotto/Tabak/Presse,4113366,554.0,8,8-4113366,[],[],[],"[{'type': 'christmasHintEN', 'content': ' '}, {'type': 'christmasHintDE', 'content': ' '}, {'type': 'Bezeichnung', 'content': 'Berlin 653'}, {'type': 'open_all_day', 'content': 'false'}, {'type': 'nextAction_type', 'content': 'OPENINGHOUR'}, {'type': 'nextAction_day', 'content': 'today'}, {'type': 'nextAction_openUntil', 'content': '19:00'}, {'type': 'tt_timestamp', 'content': '35172443056739088'}]",,Mo: 07:00-19:00; Tu: 07:00-19:00; We: 07:00-19:00; Th: 07:00-19:00; Fr: 07:00-19:00; Sa: 07:30-19:00,52.5558066,13.3422062
13089,Berlin,Heinersdorf,,Romain-Rolland-Str.,66,csbnan7s8n2s3,csbn2s3n1,Postfiliale,RETAIL_OUTLET,Mario Heine Online Shop/Ecke Blanke,4315011,484.0,8,8-4315011,[],[],[],"[{'type': 'Bezeichnung', 'content': 'Berlin-Pankow-Heinersdorf'}, {'type': 'christmasHintEN', 'content': ' '}, {'type': 'christmasHintDE', 'content': ' '}, {'type': 'open_all_day', 'content': 'false'}, {'type': 'nextAction_type', 'content': 'OPENINGHOUR'}, {'type': 'nextAction_day', 'content': 'today'}, {'type': 'nextAction_openUntil', 'content': '18:00'}, {'type': 'tt_timestamp', 'content': '35172443056739088'}]",,Mo: 09:00-18:00; Tu: 09:00-18:00; We: 09:00-18:00; Th: 09:00-18:00; Fr: 09:00-18:00; Sa: 09:00-13:00,52.5681939,13.4397198
12103,Berlin,Tempelhof,,Manteuffelstr.,4,csbnan7s8n2s3,csbn2s3n1,Postfiliale,RETAIL_OUTLET,Spätkauf Gumma,4319272,607.0,8,8-4319272,[],[],[],"[{'type': 'christmasHintEN', 'content': ' '}, {'type': 'Bezeichnung', 'content': 'Berlin 180'}, {'type': 'christmasHintDE', 'content': ' '}, {'type': 'open_all_day', 'content': 'false'}, {'type': 'nextAction_type', 'content': 'OPENINGHOUR'}, {'type': 'nextAction_day', 'content': 'today'}, {'type': 'nextAction_openUntil', 'content': '22:00'}, {'type': 'tt_timestamp', 'content': '35172443056739088'}]",,Mo: 09:00-22:00; Tu: 09:00-22:00; We: 09:00-22:00; Th: 09:00-22:00; Fr: 09:00-22:00; Sa: 09:00-22:00,52.4656573,13.3774806
10717,Berlin,Wilmersdorf,,Uhlandstr.,136,csbnan7s8n2s3,csbn2s3n1,Postfiliale,RETAIL_OUTLET,LOTTO,4120056,546.0,8,8-4120056,[],[],[],"[{'type': 'christmasHintEN', 'content': ' '}, {'type': 'christmasHintDE', 'content': ' '}, {'type': 'Bezeichnung', 'content': 'Berlin 155'}, {'type': 'open_all_day', 'content': 'false'}, {'type': 'nextAction_type', 'content': 'OPENINGHOUR'}, {'type': 'nextAction_day', 'content': 'today'}, {'type': 'nextAction_openUntil', 'content': '19:00'}, {'type': 'tt_timestamp', 'content': '35172443056739088'}]",,Mo: 07:00-19:00; Tu: 07:00-19:00; We: 07:00-19:00; Th: 07:00-19:00; Fr: 07:00-19:00; Sa: 07:00-19:00,52.4930861,13.323614
12159,Berlin,Friedenau,,Hauptstr.,68,csbnan7s8n2s3,csbn2s3n1,Postfiliale,RETAIL_OUTLET,Presse Tabak Schreibwaren,4094895,590.0,8,8-4094895,[],[],[],"[{'type': 'christmasHintEN', 'content': ' '}, {'type': 'christmasHintDE', 'content': ' '}, {'type': 'Bezeichnung', 'content': 'Berlin 408'}, {'type': 'open_all_day', 'content': 'false'}, {'type': 'nextAction_type', 'content': 'OPENINGHOUR'}, {'type': 'nextAction_day', 'content': 'today'}, {'type': 'nextAction_openUntil', 'content': '19:00'}, {'type': 'tt_timestamp', 'content': '35172443056739088'}]",,Mo: 08:00-19:00; Tu: 08:00-19:00; We: 08:00-19:00; Th: 08:00-19:00; Fr: 08:00-19:00; Sa: 08:00-13:00,52.4762662,13.3408147
12099,Berlin,Tempelhof,,Tempelhofer Damm,171-173,csbnan7s8n2s3,csbn2s3n1,Postbank Filiale,POSTBANK_FINANCE_CENTER,Postbank Filiale,9530,502.0,8,8-9530,[],[],[],"[{'type': 'christmasHintEN', 'content': ' '}, {'type': 'christmasHintDE', 'content': ' '}, {'type': 'Bezeichnung', 'content': 'Berlin 42'}, {'type': 'open_all_day', 'content': 'false'}, {'type': 'nextAction_type', 'content': 'OPENINGHOUR'}, {'type': 'nextAction_day', 'content': 'today'}, {'type': 'nextAction_openUntil', 'content': '18:30'}, {'type': 'tt_timestamp', 'content': '35172443056739088'}]",,Mo: 09:00-18:30; Tu: 09:00-18:30; We: 09:00-18:30; Th: 14:00-18:30; Fr: 09:00-18:30; Sa: 09:00-13:00,52.4617922,13.385599
13055,Berlin,Alt-Hohenschönhausen,,Landsberger Allee,277,csbnan7s8n2s3,csbn2s3n1,Postfiliale,RETAIL_OUTLET,Michael Friese,4076508,,8,8-4076508,[],[],[],"[{'type': 'Bezeichnung', 'content': 'Berlin-Hohenschönhausen 7'}, {'type': 'christmasHintEN', 'content': ' '}, {'type': 'christmasHintDE', 'content': ' '}, {'type': 'open_all_day', 'content': 'false'}, {'type': 'nextAction_type', 'content': 'OPENINGHOUR'}, {'type': 'nextAction_day', 'content': 'today'}, {'type': 'nextAction_openUntil', 'content': '19:30'}, {'type': 'tt_timestamp', 'content': '35172443056739088'}]",,Mo: 07:00-19:30; Tu: 07:00-19:30; We: 07:00-19:30; Th: 07:00-19:30; Fr: 07:00-19:30; Sa: 07:00-18:00,52.5347152,13.4959353
13409,Berlin,Reinickendorf,,Residenzstr.,28,csbnan7s8n2s3,csbn2s3n1,Postfiliale,RETAIL_OUTLET,Handy Shop Spätkauf,4337771,429.0,8,8-4337771,[],[],[],"[{'type': 'Bezeichnung', 'content': 'Berlin 52'}, {'type': 'open_all_day', 'content': 'false'}, {'type': 'nextAction_type', 'content': 'OPENINGHOUR'}, {'type': 'nextAction_day', 'content': 'today'}, {'type': 'nextAction_openUntil', 'content': '21:00'}, {'type': 'tt_timestamp', 'content': '35172443056739088'}]",,Mo: 08:00-21:00; Tu: 08:00-21:00; We: 08:00-21:00; Th: 08:00-21:00; Fr: 08:00-21:00; Sa: 08:00-21:00,52.5687492,13.3613966
10717,Berlin,Wilmersdorf,,Uhlandstr.,82,csbnan7s8n2s3,csbn2s3n1,Postfiliale,RETAIL_OUTLET,Builder Travel GmbH,4321216,901.0,8,8-4321216,[],[],[],"[{'type': 'christmasHintEN', 'content': ' '}, {'type': 'christmasHintDE', 'content': ' '}, {'type': 'Bezeichnung', 'content': 'Berlin 156'}, {'type': 'open_all_day', 'content': 'false'}, {'type': 'nextAction_type', 'content': 'OPENINGHOUR'}, {'type': 'nextAction_day', 'content': 'today'}, {'type': 'nextAction_openUntil', 'content': '18:00'}, {'type': 'tt_timestamp', 'content': '35172443056739088'}]",,Mo: 09:00-18:00; Tu: 09:00-18:00; We: 09:00-18:00; Th: 09:00-18:00; Fr: 09:00-13:00; Sa: 11:00-13:00,52.489626,13.3226216
13088,Berlin,,,Berliner Allee,261-269,csbnan7s8n2s3,csbn2s3n1,Postfiliale,RETAIL_OUTLET,Lotto Tabak Post,4303836,532.0,8,8-4303836,[],[],[],"[{'type': 'christmasHintEN', 'content': ' '}, {'type': 'christmasHintDE', 'content': ' '}, {'type': 'Bezeichnung', 'content': 'Berlin-Weißensee 5'}, {'type': 'open_all_day', 'content': 'false'}, {'type': 'nextAction_type', 'content': 'OPENINGHOUR'}, {'type': 'nextAction_day', 'content': 'today'}, {'type': 'nextAction_openUntil', 'content': '18:30'}, {'type': 'tt_timestamp', 'content': '35172443056739088'}]",,Mo: 08:00-18:30; Tu: 08:00-18:30; We: 08:00-18:30; Th: 08:00-18:30; Fr: 08:00-18:30; Sa: 08:00-13:45,52.5614079,13.4676251
10317,Berlin,Lichtenberg,,Irenenstr.,22,csbnan7s8n2s3,csbn2s3n1,Postfiliale,RETAIL_OUTLET,ON-ER GmbH,4296896,413.0,8,8-4296896,[],[],[],"[{'type': 'christmasHintEN', 'content': ' '}, {'type': 'christmasHintDE', 'content': ' '}, {'type': 'Bezeichnung', 'content': 'Berlin-Lichtenberg 3'}, {'type': 'open_all_day', 'content': 'false'}, {'type': 'nextAction_type', 'content': 'OPENINGHOUR'}, {'type': 'nextAction_day', 'content': 'today'}, {'type': 'nextAction_openUntil', 'content': '18:00'}, {'type': 'tt_timestamp', 'content': '35172443056739088'}]",,Mo: 09:00-18:00; Tu: 09:00-18:00; We: 09:00-18:00; Th: 09:00-18:00; Fr: 09:00-18:00; Sa: 09:00-13:00,52.5095071,13.4995701
10625,Berlin,Charlottenburg,,Kantstr.,46,csbnan7s8n2s3,csbn2s3n1,Postfiliale,RETAIL_OUTLET,Kant Shop,4341491,535.0,8,8-4341491,[],[],[],"[{'type': 'Bezeichnung', 'content': 'Berlin 122'}, {'type': 'open_all_day', 'content': 'false'}, {'type': 'nextAction_type', 'content': 'OPENINGHOUR'}, {'type': 'nextAction_day', 'content': 'today'}, {'type': 'nextAction_openUntil', 'content': '22:00'}, {'type': 'tt_timestamp', 'content': '35172443056739088'}]",,Mo: 09:00-22:00; Tu: 09:00-22:00; We: 09:00-22:00; Th: 09:00-22:00; Fr: 09:00-22:00; Sa: 09:00-22:00,52.5065687,13.3118216
10319,Berlin,Friedrichsfelde,,Sewanstr.,2,csbnan7s8n2s3,csbn2s3n1,Postfiliale,RETAIL_OUTLET,k kiosk,4335761,475.0,8,8-4335761,[],[],[],"[{'type': 'Bezeichnung', 'content': 'Berlin-Friedrichsfelde 5'}, {'type': 'open_all_day', 'content': 'false'}, {'type': 'nextAction_type', 'content': 'OPENINGHOUR'}, {'type': 'nextAction_day', 'content': 'today'}, {'type': 'nextAction_openUntil', 'content': '19:00'}, {'type': 'tt_timestamp', 'content': '35172443056739088'}]",,Mo: 07:00-19:00; Tu: 07:00-19:00; We: 07:00-19:00; Th: 07:00-19:00; Fr: 07:00-19:00; Sa: 07:00-19:00,52.4997588,13.4967934
10717,Berlin,Wilmersdorf,,Gasteiner Str.,8,csbnan7s8n2s3,csbn2s3n1,Postfiliale,RETAIL_OUTLET,Presseshop Schleicher,4091295,570.0,8,8-4091295,[],[],[],"[{'type': 'christmasHintEN', 'content': ' '}, {'type': 'christmasHintDE', 'content': ' '}, {'type': 'Bezeichnung', 'content': 'Berlin 314'}, {'type': 'open_all_day', 'content': 'false'}, {'type': 'nextAction_type', 'content': 'OPENINGHOUR'}, {'type': 'nextAction_day', 'content': 'today'}, {'type': 'nextAction_openUntil', 'content': '18:00'}, {'type': 'tt_timestamp', 'content': '35172443056739088'}]",,Mo: 06:30-18:00; Tu: 06:30-18:00; We: 06:30-18:00; Th: 06:30-18:00; Fr: 06:30-18:00; Sa: 08:00-14:00,52.487515,13.3233588
13409,Berlin,Reinickendorf,,Residenzstr.,24-25,csbnan7s8n2s3,csbn2s3n1,Postbank Filiale,POSTBANK_FINANCE_CENTER,Postbank Filiale,4013115,518.0,8,8-4013115,[],[],"[{'type': 'closure', 'fromDate': '2025-10-08T00:00:00+0200', 'toDate': None}]","[{'type': 'christmasHintEN', 'content': ' '}, {'type': 'christmasHintDE', 'content': ' '}, {'type': 'Bezeichnung', 'content': 'Berlin 51'}, {'type': 'open_all_day', 'content': 'false'}, {'type': 'nextAction_type', 'content': 'OPENINGHOUR'}, {'type': 'nextAction_day', 'content': 'today'}, {'type': 'nextAction_openUntil', 'content': '18:00'}, {'type': 'tt_timestamp', 'content': '35172443056739088'}]",,Mo: 13:00-18:00; Tu: 09:00-18:00; We: 09:00-18:00; Th: 09:00-18:00; Fr: 09:00-18:00; Sa: 09:00-14:00,52.5695712,13.3609407
10715,Berlin,Wilmersdorf,,Bundesallee,55,csbnan7s8n2s3,csbn2s3n1,Postfiliale,RETAIL_OUTLET,Lotto Presse,4343589,473.0,8,8-4343589,[],[],[],"[{'type': 'Bezeichnung', 'content': 'Berlin 313'}, {'type': 'open_all_day', 'content': 'false'}, {'type': 'nextAction_type', 'content': 'OPENINGHOUR'}, {'type': 'nextAction_day', 'content': 'today'}, {'type': 'nextAction_openUntil', 'content': '18:00'}, {'type': 'tt_timestamp', 'content': '35172443056739088'}]",,Mo: 09:00-18:00; Tu: 09:00-18:00; We: 09:00-18:00; Th: 09:00-18:00; Fr: 09:00-18:00; Sa: 09:00-13:00,52.4814805,13.3289064
10707,Berlin,Wilmersdorf,,Bregenzer Str.,9,csbnan7s8n2s3,csbn2s3n1,Postfiliale,RETAIL_OUTLET,Press-Point am Olivaer Platz,4135655,540.0,8,8-4135655,[],[],[],"[{'type': 'christmasHintEN', 'content': ' '}, {'type': 'christmasHintDE', 'content': ' '}, {'type': 'Bezeichnung', 'content': 'Berlin 311'}, {'type': 'open_all_day', 'content': 'false'}, {'type': 'nextAction_type', 'content': 'OPENINGHOUR'}, {'type': 'nextAction_day', 'content': 'today'}, {'type': 'nextAction_openUntil', 'content': '20:00'}, {'type': 'tt_timestamp', 'content': '35172443056739088'}]",,Mo: 08:00-20:00; Tu: 08:00-20:00; We: 08:00-20:00; Th: 08:00-20:00; Fr: 08:00-20:00; Sa: 08:00-18:00,52.4988288,13.3135636
12057,Berlin,,,Grenzallee,4d,csbnan7s8n2s3,csbn2s3n1,Postfiliale,RETAIL_OUTLET,k Kiosk,4318496,547.0,8,8-4318496,[],[],"[{'type': 'closure', 'fromDate': '2025-10-07T00:00:00+0200', 'toDate': None}]","[{'type': 'christmasHintEN', 'content': ' '}, {'type': 'christmasHintDE', 'content': ' '}, {'type': 'Bezeichnung', 'content': 'Berlin 444'}, {'type': 'open_all_day', 'content': 'false'}, {'type': 'nextAction_type', 'content': 'OPENINGHOUR'}, {'type': 'nextAction_day', 'content': 'today'}, {'type': 'nextAction_openUntil', 'content': '18:00'}, {'type': 'tt_timestamp', 'content': '35172443056739088'}]",,Mo: 09:00-18:00; Tu: 09:00-18:00; We: 09:00-18:00; Th: 09:00-18:00; Fr: 09:00-18:00; Sa: 09:00-18:00,52.4696404,13.4630915
10585,Berlin,Charlottenburg,,Otto-Suhr-Allee,104,csbnan7s8n2s3,csbn2s3n1,Postfiliale,RETAIL_OUTLET,Bilgehan Göbüt,4296047,728.0,8,8-4296047,[],[],[],"[{'type': 'christmasHintEN', 'content': ' '}, {'type': 'christmasHintDE', 'content': ' '}, {'type': 'Bezeichnung', 'content': 'Berlin 127'}, {'type': 'open_all_day', 'content': 'false'}, {'type': 'nextAction_type', 'content': 'OPENINGHOUR'}, {'type': 'nextAction_day', 'content': 'today'}, {'type': 'nextAction_openUntil', 'content': '20:00'}, {'type': 'tt_timestamp', 'content': '35172443056739088'}]",,Mo: 09:00-20:00; Tu: 09:00-20:00; We: 09:00-20:00; Th: 09:00-20:00; Fr: 09:00-20:00; Sa: 10:00-16:00,52.5173622,13.307712
12103,Berlin,Schöneberg,,Bessemerstr.,57-59,csbnan7s8n2s3,csbn2s3n1,Postfiliale,RETAIL_OUTLET,k kiosk,4336960,615.0,8,8-4336960,[],[],[],"[{'type': 'Bezeichnung', 'content': 'Berlin 182'}, {'type': 'open_all_day', 'content': 'false'}, {'type': 'nextAction_type', 'content': 'OPENINGHOUR'}, {'type': 'nextAction_day', 'content': 'today'}, {'type': 'nextAction_openUntil', 'content': '19:30'}, {'type': 'tt_timestamp', 'content': '35172443056739088'}]",,Mo: 08:00-19:30; Tu: 08:00-19:30; We: 08:00-19:30; Th: 08:00-19:30; Fr: 08:00-19:30; Sa: 08:00-19:30,52.4621086,13.3668507
10629,Berlin,Charlottenburg,,Wilmersdorfer Str.,105,csbnan7s8n2s3,csbn2s3n1,Postfiliale,RETAIL_OUTLET,Lotto und DHL,4320846,,8,8-4320846,[],[],[],"[{'type': 'christmasHintEN', 'content': ' '}, {'type': 'christmasHintDE', 'content': ' '}, {'type': 'Bezeichnung', 'content': 'Berlin 123'}, {'type': 'open_all_day', 'content': 'false'}, {'type': 'nextAction_type', 'content': 'OPENINGHOUR'}, {'type': 'nextAction_day', 'content': 'today'}, {'type': 'nextAction_openUntil', 'content': '18:45'}, {'type': 'tt_timestamp', 'content': '35172443056739088'}]",,Mo: 08:00-18:45; Tu: 08:00-18:45; We: 08:00-18:45; Th: 08:00-18:45; Fr: 08:00-18:45; Sa: 08:00-18:00,52.5041964,13.3076494
10627,Berlin,Charlottenburg,,Wilmersdorfer Str.,46,csbnan7s8n2s3,csbn2s3n1,Postbank Filiale,POSTBANK_FINANCE_CENTER,Postbank Filiale,4063560,536.0,8,8-4063560,[],[],[],"[{'type': 'christmasHintEN', 'content': ' '}, {'type': 'christmasHintDE', 'content': ' '}, {'type': 'Bezeichnung', 'content': 'Berlin 121'}, {'type': 'open_all_day', 'content': 'false'}, {'type': 'nextAction_type', 'content': 'OPENINGHOUR'}, {'type': 'nextAction_day', 'content': 'today'}, {'type': 'nextAction_openUntil', 'content': '18:00'}, {'type': 'tt_timestamp', 'content': '35172443056739088'}]",,Mo: 09:00-18:00; Tu: 09:00-18:00; We: 09:00-18:00; Th: 09:00-18:00; Fr: 09:00-18:00; Sa: 10:00-14:00,52.509894,13.3055725
13351,Berlin,Wedding,,Swakopmunder Str.,44,csbnan7s8n2s3,csbn2s3n1,Postfiliale,RETAIL_OUTLET,Rozi Presse und Backshop,4117391,550.0,8,8-4117391,[],[],[],"[{'type': 'Bezeichnung', 'content': 'Berlin 657'}, {'type': 'christmasHintEN', 'content': ' '}, {'type': 'christmasHintDE', 'content': ' '}, {'type': 'open_all_day', 'content': 'false'}, {'type': 'nextAction_type', 'content': 'OPENINGHOUR'}, {'type': 'nextAction_day', 'content': 'today'}, {'type': 'nextAction_openUntil', 'content': '16:00'}, {'type': 'tt_timestamp', 'content': '35172443056739088'}]",,Mo: 07:30-16:00; Tu: 07:30-16:00; We: 07:30-16:00; Th: 07:30-16:00; Fr: 07:30-16:00; Sa: 08:00-13:00,52.5602938,13.332946
10627,Berlin,Charlottenburg,,Kantstr.,66,csbnan7s8n2s3,csbn2s3n1,Postfiliale,RETAIL_OUTLET,Polat Store,4335362,583.0,8,8-4335362,[],[],[],"[{'type': 'Bezeichnung', 'content': 'Berlin 132'}, {'type': 'open_all_day', 'content': 'false'}, {'type': 'nextAction_type', 'content': 'OPENINGHOUR'}, {'type': 'nextAction_day', 'content': 'today'}, {'type': 'nextAction_openUntil', 'content': '19:00'}, {'type': 'tt_timestamp', 'content': '35172443056739088'}]",,Mo: 10:00-19:00; Tu: 10:00-19:00; We: 10:00-19:00; Th: 10:00-19:00; Fr: 10:00-19:00; Sa: 10:00-16:30,52.5069399,13.3033224
12103,Berlin,Tempelhof,,Friedrich-Karl-Str.,9,csbnan7s8n2s3,csbn2s3n1,Postfiliale,RETAIL_OUTLET,COPY  & MORE,4125830,553.0,8,8-4125830,[],[],[],"[{'type': 'christmasHintEN', 'content': ' '}, {'type': 'christmasHintDE', 'content': ' '}, {'type': 'Bezeichnung', 'content': 'Berlin 820'}, {'type': 'open_all_day', 'content': 'false'}, {'type': 'nextAction_type', 'content': 'OPENINGHOUR'}, {'type': 'nextAction_day', 'content': 'today'}, {'type': 'nextAction_openUntil', 'content': '19:00'}, {'type': 'tt_timestamp', 'content': '35172443056739088'}]",,Mo: 09:00-19:00; Tu: 09:00-19:00; We: 09:00-19:00; Th: 09:00-19:00; Fr: 09:00-19:00; Sa: 09:00-16:00,52.4557432,13.3821048
12157,Berlin,Schöneberg,,Beckerstr.,22,csbnan7s8n2s3,csbn2s3n1,Postfiliale,RETAIL_OUTLET,Kariertes + liniertes,4133298,448.0,8,8-4133298,[],[],[],"[{'type': 'christmasHintEN', 'content': ' '}, {'type': 'christmasHintDE', 'content': ' '}, {'type': 'Bezeichnung', 'content': 'Berlin 413'}, {'type': 'open_all_day', 'content': 'false'}, {'type': 'nextAction_type', 'content': 'OPENINGHOUR'}, {'type': 'nextAction_day', 'content': 'today'}, {'type': 'nextAction_openUntil', 'content': '18:00'}, {'type': 'tt_timestamp', 'content': '35172443056739088'}]",,Mo: 08:00-18:00; Tu: 08:00-18:00; We: 08:00-18:00; Th: 08:00-18:00; Fr: 08:00-18:00; Sa: 08:00-16:00,52.4669149,13.3426159
10709,Berlin,Wilmersdorf,,Kurfürstendamm,159,csbnan7s8n2s3,csbn2s3n1,Postfiliale,RETAIL_OUTLET,McPaper,4094985,541.0,8,8-4094985,[],[],[],"[{'type': 'Bezeichnung', 'content': 'Berlin 315'}, {'type': 'christmasHintEN', 'content': ' '}, {'type': 'christmasHintDE', 'content': ' '}, {'type': 'open_all_day', 'content': 'false'}, {'type': 'nextAction_type', 'content': 'OPENINGHOUR'}, {'type': 'nextAction_day', 'content': 'today'}, {'type': 'nextAction_openUntil', 'content': '19:30'}, {'type': 'tt_timestamp', 'content': '35172443056739088'}]",,Mo: 09:30-19:30; Tu: 09:30-19:30; We: 09:30-19:30; Th: 09:30-19:30; Fr: 09:30-19:30; Sa: 10:00-18:30,52.4993746,13.3046871
12161,Berlin,Friedenau,,Bundesallee,131,csbnan7s8n2s3,csbn2s3n1,Postfiliale,RETAIL_OUTLET,LOTTO,4127043,595.0,8,8-4127043,[],[],[],"[{'type': 'christmasHintEN', 'content': ' '}, {'type': 'christmasHintDE', 'content': ' '}, {'type': 'Bezeichnung', 'content': 'Berlin 418'}, {'type': 'open_all_day', 'content': 'false'}, {'type': 'nextAction_type', 'content': 'OPENINGHOUR'}, {'type': 'nextAction_day', 'content': 'today'}, {'type': 'nextAction_openUntil', 'content': '19:00'}, {'type': 'tt_timestamp', 'content': '35172443056739088'}]",,Mo: 07:00-19:00; Tu: 07:00-19:00; We: 07:00-19:00; Th: 07:00-19:00; Fr: 07:00-19:00; Sa: 07:00-17:00,52.4737084,13.3287832
10589,Berlin,Charlottenburg,,Osnabrücker Str.,24,csbnan7s8n2s3,csbn2s3n1,Postfiliale,RETAIL_OUTLET,Lotto Tabak Post,4337729,426.0,8,8-4337729,[],[],[],"[{'type': 'Bezeichnung', 'content': 'Berlin 680'}, {'type': 'open_all_day', 'content': 'false'}, {'type': 'nextAction_type', 'content': 'OPENINGHOUR'}, {'type': 'nextAction_day', 'content': 'today'}, {'type': 'nextAction_openUntil', 'content': '19:00'}, {'type': 'tt_timestamp', 'content': '35172443056739088'}]",,Mo: 08:00-19:00; Tu: 08:00-19:00; We: 08:00-19:00; Th: 08:00-19:00; Fr: 08:00-19:00; Sa: 09:00-16:00,52.5258887,13.300534
10711,Berlin,Charlottenburg,,Damaschkestr.,6,csbnan7s8n2s3,csbn2s3n1,Postfiliale,RETAIL_OUTLET,Damaschkeshop,4301109,877.0,8,8-4301109,[],[],[],"[{'type': 'christmasHintEN', 'content': ' '}, {'type': 'christmasHintDE', 'content': ' '}, {'type': 'Bezeichnung', 'content': 'Berlin 154'}, {'type': 'open_all_day', 'content': 'false'}, {'type': 'nextAction_type', 'content': 'OPENINGHOUR'}, {'type': 'nextAction_day', 'content': 'today'}, {'type': 'nextAction_openUntil', 'content': '20:00'}, {'type': 'tt_timestamp', 'content': '35172443056739088'}]",,Mo: 08:00-20:00; Tu: 08:00-20:00; We: 08:00-20:00; Th: 08:00-20:00; Fr: 08:00-20:00; Sa: 10:00-18:00,52.4997808,13.3023568
10627,Berlin,Charlottenburg,,Bismarckstr.,67,csbnan7s8n2s3,csbn2s3n1,Postfiliale,RETAIL_OUTLET,,4137410,558.0,8,8-4137410,[],[],[],"[{'type': 'Bezeichnung', 'content': 'Berlin 118'}, {'type': 'christmasHintEN', 'content': ' '}, {'type': 'christmasHintDE', 'content': ' '}, {'type': 'open_all_day', 'content': 'false'}, {'type': 'nextAction_type', 'content': 'OPENINGHOUR'}, {'type': 'nextAction_day', 'content': 'today'}, {'type': 'nextAction_openUntil', 'content': '18:00'}, {'type': 'tt_timestamp', 'content': '35172443056739088'}]",,Mo: 07:00-18:00; Tu: 07:00-18:00; We: 07:00-18:00; Th: 07:00-18:00; Fr: 07:00-18:00; Sa: 07:00-15:00,52.5113166,13.2977963
14197,Berlin,Wilmersdorf,,Laubacher Str.,31,csbnan7s8n2s3,csbn2s3n1,Postfiliale,RETAIL_OUTLET,Spätkauf,4331867,462.0,8,8-4331867,[],[],[],"[{'type': 'christmasHintEN', 'content': ' '}, {'type': 'christmasHintDE', 'content': ' '}, {'type': 'Bezeichnung', 'content': 'Berlin 335'}, {'type': 'open_all_day', 'content': 'false'}, {'type': 'nextAction_type', 'content': 'OPENINGHOUR'}, {'type': 'nextAction_day', 'content': 'today'}, {'type': 'nextAction_openUntil', 'content': '20:00'}, {'type': 'tt_timestamp', 'content': '35172443056739088'}]",,Mo: 09:00-20:00; Tu: 09:00-20:00; We: 09:00-20:00; Th: 09:00-20:00; Fr: 09:00-20:00; Sa: 09:00-18:00,52.4765969,13.3200576
10319,Berlin,Friedrichsfelde,,Dolgenseestr.,8a,csbnan7s8n2s3,csbn2s3n1,Postfiliale,RETAIL_OUTLET,Tante Emma Laden,4331240,890.0,8,8-4331240,[],[],[],"[{'type': 'christmasHintEN', 'content': ' '}, {'type': 'christmasHintDE', 'content': ' '}, {'type': 'Bezeichnung', 'content': 'Berlin-Friedrichsfelde 2'}, {'type': 'open_all_day', 'content': 'false'}, {'type': 'nextAction_type', 'content': 'OPENINGHOUR'}, {'type': 'nextAction_day', 'content': 'today'}, {'type': 'nextAction_openUntil', 'content': '20:00'}, {'type': 'tt_timestamp', 'content': '35172443056739088'}]",,Mo: 08:00-20:00; Tu: 08:00-20:00; We: 08:00-20:00; Th: 08:00-20:00; Fr: 08:00-20:00; Sa: 08:00-20:00,52.4938909,13.5074827
12347,Berlin,Britz,,Britzer Damm,99,csbnan7s8n2s3,csbn2s3n1,Postfiliale,RETAIL_OUTLET,Karsten Nüscher,4337073,543.0,8,8-4337073,[],[],[],"[{'type': 'Bezeichnung', 'content': 'Berlin 475'}, {'type': 'open_all_day', 'content': 'false'}, {'type': 'nextAction_type', 'content': 'OPENINGHOUR'}, {'type': 'nextAction_day', 'content': 'today'}, {'type': 'nextAction_openUntil', 'content': '18:00'}, {'type': 'tt_timestamp', 'content': '35172443056739088'}]",,Mo: 09:30-18:00; Tu: 09:30-18:00; We: 09:30-18:00; Th: 09:30-18:00; Fr: 09:30-18:00; Sa: 10:00-13:00,52.4539912,13.4383365
13055,Berlin,Alt-Hohenschönhausen,,Hauptstr.,9,csbnan7s8n2s3,csbn2s3n1,Postfiliale,RETAIL_OUTLET,,4307072,,8,8-4307072,[],[],[],"[{'type': 'Bezeichnung', 'content': 'Berlin 711'}, {'type': 'christmasHintEN', 'content': ' '}, {'type': 'christmasHintDE', 'content': ' '}, {'type': 'open_all_day', 'content': 'false'}, {'type': 'nextAction_type', 'content': 'OPENINGHOUR'}, {'type': 'nextAction_day', 'content': 'today'}, {'type': 'nextAction_openUntil', 'content': '20:00'}, {'type': 'tt_timestamp', 'content': '35172443056739088'}]",,Mo: 08:30-20:00; Tu: 08:30-20:00; We: 08:30-20:00; Th: 08:30-20:00; Fr: 08:30-20:00; Sa: 08:30-20:00,52.54868,13.5040418
13055,Berlin,Alt-Hohenschönhausen,,Hauptstr.,9,csbnan7s8n2s3,csbn2s3n1,Postfiliale,RETAIL_OUTLET,Handyshop,4335284,600.0,8,8-4335284,[],[],[],"[{'type': 'Bezeichnung', 'content': 'Berlin-Hohenschönhausen 1'}, {'type': 'open_all_day', 'content': 'false'}, {'type': 'nextAction_openUntil', 'content': '12:30'}, {'type': 'nextAction_type', 'content': 'OPENINGHOUR'}, {'type': 'nextAction_day', 'content': 'today'}, {'type': 'nextAction_openFrom', 'content': '13:00'}, {'type': 'tt_timestamp', 'content': '35172443056739088'}]",,Mo: 13:00-18:00; Tu: 13:00-18:00; We: 13:00-18:00; Th: 13:00-18:00; Fr: 09:30-12:30; Sa: 10:00-16:00,52.54868,13.5040418
12161,Berlin,Friedenau,,Rheinstr.,49,csbnan7s8n2s3,csbn2s3n1,Postfiliale,RETAIL_OUTLET,Post & More,4340758,540.0,8,8-4340758,[],[],[],"[{'type': 'Bezeichnung', 'content': 'Berlin 410'}, {'type': 'open_all_day', 'content': 'false'}, {'type': 'nextAction_type', 'content': 'OPENINGHOUR'}, {'type': 'nextAction_day', 'content': 'today'}, {'type': 'nextAction_openUntil', 'content': '20:00'}, {'type': 'tt_timestamp', 'content': '35172443056739088'}]",,Mo: 08:00-20:00; Tu: 08:00-20:00; We: 08:00-20:00; Th: 08:00-20:00; Fr: 08:00-20:00; Sa: 08:00-20:00,52.4674956,13.3314385
14059,Berlin,Charlottenburg,,Nehringstr.,1,csbnan7s8n2s3,csbn2s3n1,Postfiliale,RETAIL_OUTLET,Lotto Tabak,4341616,414.0,8,8-4341616,[],[],[],"[{'type': 'Bezeichnung', 'content': 'Berlin 198'}, {'type': 'open_all_day', 'content': 'false'}, {'type': 'nextAction_type', 'content': 'OPENINGHOUR'}, {'type': 'nextAction_day', 'content': 'today'}, {'type': 'nextAction_openUntil', 'content': '20:00'}, {'type': 'tt_timestamp', 'content': '35172443056739088'}]",,Mo: 09:00-20:00; Tu: 09:00-20:00; We: 09:00-20:00; Th: 09:00-20:00; Fr: 09:00-20:00; Sa: 09:00-20:00,52.5175131,13.2934247
13405,Berlin,Reinickendorf,,Scharnweberstr.,127,csbnan7s8n2s3,csbn2s3n1,Postfiliale,RETAIL_OUTLET,Asta Multishop,4333976,498.0,8,8-4333976,[],[],[],"[{'type': 'christmasHintEN', 'content': ' '}, {'type': 'christmasHintDE', 'content': ' '}, {'type': 'Bezeichnung', 'content': 'Berlin 274'}, {'type': 'open_all_day', 'content': 'false'}, {'type': 'nextAction_type', 'content': 'OPENINGHOUR'}, {'type': 'nextAction_day', 'content': 'today'}, {'type': 'nextAction_openUntil', 'content': '20:00'}, {'type': 'tt_timestamp', 'content': '35172443056739088'}]",,Mo: 08:00-20:00; Tu: 08:00-20:00; We: 08:00-20:00; Th: 08:00-20:00; Fr: 08:00-20:00; Sa: 08:00-20:00,52.5647785,13.3242099
13403,Berlin,Reinickendorf,,Ollenhauerstr.,122,csbnan7s8n2s3,csbn2s3n1,Postfiliale,RETAIL_OUTLET,,4326366,468.0,8,8-4326366,[],[],[],"[{'type': 'christmasHintEN', 'content': ' '}, {'type': 'christmasHintDE', 'content': ' '}, {'type': 'Bezeichnung', 'content': 'Berlin 517'}, {'type': 'open_all_day', 'content': 'false'}, {'type': 'nextAction_type', 'content': 'OPENINGHOUR'}, {'type': 'nextAction_day', 'content': 'today'}, {'type': 'nextAction_openUntil', 'content': '18:30'}, {'type': 'tt_timestamp', 'content': '35172443056739088'}]",,Mo: 08:00-18:30; Tu: 08:00-18:30; We: 08:00-18:30; Th: 08:00-18:30; Fr: 08:00-18:30; Sa: 08:00-18:30,52.5676771,13.3290451
10709,Berlin,Wilmersdorf,,Kurfürstendamm,142-147,csbnan7s8n2s3,csbn2s3n1,Postfiliale,RETAIL_OUTLET,McPaper,4083015,524.0,8,8-4083015,[],[],[],"[{'type': 'christmasHintEN', 'content': ' '}, {'type': 'christmasHintDE', 'content': ' '}, {'type': 'Bezeichnung', 'content': 'Berlin 312'}, {'type': 'open_all_day', 'content': 'false'}, {'type': 'nextAction_type', 'content': 'OPENINGHOUR'}, {'type': 'nextAction_day', 'content': 'today'}, {'type': 'nextAction_openUntil', 'content': '20:00'}, {'type': 'tt_timestamp', 'content': '35172443056739088'}]",,Mo: 09:00-20:00; Tu: 09:00-20:00; We: 09:00-20:00; Th: 09:00-20:00; Fr: 09:00-20:00; Sa: 09:00-20:00,52.4979894,13.297356
14057,Berlin,Charlottenburg,,Neue Kantstr.,31,csbnan7s8n2s3,csbn2s3n1,Postfiliale,RETAIL_OUTLET,Kiosk Shop,4293633,671.0,8,8-4293633,[],[],[],"[{'type': 'christmasHintEN', 'content': ' '}, {'type': 'christmasHintDE', 'content': ' '}, {'type': 'Bezeichnung', 'content': 'Berlin 197'}, {'type': 'open_all_day', 'content': 'false'}, {'type': 'nextAction_type', 'content': 'OPENINGHOUR'}, {'type': 'nextAction_day', 'content': 'today'}, {'type': 'nextAction_openUntil', 'content': '20:00'}, {'type': 'tt_timestamp', 'content': '35172443056739088'}]",,Mo: 08:00-20:00; Tu: 08:00-20:00; We: 08:00-20:00; Th: 08:00-20:00; Fr: 08:00-20:00; Sa: 08:00-20:00,52.5065842,13.2939013
13403,Berlin,Reinickendorf,,Waldowstr.,49,csbnan7s8n2s3,csbn2s3n1,Postfiliale,RETAIL_OUTLET,Backshop Waldowstr.,4331456,491.0,8,8-4331456,[],[],[],"[{'type': 'christmasHintEN', 'content': ' '}, {'type': 'christmasHintDE', 'content': ' '}, {'type': 'Bezeichnung', 'content': 'Berlin 511'}, {'type': 'open_all_day', 'content': 'false'}, {'type': 'nextAction_type', 'content': 'OPENINGHOUR'}, {'type': 'nextAction_day', 'content': 'today'}, {'type': 'nextAction_openUntil', 'content': '20:00'}, {'type': 'tt_timestamp', 'content': '35172443056739088'}]",,Mo: 06:30-20:00; Tu: 06:30-20:00; We: 06:30-20:00; Th: 06:30-20:00; Fr: 06:30-20:00; Sa: 06:30-20:00,52.5736243,13.3345013
10315,Berlin,Friedrichsfelde,,Seddiner Str.,8,csbnan7s8n2s3,csbn2s3n1,Postfiliale,RETAIL_OUTLET,Pen & Paper,4337483,510.0,8,8-4337483,[],[],[],"[{'type': 'Bezeichnung', 'content': 'Berlin-Friedrichsfelde 1'}, {'type': 'open_all_day', 'content': 'false'}, {'type': 'nextAction_type', 'content': 'OPENINGHOUR'}, {'type': 'nextAction_day', 'content': 'today'}, {'type': 'nextAction_openUntil', 'content': '18:30'}, {'type': 'tt_timestamp', 'content': '35172443056739088'}]",,Mo: 08:30-18:30; Tu: 08:30-18:30; We: 08:30-18:30; Th: 08:30-18:30; Fr: 08:30-18:30; Sa: 09:00-15:30,52.5133907,13.5222796
14199,Berlin,Schmargendorf,,Hohenzollerndamm,50,csbnan7s8n2s3,csbn2s3n1,Postfiliale,RETAIL_OUTLET,,4318969,596.0,8,8-4318969,[],[],[],"[{'type': 'christmasHintEN', 'content': ' '}, {'type': 'christmasHintDE', 'content': ' '}, {'type': 'Bezeichnung', 'content': 'Berlin 336'}, {'type': 'open_all_day', 'content': 'false'}, {'type': 'nextAction_type', 'content': 'OPENINGHOUR'}, {'type': 'nextAction_day', 'content': 'today'}, {'type': 'nextAction_openUntil', 'content': '18:30'}, {'type': 'tt_timestamp', 'content': '35172443056739088'}]",,Mo: 07:00-18:30; Tu: 07:00-18:30; We: 07:00-18:30; Th: 07:00-18:30; Fr: 07:00-18:30; Sa: 07:30-18:00,52.4877932,13.2992771
12163,Berlin,Steglitz,,Schloßstr.,1,csbnan7s8n2s3,csbn2s3n1,Postfiliale,RETAIL_OUTLET,WOLSDORFF,4130528,617.0,8,8-4130528,[],[],[],"[{'type': 'christmasHintEN', 'content': ' '}, {'type': 'christmasHintDE', 'content': ' '}, {'type': 'Bezeichnung', 'content': 'Berlin 813'}, {'type': 'open_all_day', 'content': 'false'}, {'type': 'nextAction_type', 'content': 'OPENINGHOUR'}, {'type': 'nextAction_day', 'content': 'today'}, {'type': 'nextAction_openUntil', 'content': '19:45'}, {'type': 'tt_timestamp', 'content': '35172443056739088'}]",,Mo: 10:00-19:45; Tu: 10:00-19:45; We: 10:00-19:45; Th: 10:00-19:45; Fr: 10:00-19:45; Sa: 10:00-19:45,52.4644057,13.327387
14197,Berlin,Wilmersdorf,,Rüdesheimer Str.,8,csbnan7s8n2s3,csbn2s3n1,Postfiliale,RETAIL_OUTLET,,4311256,469.0,8,8-4311256,[],[],[],"[{'type': 'christmasHintEN', 'content': ' '}, {'type': 'christmasHintDE', 'content': ' '}, {'type': 'Bezeichnung', 'content': 'Berlin 334'}, {'type': 'open_all_day', 'content': 'false'}, {'type': 'nextAction_type', 'content': 'OPENINGHOUR'}, {'type': 'nextAction_day', 'content': 'today'}, {'type': 'nextAction_openUntil', 'content': '20:00'}, {'type': 'tt_timestamp', 'content': '35172443056739088'}]",,Mo: 08:00-20:00; Tu: 08:00-20:00; We: 08:00-20:00; Th: 08:00-20:00; Fr: 08:00-20:00; Sa: 08:00-20:00,52.4728832,13.3140987
12437,Berlin,Baumschulenweg,,Baumschulenstr.,6,csbnan7s8n2s3,csbn2s3n1,Postfiliale,RETAIL_OUTLET,ATM EXTRAS,4309576,401.0,8,8-4309576,[],[],[],"[{'type': 'christmasHintEN', 'content': ' '}, {'type': 'christmasHintDE', 'content': ' '}, {'type': 'Bezeichnung', 'content': 'Berlin-Baumschulenweg'}, {'type': 'open_all_day', 'content': 'false'}, {'type': 'nextAction_type', 'content': 'OPENINGHOUR'}, {'type': 'nextAction_day', 'content': 'today'}, {'type': 'nextAction_openUntil', 'content': '18:30'}, {'type': 'tt_timestamp', 'content': '35172443056739088'}]",,Mo: 09:30-18:30; Tu: 09:30-18:30; We: 09:30-18:30; Th: 09:30-18:30; Fr: 09:30-18:30; Sa: 10:00-15:00,52.4687386,13.4912384
13051,Berlin,Alt-Hohenschönhausen,,Hansastr.,236,csbnan7s8n2s3,csbn2s3n1,Postfiliale,RETAIL_OUTLET,CIGO im EDEKA,4330365,,8,8-4330365,[],[],[],"[{'type': 'christmasHintEN', 'content': ' '}, {'type': 'christmasHintDE', 'content': ' '}, {'type': 'Bezeichnung', 'content': 'Berlin-Hohenschönhausen 9'}, {'type': 'open_all_day', 'content': 'false'}, {'type': 'nextAction_type', 'content': 'OPENINGHOUR'}, {'type': 'nextAction_day', 'content': 'today'}, {'type': 'nextAction_openUntil', 'content': '18:00'}, {'type': 'tt_timestamp', 'content': '35172443056739088'}]",,Mo: 09:00-18:00; Tu: 09:00-18:00; We: 09:00-18:00; Th: 09:00-18:00; Fr: 09:00-18:00; Sa: 09:00-18:00,52.5608689,13.4993003
13127,Berlin,Französisch Buchholz,,Blankenburger Str.,149,csbnan7s8n2s3,csbn2s3n1,Postfiliale,RETAIL_OUTLET,Zeitungen-Lotto,4081563,510.0,8,8-4081563,[],[],"[{'type': 'holiday', 'fromDate': '2025-12-24T00:00:00+0100', 'toDate': '2026-01-04T23:59:59+0100'}]","[{'type': 'christmasHintEN', 'content': ' '}, {'type': 'christmasHintDE', 'content': ' '}, {'type': 'Bezeichnung', 'content': 'Berlin-Buchholz 1'}, {'type': 'open_all_day', 'content': 'false'}, {'type': 'nextAction_type', 'content': 'OPENINGHOUR'}, {'type': 'nextAction_day', 'content': 'today'}, {'type': 'nextAction_openUntil', 'content': '18:00'}, {'type': 'tt_timestamp', 'content': '35172443056739088'}]",,Mo: 09:00-18:00; Tu: 09:00-18:00; We: 09:00-18:00; Th: 09:00-18:00; Fr: 09:00-18:00; Sa: 09:00-12:00,52.5880403,13.4277733
12169,Berlin,Steglitz,,Bergstr.,75,csbnan7s8n2s3,csbn2s3n1,Postfiliale,RETAIL_OUTLET,Postfiliale Berlin 575,4338711,575.0,8,8-4338711,[],[],[],"[{'type': 'Bezeichnung', 'content': 'Berlin 812'}, {'type': 'open_all_day', 'content': 'false'}, {'type': 'nextAction_type', 'content': 'OPENINGHOUR'}, {'type': 'nextAction_day', 'content': 'today'}, {'type': 'nextAction_openUntil', 'content': '18:30'}, {'type': 'tt_timestamp', 'content': '35172443056739088'}]",,Mo: 08:30-11:00; Tu: 08:30-18:30; We: 08:30-18:30; Th: 08:30-18:30; Fr: 08:30-18:30; Sa: 09:00-16:00,52.4586529,13.336992
12163,Berlin,Steglitz,,Markelstr.,8,csbnan7s8n2s3,csbn2s3n1,Postfiliale,RETAIL_OUTLET,,4307713,605.0,8,8-4307713,[],[],[],"[{'type': 'christmasHintEN', 'content': ' '}, {'type': 'christmasHintDE', 'content': ' '}, {'type': 'Bezeichnung', 'content': 'Berlin 814'}, {'type': 'open_all_day', 'content': 'false'}, {'type': 'nextAction_type', 'content': 'OPENINGHOUR'}, {'type': 'nextAction_day', 'content': 'today'}, {'type': 'nextAction_openUntil', 'content': '18:00'}, {'type': 'tt_timestamp', 'content': '35172443056739088'}]",,Mo: 09:30-18:00; Tu: 09:30-18:00; We: 09:30-18:00; Th: 09:30-18:00; Fr: 09:30-18:00; Sa: 10:00-15:00,52.4640897,13.325018
13158,Berlin,Wilhelmsruh,,Hauptstr.,28,csbnan7s8n2s3,csbn2s3n1,Postfiliale,RETAIL_OUTLET,Kiosk Fariba,4334160,513.0,8,8-4334160,[],[],[],"[{'type': 'Bezeichnung', 'content': 'Berlin-Wilhelmsruh 2'}, {'type': 'open_all_day', 'content': 'false'}, {'type': 'nextAction_type', 'content': 'OPENINGHOUR'}, {'type': 'nextAction_day', 'content': 'today'}, {'type': 'nextAction_openUntil', 'content': '18:00'}, {'type': 'tt_timestamp', 'content': '35172443056739088'}]",,Mo: 09:00-18:00; Tu: 09:00-18:00; We: 09:00-18:00; Th: 09:00-18:00; Fr: 09:00-18:00; Sa: 09:00-14:00,52.5867632,13.3675567
13156,Berlin,Niederschönhausen,,Nordendstr.,76a,csbnan7s8n2s3,csbn2s3n1,Postfiliale,RETAIL_OUTLET,Backshop,4085549,552.0,8,8-4085549,[],[],[],"[{'type': 'christmasHintEN', 'content': ' '}, {'type': 'christmasHintDE', 'content': ' '}, {'type': 'Bezeichnung', 'content': 'Berlin-Niederschönhausen 3'}, {'type': 'open_all_day', 'content': 'false'}, {'type': 'nextAction_type', 'content': 'OPENINGHOUR'}, {'type': 'nextAction_day', 'content': 'today'}, {'type': 'nextAction_openUntil', 'content': '18:00'}, {'type': 'tt_timestamp', 'content': '35172443056739088'}]",,Mo: 09:00-18:00; Tu: 09:00-18:00; We: 09:00-18:00; Th: 09:00-18:00; Fr: 09:00-18:00; Sa: 07:00-12:00,52.5903863,13.3978907
12109,Berlin,Mariendorf,,Rixdorfer Str.,115,csbnan7s8n2s3,csbn2s3n1,Postfiliale,RETAIL_OUTLET,"Tabakwaren, Lotto",4089409,574.0,8,8-4089409,[],[],"[{'type': 'holiday', 'fromDate': '2025-09-27T00:00:00+0200', 'toDate': '2025-09-30T23:59:59+0200'}, {'type': 'closure', 'fromDate': '2025-10-01T00:00:00+0200', 'toDate': None}]","[{'type': 'christmasHintEN', 'content': ' '}, {'type': 'christmasHintDE', 'content': ' '}, {'type': 'Bezeichnung', 'content': 'Berlin 423'}, {'type': 'open_all_day', 'content': 'false'}, {'type': 'nextAction_type', 'content': 'OPENINGHOUR'}, {'type': 'nextAction_day', 'content': 'today'}, {'type': 'nextAction_openUntil', 'content': '17:30'}, {'type': 'tt_timestamp', 'content': '35172443056739088'}]",,Mo: holiday-holiday; Tu: 06:00-17:30; We: 06:00-17:30; Th: 06:00-14:00; Fr: 06:00-17:30; Sa: holiday-holiday,52.4447219,13.4003277
10319,Berlin,Friedrichsfelde,,Otto-Schmirgal-Str.,1-7,csbnan7s8n2s3,csbn2s3n1,Postbank Filiale,POSTBANK_FINANCE_CENTER,Postbank Filiale,19730,513.0,8,8-19730,[],[],[],"[{'type': 'christmasHintEN', 'content': ' '}, {'type': 'christmasHintDE', 'content': ' '}, {'type': 'Bezeichnung', 'content': 'Berlin-Friedrichsfelde 4'}, {'type': 'open_all_day', 'content': 'false'}, {'type': 'nextAction_type', 'content': 'OPENINGHOUR'}, {'type': 'nextAction_day', 'content': 'today'}, {'type': 'nextAction_openUntil', 'content': '18:00'}, {'type': 'tt_timestamp', 'content': '35172443056739088'}]",,Mo: 09:00-18:00; Tu: 09:00-18:00; We: 09:00-18:00; Th: 09:00-18:00; Fr: 09:00-18:00; Sa: 09:00-12:30,52.4974323,13.522256
14057,Berlin,Westend,,Kaiserdamm,21,csbnan7s8n2s3,csbn2s3n1,Postfiliale,RETAIL_OUTLET,Bärlin Company,4323110,473.0,8,8-4323110,[],[],[],"[{'type': 'Bezeichnung', 'content': 'Berlin 190'}, {'type': 'christmasHintEN', 'content': ' '}, {'type': 'christmasHintDE', 'content': ' '}, {'type': 'open_all_day', 'content': 'false'}, {'type': 'nextAction_type', 'content': 'OPENINGHOUR'}, {'type': 'nextAction_day', 'content': 'today'}, {'type': 'nextAction_openUntil', 'content': '18:00'}, {'type': 'tt_timestamp', 'content': '35172443056739088'}]",,Mo: 09:00-18:00; Tu: 09:00-18:00; We: 09:00-18:00; Th: 09:00-18:00; Fr: 09:00-18:00; Sa: 10:00-16:00,52.5104098,13.2843453
13403,Berlin,Reinickendorf,,General-Barby-Str.,28,csbnan7s8n2s3,csbn2s3n1,Postfiliale,RETAIL_OUTLET,Pen & Paper,4340537,565.0,8,8-4340537,[],[],[],"[{'type': 'Bezeichnung', 'content': 'Berlin 512'}, {'type': 'open_all_day', 'content': 'false'}, {'type': 'nextAction_type', 'content': 'OPENINGHOUR'}, {'type': 'nextAction_day', 'content': 'today'}, {'type': 'nextAction_openUntil', 'content': '20:00'}, {'type': 'tt_timestamp', 'content': '35172443056739088'}]",,Mo: 07:00-20:00; Tu: 07:00-20:00; We: 07:00-20:00; Th: 07:00-20:00; Fr: 07:00-20:00; Sa: 08:00-20:00,52.5691609,13.3175191
14057,Berlin,Westend,,Rognitzstr.,10,csbnan7s8n2s3,csbn2s3n1,Postfiliale,RETAIL_OUTLET,Kiosk am Funkturm,4094175,636.0,8,8-4094175,[],[],[],"[{'type': 'christmasHintEN', 'content': ' '}, {'type': 'christmasHintDE', 'content': ' '}, {'type': 'Bezeichnung', 'content': 'Berlin 195'}, {'type': 'open_all_day', 'content': 'false'}, {'type': 'nextAction_type', 'content': 'OPENINGHOUR'}, {'type': 'nextAction_day', 'content': 'today'}, {'type': 'nextAction_openUntil', 'content': '18:00'}, {'type': 'tt_timestamp', 'content': '35172443056739088'}]",,Mo: 07:00-18:00; Tu: 07:00-18:00; We: 07:00-18:00; Th: 07:00-18:00; Fr: 07:00-18:00; Sa: 09:00-12:00,52.5097129,13.2840282
13627,Berlin,Charlottenburg-Nord,,Halemweg,21,csbnan7s8n2s3,csbn2s3n1,Postfiliale,RETAIL_OUTLET,Post Halemweg,4330237,530.0,8,8-4330237,[],[],[],"[{'type': 'christmasHintEN', 'content': ' '}, {'type': 'christmasHintDE', 'content': ' '}, {'type': 'Bezeichnung', 'content': 'Berlin 130'}, {'type': 'open_all_day', 'content': 'false'}, {'type': 'nextAction_type', 'content': 'OPENINGHOUR'}, {'type': 'nextAction_day', 'content': 'today'}, {'type': 'nextAction_openUntil', 'content': '18:00'}, {'type': 'tt_timestamp', 'content': '35172443056739088'}]",,Mo: 10:00-18:00; Tu: 10:00-18:00; We: 10:00-18:00; Th: 10:00-18:00; Fr: 10:00-18:00; Sa: 10:00-17:00,52.53741,13.2857978
12109,Berlin,Mariendorf,,Mariendorfer Damm,104,csbnan7s8n2s3,csbn2s3n1,Postfiliale,RETAIL_OUTLET,,4337338,559.0,8,8-4337338,[],[],[],"[{'type': 'Bezeichnung', 'content': 'Berlin 425'}, {'type': 'open_all_day', 'content': 'false'}, {'type': 'nextAction_type', 'content': 'OPENINGHOUR'}, {'type': 'nextAction_day', 'content': 'today'}, {'type': 'nextAction_openUntil', 'content': '19:00'}, {'type': 'tt_timestamp', 'content': '35172443056739088'}]",,Mo: 07:00-19:00; Tu: 07:00-19:00; We: 07:00-19:00; Th: 07:00-19:00; Fr: 07:00-19:00; Sa: 07:00-14:00,52.4429389,13.3860567
12163,Berlin,Steglitz,,Schildhornstr.,85,csbnan7s8n2s3,csbn2s3n1,Postfiliale,RETAIL_OUTLET,Sarwar Atelier,4304713,728.0,8,8-4304713,[],[],[],"[{'type': 'christmasHintEN', 'content': ' '}, {'type': 'christmasHintDE', 'content': ' '}, {'type': 'Bezeichnung', 'content': 'Berlin 815'}, {'type': 'open_all_day', 'content': 'false'}, {'type': 'nextAction_type', 'content': 'OPENINGHOUR'}, {'type': 'nextAction_day', 'content': 'today'}, {'type': 'nextAction_openUntil', 'content': '18:00'}, {'type': 'tt_timestamp', 'content': '35172443056739088'}]",,Mo: 09:00-18:00; Tu: 09:00-18:00; We: 09:00-18:00; Th: 09:00-18:00; Fr: 09:00-18:00; Sa: 10:00-14:00,52.4632185,13.3191685
14197,Berlin,Steglitz,,Kreuznacher Str.,67,csbnan7s8n2s3,csbn2s3n1,Postfiliale,RETAIL_OUTLET,Kiosk und Zeitschriften,4309968,426.0,8,8-4309968,[],[],[],"[{'type': 'christmasHintEN', 'content': ' '}, {'type': 'christmasHintDE', 'content': ' '}, {'type': 'Bezeichnung', 'content': 'Berlin 330'}, {'type': 'open_all_day', 'content': 'false'}, {'type': 'nextAction_type', 'content': 'OPENINGHOUR'}, {'type': 'nextAction_day', 'content': 'today'}, {'type': 'nextAction_openUntil', 'content': '18:00'}, {'type': 'tt_timestamp', 'content': '35172443056739088'}]",,Mo: 10:00-18:00; Tu: 10:00-18:00; We: 10:00-18:00; Th: 10:00-18:00; Fr: 10:00-18:00; Sa: 10:00-14:00,52.4669446,13.3116892
14199,Berlin,Schmargendorf,,Kissinger Str.,22,csbnan7s8n2s3,csbn2s3n1,Postfiliale,RETAIL_OUTLET,Backstube Zuckersüß,4316479,464.0,8,8-4316479,[],[],[],"[{'type': 'Bezeichnung', 'content': 'Berlin 337'}, {'type': 'christmasHintEN', 'content': ' '}, {'type': 'christmasHintDE', 'content': ' '}, {'type': 'open_all_day', 'content': 'false'}, {'type': 'nextAction_type', 'content': 'OPENINGHOUR'}, {'type': 'nextAction_day', 'content': 'today'}, {'type': 'nextAction_openUntil', 'content': '18:00'}, {'type': 'tt_timestamp', 'content': '35172443056739088'}]",,Mo: 09:00-18:00; Tu: 09:00-18:00; We: 09:00-18:00; Th: 09:00-18:00; Fr: 09:00-18:00; Sa: 09:00-16:00,52.4786315,13.2967128
12347,Berlin,Britz,,Mohriner Allee,69,csbnan7s8n2s3,csbn2s3n1,Postfiliale,RETAIL_OUTLET,Finanzberatung Elsayad,4322254,635.0,8,8-4322254,[],[],[],"[{'type': 'Bezeichnung', 'content': 'Berlin 469'}, {'type': 'christmasHintEN', 'content': ' '}, {'type': 'christmasHintDE', 'content': ' '}, {'type': 'open_all_day', 'content': 'false'}, {'type': 'nextAction_type', 'content': 'OPENINGHOUR'}, {'type': 'nextAction_day', 'content': 'today'}, {'type': 'nextAction_openUntil', 'content': '16:00'}, {'type': 'tt_timestamp', 'content': '35172443056739088'}]",,Mo: 11:00-16:00; Tu: 11:00-16:00; We: 11:00-16:00; Th: 11:00-16:00; Fr: 11:00-16:00; Sa: 12:00-15:00,52.4414998,13.4243222
13051,Berlin,Neu-Hohenschönhausen,,Prerower Platz,1,csbnan7s8n2s3,csbn2s3n1,Postbank Filiale,POSTBANK_FINANCE_CENTER,Postbank Filiale,13730,490.0,8,8-13730,[],[],"[{'type': 'closure', 'fromDate': '2025-10-01T00:00:00+0200', 'toDate': None}]","[{'type': 'christmasHintEN', 'content': ' '}, {'type': 'christmasHintDE', 'content': ' '}, {'type': 'Bezeichnung', 'content': 'Berlin-Hohenschönhausen 3'}, {'type': 'open_all_day', 'content': 'false'}, {'type': 'nextAction_type', 'content': 'OPENINGHOUR'}, {'type': 'nextAction_day', 'content': 'today'}, {'type': 'nextAction_openUntil', 'content': '18:30'}, {'type': 'tt_timestamp', 'content': '35172443056739088'}]",,Mo: 09:00-18:30; Tu: 09:00-18:30; We: 09:00-18:30; Th: 09:00-18:30; Fr: 09:00-18:30; Sa: 09:00-12:00,52.5648683,13.5065706
14057,Berlin,Westend,,Kaiserdamm,33,csbnan7s8n2s3,csbn2s3n1,Postfiliale,RETAIL_OUTLET,KM Spätkauf,4339013,657.0,8,8-4339013,[],[],[],"[{'type': 'Bezeichnung', 'content': 'Berlin 19'}, {'type': 'open_all_day', 'content': 'false'}, {'type': 'nextAction_type', 'content': 'OPENINGHOUR'}, {'type': 'nextAction_day', 'content': 'today'}, {'type': 'nextAction_openUntil', 'content': '20:00'}, {'type': 'tt_timestamp', 'content': '35172443056739088'}]",,Mo: 09:00-20:00; Tu: 09:00-20:00; We: 09:00-20:00; Th: 09:00-20:00; Fr: 09:00-20:00; Sa: 09:00-20:00,52.5100054,13.2780983
12169,Berlin,Steglitz,,Steglitzer Damm,22,csbnan7s8n2s3,csbn2s3n1,Postfiliale,RETAIL_OUTLET,Edeka Supermarkt,4328501,541.0,8,8-4328501,[],[],[],"[{'type': 'Bezeichnung', 'content': 'Berlin 414'}, {'type': 'christmasHintEN', 'content': ' '}, {'type': 'christmasHintDE', 'content': ' '}, {'type': 'open_all_day', 'content': 'false'}, {'type': 'nextAction_type', 'content': 'OPENINGHOUR'}, {'type': 'nextAction_day', 'content': 'today'}, {'type': 'nextAction_openUntil', 'content': '18:00'}, {'type': 'tt_timestamp', 'content': '35172443056739088'}]",,Mo: 09:30-18:00; Tu: 09:30-18:00; We: 09:30-18:00; Th: 09:30-18:00; Fr: 09:30-18:00; Sa: 09:30-14:00,52.4506899,13.3395637
14050,Berlin,Westend,,Soorstr.,61-62,csbn7s8n2s3,csbn2s3n1,Poststation,POSTSTATION,Postbank,333,,12,12-333,[],[],[],"[{'type': 'packstation_model', 'content': 'PPL01_S'}, {'type': 'packstn_utilization_mon', 'content': '3'}, {'type': 'packstn_utilization_tue', 'content': '3'}, {'type': 'packstn_utilization_sat', 'content': '3'}, {'type': 'packstn_utilization_sun', 'content': '2'}, {'type': 'packstation_type', 'content': 'POSTSTATION'}, {'type': 'packstn_utilization_wed', 'content': '3'}, {'type': 'packstationPrimaryKefPf', 'content': '1-14050715'}, {'type': 'packstn_utilization_thu', 'content': '2'}, {'type': 'capacity', 'content': '52'}, {'type': 'letterBoxPrimaryKefPf', 'content': '6-25002071'}, {'type': 'packstn_utilization_fri', 'content': '3'}, {'type': 'open_all_day', 'content': 'false'}, {'type': 'poststation_nextAction_openUntil', 'content': '13:00'}, {'type': 'poststation_nextAction_day', 'content': 'today'}, {'type': 'poststation_nextAction_openFrom', 'content': '14:00'}, {'type': 'nextAction_type', 'content': 'COLLECTION_TIME'}, {'type': 'nextAction_day', 'content': 'today'}, {'type': 'nextAction_openUntil', 'content': '17:30'}, {'type': 'tt_timestamp', 'content': '35172443056739088'}]",333.0,Not available,52.510319,13.2776801
12359,Berlin,Britz,,Parchimer Allee,33,csbnan7s8n2s3,csbn2s3n1,Postfiliale,RETAIL_OUTLET,Kiez Shop,4313238,700.0,8,8-4313238,[],[],[],"[{'type': 'christmasHintEN', 'content': ' '}, {'type': 'christmasHintDE', 'content': ' '}, {'type': 'Bezeichnung', 'content': 'Berlin 474'}, {'type': 'open_all_day', 'content': 'false'}, {'type': 'nextAction_type', 'content': 'OPENINGHOUR'}, {'type': 'nextAction_day', 'content': 'today'}, {'type': 'nextAction_openUntil', 'content': '19:00'}, {'type': 'tt_timestamp', 'content': '35172443056739088'}]",,Mo: 09:00-19:00; Tu: 09:00-19:00; We: 09:00-19:00; Th: 09:00-19:00; Fr: 09:00-19:00; Sa: 09:00-16:00,52.4452048,13.454471
12167,Berlin,Steglitz,,Albrechtstr.,114,csbnan7s8n2s3,csbn2s3n1,Postfiliale,RETAIL_OUTLET,Sweet Paper,4316858,745.0,8,8-4316858,[],[],[],"[{'type': 'Bezeichnung', 'content': 'Berlin 415'}, {'type': 'christmasHintEN', 'content': ' '}, {'type': 'christmasHintDE', 'content': ' '}, {'type': 'open_all_day', 'content': 'false'}, {'type': 'nextAction_type', 'content': 'OPENINGHOUR'}, {'type': 'nextAction_day', 'content': 'today'}, {'type': 'nextAction_openUntil', 'content': '20:00'}, {'type': 'tt_timestamp', 'content': '35172443056739088'}]",,Mo: 09:00-20:00; Tu: 09:00-20:00; We: 09:00-20:00; Th: 09:00-20:00; Fr: 09:00-20:00; Sa: 09:00-19:00,52.4548381,13.3274277
12165,Berlin,Steglitz,,Albrechtstr.,123,csbnan7s8n2s3,csbn2s3n1,Postfiliale,RETAIL_OUTLET,Presse-Tabak-Getränke-Cafe,4339012,597.0,8,8-4339012,[],[],[],"[{'type': 'Bezeichnung', 'content': 'Berlin 810'}, {'type': 'open_all_day', 'content': 'false'}, {'type': 'nextAction_type', 'content': 'OPENINGHOUR'}, {'type': 'nextAction_day', 'content': 'today'}, {'type': 'nextAction_openUntil', 'content': '18:00'}, {'type': 'tt_timestamp', 'content': '35172443056739088'}]",,Mo: 07:00-18:00; Tu: 07:00-18:00; We: 07:00-18:00; Th: 07:00-18:00; Fr: 07:00-18:00; Sa: 08:00-16:00,52.4557555,13.3251562
13129,Berlin,Blankenburg,,Bahnhofstr.,45,csbnan7s8n2s3,csbn2s3n1,Postfiliale,RETAIL_OUTLET,Spektrum Lebensfreude,4338275,511.0,8,8-4338275,[],[],[],"[{'type': 'Bezeichnung', 'content': 'Berlin-Blankenburg'}, {'type': 'open_all_day', 'content': 'false'}, {'type': 'nextAction_type', 'content': 'OPENINGHOUR'}, {'type': 'nextAction_day', 'content': 'today'}, {'type': 'nextAction_openUntil', 'content': '18:00'}, {'type': 'tt_timestamp', 'content': '35172443056739088'}]",,Mo: 09:30-18:00; Tu: 09:30-18:00; We: 09:30-18:00; Th: 09:30-18:00; Fr: 09:30-18:00; Sa: 09:30-14:00,52.5915009,13.4526808
13051,Berlin,Neu-Hohenschönhausen,,Wustrower Str.,20,csbnan7s8n2s3,csbn2s3n1,Postfiliale,RETAIL_OUTLET,Wustrower Back & Snack,4337535,642.0,8,8-4337535,[],[],[],"[{'type': 'Bezeichnung', 'content': 'Berlin-Hohenschönhausen 11'}, {'type': 'open_all_day', 'content': 'false'}, {'type': 'nextAction_type', 'content': 'OPENINGHOUR'}, {'type': 'nextAction_day', 'content': 'today'}, {'type': 'nextAction_openUntil', 'content': '17:30'}, {'type': 'tt_timestamp', 'content': '35172443056739088'}]",,Mo: 08:00-17:30; Tu: 08:00-17:30; We: 08:00-17:30; Th: 08:00-17:30; Fr: 08:00-17:30; Sa: 09:00-14:00,52.5664179,13.5086499
13403,Berlin,Reinickendorf,,Quäkerstr.,2,csbnan7s8n2s3,csbn2s3n1,Postfiliale,RETAIL_OUTLET,Änderungsschneiderei,4135238,539.0,8,8-4135238,[],[],"[{'type': 'holiday', 'fromDate': '2025-09-29T00:00:00+0200', 'toDate': '2025-10-12T23:59:59+0200'}]","[{'type': 'Bezeichnung', 'content': 'Berlin 513'}, {'type': 'christmasHintEN', 'content': ' '}, {'type': 'christmasHintDE', 'content': ' '}, {'type': 'open_all_day', 'content': 'false'}, {'type': 'nextAction_type', 'content': 'OPENINGHOUR'}, {'type': 'nextAction_day', 'content': 'today'}, {'type': 'nextAction_openUntil', 'content': '17:30'}, {'type': 'tt_timestamp', 'content': '35172443056739088'}]",,Mo: holiday-holiday; Tu: 09:30-17:30; We: 09:30-17:30; Th: 09:30-17:30; Fr: 09:30-17:30; Sa: 09:30-13:00,52.5727054,13.3084945
10318,Berlin,Karlshorst,,Treskowallee,110,csbnan7s8n2s3,csbn2s3n1,Postfiliale,RETAIL_OUTLET,Post Karlshorst,4316477,512.0,8,8-4316477,[],[],[],"[{'type': 'christmasHintEN', 'content': ' '}, {'type': 'christmasHintDE', 'content': ' '}, {'type': 'Bezeichnung', 'content': 'Berlin-Karlshorst'}, {'type': 'open_all_day', 'content': 'false'}, {'type': 'nextAction_type', 'content': 'OPENINGHOUR'}, {'type': 'nextAction_day', 'content': 'today'}, {'type': 'nextAction_openUntil', 'content': '18:00'}, {'type': 'tt_timestamp', 'content': '35172443056739088'}]",,Mo: 10:00-18:00; Tu: 10:00-18:00; We: 10:00-18:00; Th: 10:00-18:00; Fr: 10:00-18:00; Sa: 09:00-12:00,52.4825307,13.5252992
14052,Berlin,Westend,,Theodor-Heuss-Platz,4,csbnan7s8n2s3,csbn2s3n1,Postfiliale,RETAIL_OUTLET,CIGO,4319271,,8,8-4319271,[],[],[],"[{'type': 'christmasHintEN', 'content': ' '}, {'type': 'christmasHintDE', 'content': ' '}, {'type': 'Bezeichnung', 'content': 'Berlin 199'}, {'type': 'open_all_day', 'content': 'false'}, {'type': 'nextAction_type', 'content': 'OPENINGHOUR'}, {'type': 'nextAction_day', 'content': 'today'}, {'type': 'nextAction_openUntil', 'content': '18:00'}, {'type': 'tt_timestamp', 'content': '35172443056739088'}]",,Mo: 08:00-18:00; Tu: 08:00-18:00; We: 08:00-18:00; Th: 08:00-18:00; Fr: 08:00-18:00; Sa: 08:00-14:00,52.5100493,13.2731264
14199,Berlin,Schmargendorf,,Breite Str.,22a,csbnan7s8n2s3,csbn2s3n1,Postfiliale,RETAIL_OUTLET,NIGHT SHOP 59,4312197,507.0,8,8-4312197,[],[],[],"[{'type': 'christmasHintEN', 'content': ' '}, {'type': 'Bezeichnung', 'content': 'Berlin 33'}, {'type': 'christmasHintDE', 'content': ' '}, {'type': 'open_all_day', 'content': 'false'}, {'type': 'nextAction_type', 'content': 'OPENINGHOUR'}, {'type': 'nextAction_day', 'content': 'today'}, {'type': 'nextAction_openUntil', 'content': '18:30'}, {'type': 'tt_timestamp', 'content': '35172443056739088'}]",,Mo: 09:30-18:30; Tu: 09:30-18:30; We: 09:30-18:30; Th: 09:30-18:30; Fr: 09:30-18:30; Sa: 09:30-15:00,52.4752666,13.2916994
13059,Berlin,Neu-Hohenschönhausen,,Egon-Erwin-Kisch-Str.,34,csbnan7s8n2s3,csbn2s3n1,Postfiliale,RETAIL_OUTLET,Natürlich Blume,4078173,504.0,8,8-4078173,[],[],[],"[{'type': 'christmasHintEN', 'content': ' '}, {'type': 'christmasHintDE', 'content': ' '}, {'type': 'Bezeichnung', 'content': 'Berlin-Hohenschönhausen 5'}, {'type': 'open_all_day', 'content': 'false'}, {'type': 'nextAction_type', 'content': 'OPENINGHOUR'}, {'type': 'nextAction_day', 'content': 'today'}, {'type': 'nextAction_openUntil', 'content': '17:00'}, {'type': 'tt_timestamp', 'content': '35172443056739088'}]",,Mo: 09:00-17:00; Tu: 09:00-17:00; We: 09:00-17:00; Th: 09:00-17:00; Fr: 09:00-17:00; Sa: 08:00-12:00,52.5727495,13.5055204
12681,Berlin,Marzahn,,Märkische Allee,166-172,csbnan7s8n2s3,csbn2s3n1,Postfiliale,RETAIL_OUTLET,Tabakwaren-Lotto im Kaufland,4085701,,8,8-4085701,[],[],[],"[{'type': 'Bezeichnung', 'content': 'Berlin-Marzahn 13'}, {'type': 'christmasHintEN', 'content': ' '}, {'type': 'christmasHintDE', 'content': ' '}, {'type': 'open_all_day', 'content': 'false'}, {'type': 'nextAction_type', 'content': 'OPENINGHOUR'}, {'type': 'nextAction_day', 'content': 'today'}, {'type': 'nextAction_openUntil', 'content': '14:00'}, {'type': 'tt_timestamp', 'content': '35172443056739088'}]",,Mo: 08:00-14:00; Tu: 08:00-14:00; We: 08:00-14:00; Th: 08:00-14:00; Fr: 08:00-14:00; Sa: 08:00-13:00,52.5333764,13.5382683
12681,Berlin,Marzahn,,Helene-Weigel-Platz,6,csbnan7s8n2s3,csbn2s3n1,Postfiliale,RETAIL_OUTLET,Änderungsschneiderei,4133273,535.0,8,8-4133273,[],[],[],"[{'type': 'christmasHintEN', 'content': ' '}, {'type': 'christmasHintDE', 'content': ' '}, {'type': 'Bezeichnung', 'content': 'Berlin-Marzahn 7'}, {'type': 'open_all_day', 'content': 'false'}, {'type': 'nextAction_openUntil', 'content': '13:00'}, {'type': 'nextAction_type', 'content': 'OPENINGHOUR'}, {'type': 'nextAction_day', 'content': 'today'}, {'type': 'nextAction_openFrom', 'content': '13:30'}, {'type': 'tt_timestamp', 'content': '35172443056739088'}]",,Mo: 09:00-13:00; Tu: 13:30-17:30; We: 09:00-13:00; Th: 09:00-13:00; Fr: 09:00-13:00; Sa: 09:00-12:00,52.5285418,13.5398641
13057,Berlin,Neu-Hohenschönhausen,,Warnitzer Str.,26,csbnan7s8n2s3,csbn2s3n1,Postfiliale,RETAIL_OUTLET,HalbNeu Technischer An.-Verkauf,4330750,704.0,8,8-4330750,[],[],[],"[{'type': 'christmasHintEN', 'content': ' '}, {'type': 'christmasHintDE', 'content': ' '}, {'type': 'Bezeichnung', 'content': 'Berlin-Hohenschönhausen 12'}, {'type': 'open_all_day', 'content': 'false'}, {'type': 'nextAction_type', 'content': 'OPENINGHOUR'}, {'type': 'nextAction_day', 'content': 'today'}, {'type': 'nextAction_openUntil', 'content': '18:00'}, {'type': 'tt_timestamp', 'content': '35172443056739088'}]",,Mo: 10:00-18:00; Tu: 10:00-18:00; We: 10:00-18:00; Th: 10:00-18:00; Fr: 10:00-18:00; Sa: 10:00-14:00,52.5667681,13.5170517
10318,Berlin,Karlshorst,,Robert-Siewert-Str.,97,csbnan7s8n2s3,csbn2s3n1,Postfiliale,RETAIL_OUTLET,CAP ...der Lebensmittelpunkt,4129549,884.0,8,8-4129549,[],[],[],"[{'type': 'christmasHintEN', 'content': ' '}, {'type': 'christmasHintDE', 'content': ' '}, {'type': 'Bezeichnung', 'content': 'Berlin-Karlshorst 2'}, {'type': 'open_all_day', 'content': 'false'}, {'type': 'nextAction_type', 'content': 'OPENINGHOUR'}, {'type': 'nextAction_day', 'content': 'today'}, {'type': 'nextAction_openUntil', 'content': '18:00'}, {'type': 'tt_timestamp', 'content': '35172443056739088'}]",,Mo: 09:00-18:00; Tu: 09:00-18:00; We: 09:00-18:00; Th: 09:00-18:00; Fr: 09:00-18:00; Sa: 09:00-15:00,52.4931191,13.5374743
12167,Berlin,Steglitz,,Birkbuschstr.,20,csbnan7s8n2s3,csbn2s3n1,Postfiliale,RETAIL_OUTLET,Der Magnet im Süden Berlins,4111731,552.0,8,8-4111731,[],[],[],"[{'type': 'christmasHintEN', 'content': ' '}, {'type': 'christmasHintDE', 'content': ' '}, {'type': 'Bezeichnung', 'content': 'Berlin 409'}, {'type': 'open_all_day', 'content': 'false'}, {'type': 'nextAction_type', 'content': 'OPENINGHOUR'}, {'type': 'nextAction_day', 'content': 'today'}, {'type': 'nextAction_openUntil', 'content': '18:00'}, {'type': 'tt_timestamp', 'content': '35172443056739088'}]",,Mo: 08:00-18:00; Tu: 08:00-18:00; We: 08:00-18:00; Th: 08:00-18:00; Fr: 08:00-18:00; Sa: 08:00-14:00,52.4493544,13.3237443
12359,Berlin,Britz,,Gutschmidtstr.,29-31,csbnan7s8n2s3,csbn2s3n1,Postbank Filiale,POSTBANK_FINANCE_CENTER,Postbank Filiale,4068416,511.0,8,8-4068416,[],[],[],"[{'type': 'christmasHintEN', 'content': ' '}, {'type': 'christmasHintDE', 'content': ' '}, {'type': 'Bezeichnung', 'content': 'Berlin-Britz'}, {'type': 'open_all_day', 'content': 'false'}, {'type': 'nextAction_type', 'content': 'OPENINGHOUR'}, {'type': 'nextAction_day', 'content': 'today'}, {'type': 'nextAction_openUntil', 'content': '18:30'}, {'type': 'tt_timestamp', 'content': '35172443056739088'}]",,Mo: 09:00-18:30; Tu: 09:00-18:30; We: 09:00-18:30; Th: 14:00-18:30; Fr: 09:00-18:30; Sa: 09:00-13:00,52.436783,13.4470402
12359,Berlin,Britz,,Gutschmidtstr.,17-19,csbnan7s8n2s3,csbn2s3n1,Postfiliale,RETAIL_OUTLET,Lorenz Tabakwaren,4076881,,8,8-4076881,[],[],[],"[{'type': 'christmasHintEN', 'content': ' '}, {'type': 'christmasHintDE', 'content': ' '}, {'type': 'Bezeichnung', 'content': 'Berlin 470'}, {'type': 'open_all_day', 'content': 'false'}, {'type': 'nextAction_type', 'content': 'OPENINGHOUR'}, {'type': 'nextAction_day', 'content': 'today'}, {'type': 'nextAction_openUntil', 'content': '20:00'}, {'type': 'tt_timestamp', 'content': '35172443056739088'}]",,Mo: 09:00-20:00; Tu: 09:00-20:00; We: 09:00-20:00; Th: 09:00-20:00; Fr: 09:00-20:00; Sa: 09:00-20:00,52.4367637,13.4475966
12459,Berlin,Oberschöneweide,,Edisonstr.,56,csbnan7s8n2s3,csbn2s3n1,Postfiliale,RETAIL_OUTLET,Edison 56,4341367,593.0,8,8-4341367,[],[],[],"[{'type': 'Bezeichnung', 'content': 'Berlin 590'}, {'type': 'open_all_day', 'content': 'false'}, {'type': 'nextAction_type', 'content': 'OPENINGHOUR'}, {'type': 'nextAction_day', 'content': 'today'}, {'type': 'nextAction_openUntil', 'content': '21:00'}, {'type': 'tt_timestamp', 'content': '35172443056739088'}]",,Mo: 09:00-21:00; Tu: 09:00-21:00; We: 09:00-21:00; Th: 09:00-21:00; Fr: 09:00-21:00; Sa: 09:00-21:00,52.4637468,13.5135668
13437,Berlin,Wittenau,,Alt-Wittenau,24,csbnan7s8n2s3,csbn2s3n1,Postfiliale,RETAIL_OUTLET,Presse Lotto Tabak,4141228,594.0,8,8-4141228,[],[],[],"[{'type': 'christmasHintEN', 'content': ' '}, {'type': 'christmasHintDE', 'content': ' '}, {'type': 'Bezeichnung', 'content': 'Berlin 261'}, {'type': 'open_all_day', 'content': 'false'}, {'type': 'nextAction_type', 'content': 'OPENINGHOUR'}, {'type': 'nextAction_day', 'content': 'today'}, {'type': 'nextAction_openUntil', 'content': '18:00'}, {'type': 'tt_timestamp', 'content': '35172443056739088'}]",,Mo: 09:00-18:00; Tu: 09:00-18:00; We: 09:00-18:00; Th: 09:00-18:00; Fr: 09:00-18:00; Sa: 09:00-13:00,52.5904988,13.3314608
13439,Berlin,Wittenau,,Wilhelmsruher Damm,150,csbnan7s8n2s3,csbn2s3n1,Postbank Filiale,POSTBANK_FINANCE_CENTER,Postbank Filiale,1430,520.0,8,8-1430,[],[],[],"[{'type': 'christmasHintEN', 'content': ' '}, {'type': 'christmasHintDE', 'content': ' '}, {'type': 'Bezeichnung', 'content': 'Berlin 260'}, {'type': 'open_all_day', 'content': 'false'}, {'type': 'nextAction_type', 'content': 'OPENINGHOUR'}, {'type': 'nextAction_day', 'content': 'today'}, {'type': 'nextAction_openUntil', 'content': '18:00'}, {'type': 'tt_timestamp', 'content': '35172443056739088'}]",,Mo: 09:00-18:00; Tu: 09:00-18:00; We: 09:00-18:00; Th: 13:25-18:00; Fr: 09:00-18:00; Sa: 09:00-14:00,52.5965851,13.3505706
13435,Berlin,Märkisches Viertel,,Eichhorster Weg,5,csbnan7s8n2s3,csbn2s3n1,Postfiliale,RETAIL_OUTLET,Backshop Cafe Zeit,4334379,724.0,8,8-4334379,[],[],[],"[{'type': 'Bezeichnung', 'content': 'Berlin 269'}, {'type': 'open_all_day', 'content': 'false'}, {'type': 'nextAction_type', 'content': 'OPENINGHOUR'}, {'type': 'nextAction_day', 'content': 'today'}, {'type': 'nextAction_openUntil', 'content': '20:00'}, {'type': 'tt_timestamp', 'content': '35172443056739088'}]",,Mo: 08:30-20:00; Tu: 08:30-20:00; We: 08:30-20:00; Th: 08:30-20:00; Fr: 08:30-20:00; Sa: 08:30-18:00,52.5968238,13.346685
13439,Berlin,Märkisches Viertel,,Senftenberger Ring,17,csbnan7s8n2s3,csbn2s3n1,Postfiliale,RETAIL_OUTLET,Vodafone,4304198,502.0,8,8-4304198,[],[],[],"[{'type': 'christmasHintEN', 'content': ' '}, {'type': 'christmasHintDE', 'content': ' '}, {'type': 'Bezeichnung', 'content': 'Berlin 265'}, {'type': 'open_all_day', 'content': 'false'}, {'type': 'nextAction_type', 'content': 'OPENINGHOUR'}, {'type': 'nextAction_day', 'content': 'today'}, {'type': 'nextAction_openUntil', 'content': '18:00'}, {'type': 'tt_timestamp', 'content': '35172443056739088'}]",,Mo: 10:00-18:00; Tu: 10:00-18:00; We: 10:00-18:00; Th: 10:00-18:00; Fr: 10:00-18:00; Sa: 10:00-18:00,52.5990541,13.3555945
13629,Berlin,Siemensstadt,,Nonnendammallee,80,csbnan7s8n2s3,csbn2s3n1,Postfiliale,RETAIL_OUTLET,U-Back Sandwich&Coffee,4324207,668.0,8,8-4324207,[],[],[],"[{'type': 'christmasHintEN', 'content': ' '}, {'type': 'christmasHintDE', 'content': ' '}, {'type': 'Bezeichnung', 'content': 'Berlin-Siemensdamm'}, {'type': 'open_all_day', 'content': 'false'}, {'type': 'nextAction_type', 'content': 'OPENINGHOUR'}, {'type': 'nextAction_day', 'content': 'today'}, {'type': 'nextAction_openUntil', 'content': '18:00'}, {'type': 'tt_timestamp', 'content': '35172443056739088'}]",,Mo: 09:00-18:00; Tu: 09:00-18:00; We: 09:00-18:00; Th: 09:00-18:00; Fr: 09:00-18:00; Sa: 09:00-14:00,52.5364658,13.2655146
13439,Berlin,Märkisches Viertel,,Senftenberger Ring,17,csbn7s8n2s3,csbn2s3n1,Poststation,POSTSTATION,"Märkische Zeile, am Parkhaus",840,,12,12-840,[],[],[],"[{'type': 'packstn_utilization_fri', 'content': '1'}, {'type': 'packstation_model', 'content': 'PPL01_S'}, {'type': 'packstationPrimaryKefPf', 'content': '1-13439722'}, {'type': 'packstn_utilization_sun', 'content': '1'}, {'type': 'packstn_utilization_tue', 'content': '1'}, {'type': 'packstation_type', 'content': 'POSTSTATION'}, {'type': 'packstn_utilization_sat', 'content': '1'}, {'type': 'letterBoxPrimaryKefPf', 'content': '6-25051374'}, {'type': 'packstn_utilization_thu', 'content': '1'}, {'type': 'capacity', 'content': '69'}, {'type': 'packstn_utilization_wed', 'content': '1'}, {'type': 'packstn_utilization_mon', 'content': '1'}, {'type': 'open_all_day', 'content': 'true'}, {'type': 'poststation_nextAction_day', 'content': 'today'}, {'type': 'poststation_nextAction_openUntil', 'content': '24:00'}, {'type': 'nextAction_type', 'content': 'COLLECTION_TIME'}, {'type': 'nextAction_day', 'content': 'today'}, {'type': 'nextAction_openUntil', 'content': '16:00'}, {'type': 'tt_timestamp', 'content': '35172443056739088'}]",840.0,Not available,52.59946,13.3555561
12247,Berlin,Lankwitz,,Leonorenstr.,77,csbnan7s8n2s3,csbn2s3n1,Postfiliale,RETAIL_OUTLET,Kiosk,4312658,545.0,8,8-4312658,[],[],"[{'type': 'closure', 'fromDate': '2025-12-31T00:00:00+0100', 'toDate': None}]","[{'type': 'Bezeichnung', 'content': 'Berlin 459'}, {'type': 'christmasHintEN', 'content': ' '}, {'type': 'christmasHintDE', 'content': ' '}, {'type': 'open_all_day', 'content': 'false'}, {'type': 'nextAction_type', 'content': 'OPENINGHOUR'}, {'type': 'nextAction_day', 'content': 'today'}, {'type': 'nextAction_openUntil', 'content': '20:00'}, {'type': 'tt_timestamp', 'content': '35172443056739088'}]",,Mo: 09:00-20:00; Tu: 09:00-20:00; We: 09:00-20:00; Th: 09:00-20:00; Fr: 09:00-20:00; Sa: 09:00-20:00,52.4383557,13.3445561
12203,Berlin,Lichterfelde,,Hindenburgdamm,62,csbnan7s8n2s3,csbn2s3n1,Postfiliale,RETAIL_OUTLET,Tabakwaren Am Händelplatz,4337727,624.0,8,8-4337727,[],[],[],"[{'type': 'Bezeichnung', 'content': 'Berlin 416'}, {'type': 'open_all_day', 'content': 'false'}, {'type': 'nextAction_type', 'content': 'OPENINGHOUR'}, {'type': 'nextAction_day', 'content': 'today'}, {'type': 'nextAction_openUntil', 'content': '22:00'}, {'type': 'tt_timestamp', 'content': '35172443056739088'}]",,Mo: 08:00-22:00; Tu: 08:00-22:00; We: 08:00-22:00; Th: 08:00-22:00; Fr: 08:00-22:00; Sa: 08:00-22:00,52.4491772,13.3156373
13437,Berlin,Wittenau,,Roedernallee,88-90,csbnan7s8n2s3,csbn2s3n1,Postfiliale,RETAIL_OUTLET,SOPRORO-Sozialprojekt,4130532,519.0,8,8-4130532,[],[],[],"[{'type': 'christmasHintEN', 'content': ' '}, {'type': 'christmasHintDE', 'content': ' '}, {'type': 'Bezeichnung', 'content': 'Berlin 267'}, {'type': 'open_all_day', 'content': 'false'}, {'type': 'nextAction_type', 'content': 'OPENINGHOUR'}, {'type': 'nextAction_day', 'content': 'today'}, {'type': 'nextAction_openUntil', 'content': '18:00'}, {'type': 'tt_timestamp', 'content': '35172443056739088'}]",,Mo: 10:00-18:00; Tu: 10:00-18:00; We: 10:00-18:00; Th: 10:00-18:00; Fr: 10:00-18:00; Sa: 10:00-14:00,52.5939883,13.333894
12439,Berlin,Niederschöneweide,,Schnellerstr.,21,csbnan7s8n2s3,csbn2s3n1,Postfiliale,RETAIL_OUTLET,CIGO,4319710,,8,8-4319710,[],[],[],"[{'type': 'christmasHintEN', 'content': ' '}, {'type': 'christmasHintDE', 'content': ' '}, {'type': 'Bezeichnung', 'content': 'Berlin-Niederschöneweide 3'}, {'type': 'open_all_day', 'content': 'false'}, {'type': 'nextAction_type', 'content': 'OPENINGHOUR'}, {'type': 'nextAction_day', 'content': 'today'}, {'type': 'nextAction_openUntil', 'content': '19:00'}, {'type': 'tt_timestamp', 'content': '35172443056739088'}]",,Mo: 08:00-19:00; Tu: 08:00-19:00; We: 08:00-19:00; Th: 08:00-19:00; Fr: 08:00-19:00; Sa: 08:00-19:00,52.4564148,13.5092115
12249,Berlin,Lankwitz,,Kamenzer Damm,40,csbnan7s8n2s3,csbn2s3n1,Postfiliale,RETAIL_OUTLET,Wunderkiste,4099456,544.0,8,8-4099456,[],[],[],"[{'type': 'christmasHintEN', 'content': ' '}, {'type': 'christmasHintDE', 'content': ' '}, {'type': 'Bezeichnung', 'content': 'Berlin 461'}, {'type': 'open_all_day', 'content': 'false'}, {'type': 'nextAction_type', 'content': 'OPENINGHOUR'}, {'type': 'nextAction_day', 'content': 'today'}, {'type': 'nextAction_openFrom', 'content': '13:00'}, {'type': 'tt_timestamp', 'content': '35172443056739088'}]",,Mo: 09:00-17:30; Tu: 13:00-17:30; We: 13:00-17:30; Th: 13:00-17:30; Fr: 09:00-17:30; Sa: 09:00-12:00,52.4340416,13.3595843
12439,Berlin,Niederschöneweide,,Schnellerstr.,127,csbnan7s8n2s3,csbn2s3n1,Postfiliale,RETAIL_OUTLET,Lotto/ Toto,4127893,,8,8-4127893,[],[],[],"[{'type': 'christmasHintEN', 'content': ' '}, {'type': 'christmasHintDE', 'content': ' '}, {'type': 'Bezeichnung', 'content': 'Berlin-Niederschöneweide 2'}, {'type': 'open_all_day', 'content': 'false'}, {'type': 'nextAction_type', 'content': 'OPENINGHOUR'}, {'type': 'nextAction_day', 'content': 'today'}, {'type': 'nextAction_openUntil', 'content': '20:00'}, {'type': 'tt_timestamp', 'content': '35172443056739088'}]",,Mo: 06:00-20:00; Tu: 06:00-20:00; We: 06:00-20:00; Th: 06:00-20:00; Fr: 06:00-18:00; Sa: 08:00-13:00,52.456437,13.5108793
13509,Berlin,Borsigwalde,,Holzhauser Str.,59,csbnan7s8n2s3,csbn2s3n1,Postfiliale,RETAIL_OUTLET,Moes Back&Späti,4340794,580.0,8,8-4340794,[],[],[],"[{'type': 'Bezeichnung', 'content': 'Berlin 277'}, {'type': 'open_all_day', 'content': 'false'}, {'type': 'nextAction_type', 'content': 'OPENINGHOUR'}, {'type': 'nextAction_day', 'content': 'today'}, {'type': 'nextAction_openUntil', 'content': '19:00'}, {'type': 'tt_timestamp', 'content': '35172443056739088'}]",,Mo: 08:00-19:00; Tu: 08:00-19:00; We: 08:00-19:00; Th: 08:00-19:00; Fr: 08:00-19:00; Sa: 08:00-16:00,52.5806879,13.3023854
13059,Berlin,Wartenberg,,Dorfstr.,25,csbnan7s8n2s3,csbn2s3n1,Postfiliale,RETAIL_OUTLET,Fairkauf,4137231,546.0,8,8-4137231,[],[],[],"[{'type': 'christmasHintEN', 'content': ' '}, {'type': 'christmasHintDE', 'content': ' '}, {'type': 'Bezeichnung', 'content': 'Berlin-Hohenschönhausen 8'}, {'type': 'open_all_day', 'content': 'false'}, {'type': 'nextAction_type', 'content': 'OPENINGHOUR'}, {'type': 'nextAction_day', 'content': 'today'}, {'type': 'nextAction_openUntil', 'content': '19:00'}, {'type': 'tt_timestamp', 'content': '35172443056739088'}]",,Mo: 09:00-19:00; Tu: 09:00-19:00; We: 09:00-19:00; Th: 09:00-19:00; Fr: 09:00-19:00; Sa: 09:00-14:00,52.5750749,13.5176365
12459,Berlin,Oberschöneweide,,Wilhelminenhofstr.,36,csbnan7s8n2s3,csbn2s3n1,Postfiliale,RETAIL_OUTLET,Haushaltswaren / Stoffe/ Kurzwaren,4124219,560.0,8,8-4124219,[],[],"[{'type': 'closure', 'fromDate': '2025-10-07T00:00:00+0200', 'toDate': None}]","[{'type': 'christmasHintEN', 'content': ' '}, {'type': 'christmasHintDE', 'content': ' '}, {'type': 'Bezeichnung', 'content': 'Berlin-Oberschöneweide 2'}, {'type': 'open_all_day', 'content': 'false'}, {'type': 'nextAction_type', 'content': 'OPENINGHOUR'}, {'type': 'nextAction_day', 'content': 'today'}, {'type': 'nextAction_openUntil', 'content': '18:00'}, {'type': 'tt_timestamp', 'content': '35172443056739088'}]",,Mo: 10:00-18:00; Tu: 10:00-18:00; We: 10:00-18:00; Th: 10:00-18:00; Fr: 10:00-18:00; Sa: 10:00-12:00,52.4612442,13.5195013
14052,Berlin,Westend,,Reichsstr.,36,csbnan7s8n2s3,csbn2s3n1,Postfiliale,RETAIL_OUTLET,Presse & Tabak am Brixplatz,4130322,463.0,8,8-4130322,[],[],[],"[{'type': 'christmasHintEN', 'content': ' '}, {'type': 'christmasHintDE', 'content': ' '}, {'type': 'Bezeichnung', 'content': 'Berlin 192'}, {'type': 'open_all_day', 'content': 'false'}, {'type': 'nextAction_type', 'content': 'OPENINGHOUR'}, {'type': 'nextAction_day', 'content': 'today'}, {'type': 'nextAction_openUntil', 'content': '18:30'}, {'type': 'tt_timestamp', 'content': '35172443056739088'}]",,Mo: 07:00-18:30; Tu: 07:00-18:30; We: 07:00-18:30; Th: 07:00-18:30; Fr: 07:00-18:30; Sa: 07:00-13:30,52.5193025,13.2571635
